"STATION","DATE","SOURCE","LATITUDE","LONGITUDE","ELEVATION","NAME","REPORT_TYPE","CALL_SIGN","QUALITY_CONTROL","WND","CIG","VIS","TMP","DEW","SLP","GA1","GA2","GA3","GA4","GF1","KA1","MA1","MW1","MW2","MW3","OC1","REM","EQD"
"01044099999","2008-01-01T12:50:00","4","70.486675","22.139744","6.4","HASVIK, NO","FM-15","ENHK ","V020","100,1,N,0057,1","99999,9,C,Y","009900,1,N,1","+0000,1","-0060,1","99999,9",,,,,,,"10389,1,99999,9",,,,,"MET046METAR ENHK 011250Z 10011KT CAVOK 00/M06 Q1039;",
"01044099999","2008-01-01T13:20:00","4","70.486675","22.139744","6.4","HASVIK, NO","FM-15","ENHK ","V020","100,1,N,0051,1","99999,9,C,Y","009900,1,N,1","+0000,1","-0060,1","99999,9",,,,,,,"10389,1,99999,9",,,,,"MET047METAR ENHK 011320Z 10010KT CAVOK M00/M06 Q1039;",
"01044099999","2008-01-01T13:50:00","4","70.486675","22.139744","6.4","HASVIK, NO","FM-15","ENHK ","V020","100,1,N,0051,1","99999,9,C,Y","009900,1,N,1","+0000,1","-0060,1","99999,9",,,,,,,"10389,1,99999,9",,,,,"MET046METAR ENHK 011350Z 10010KT CAVOK 00/M06 Q1039;",
"01044099999","2008-01-01T14:20:00","4","70.486675","22.139744","6.4","HASVIK, NO","FM-15","ENHK ","V020","100,1,N,0051,1","99999,9,C,Y","009900,1,N,1","-0010,1","-0070,1","99999,9",,,,,,,"10389,1,99999,9",,,,,"MET047METAR ENHK 011420Z 10010KT CAVOK M01/M07 Q1039;",
"01044099999","2008-01-01T14:50:00","4","70.486675","22.139744","6.4","HASVIK, NO","FM-15","ENHK ","V020","100,1,N,0051,1","99999,9,C,Y","009900,1,N,1","-0010,1","-0060,1","99999,9",,,,,,,"10400,1,99999,9",,,,,"MET047METAR ENHK 011450Z 10010KT CAVOK M01/M06 Q1040;",
"01044099999","2008-01-02T04:20:00","4","70.486675","22.139744","6.4","HASVIK, NO","FM-15","ENHK ","V020","100,1,N,0051,1","22000,1,9,N","011265,1,N,1","-0010,1","-0080,1","99999,9",,,,,"00,99,1,99,9,99,9,99999,9,99,9,99,9",,"10389,1,99999,9",,,,,"MET050METAR ENHK 020420Z 10010KT 9999 NSC M01/M08 Q1039;","Q01    003SCCGA1"
"01044099999","2008-01-02T04:50:00","4","70.486675","22.139744","6.4","HASVIK, NO","FM-15","ENHK ","V020","090,1,N,0051,1","22000,1,9,N","011265,1,N,1","-0010,1","-0070,1","99999,9",,,,,"00,99,1,99,9,99,9,99999,9,99,9,99,9",,"10389,1,99999,9",,,,,"MET050METAR ENHK 020450Z 09010KT 9999 NSC M01/M07 Q1039;","Q01    003SCCGA1"
"01044099999","2008-01-02T05:50:00","4","70.486675","22.139744","6.4","HASVIK, NO","FM-15","ENHK ","V020","100,1,N,0057,1","22000,1,9,N","011265,1,N,1","-0010,1","-0060,1","99999,9",,,,,"00,99,1,99,9,99,9,99999,9,99,9,99,9",,"10389,1,99999,9",,,,,"MET050METAR ENHK 020550Z 10011KT 9999 NSC M01/M06 Q1039;","Q01    003SCCGA1"
"01044099999","2008-01-02T06:20:00","4","70.486675","22.139744","6.4","HASVIK, NO","FM-15","ENHK ","V020","100,1,N,0046,1","22000,1,9,N","011265,1,N,1","-0010,1","-0070,1","99999,9",,,,,"00,99,1,99,9,99,9,99999,9,99,9,99,9",,"10379,1,99999,9",,,,,"MET050METAR ENHK 020620Z 10009KT 9999 NSC M01/M07 Q1038;","Q01    003SCCGA1"
"01044099999","2008-01-02T06:50:00","4","70.486675","22.139744","6.4","HASVIK, NO","FM-15","ENHK ","V020","100,1,N,0057,1","99999,9,C,Y","009900,1,N,1","+0000,1","-0060,1","99999,9",,,,,,,"10379,1,99999,9",,,,,"MET047METAR ENHK 020650Z 10011KT CAVOK M00/M06 Q1038;",
"01044099999","2008-01-02T12:50:00","4","70.486675","22.139744","6.4","HASVIK, NO","FM-15","ENHK ","V020","100,1,N,0051,1","99999,9,C,Y","009900,1,N,1","+0000,1","-0060,1","99999,9",,,,,,,"10379,1,99999,9",,,,,"MET047METAR ENHK 021250Z 10010KT CAVOK M00/M06 Q1038;",
"01044099999","2008-01-02T13:20:00","4","70.486675","22.139744","6.4","HASVIK, NO","FM-15","ENHK ","V020","110,1,N,0057,1","99999,9,C,Y","009900,1,N,1","+0010,1","-0050,1","99999,9",,,,,,,"10379,1,99999,9",,,,,"MET046METAR ENHK 021320Z 11011KT CAVOK 01/M05 Q1038;",
"01044099999","2008-01-02T13:50:00","4","70.486675","22.139744","6.4","HASVIK, NO","FM-15","ENHK ","V020","110,1,N,0067,1","99999,9,C,Y","009900,1,N,1","+0010,1","-0050,1","99999,9",,,,,,,"10379,1,99999,9",,,,,"MET046METAR ENHK 021350Z 11013KT CAVOK 01/M05 Q1038;",
"01044099999","2008-01-02T14:20:00","4","70.486675","22.139744","6.4","HASVIK, NO","FM-15","ENHK ","V020","110,1,N,0062,1","99999,9,C,Y","009900,1,N,1","+0010,1","-0050,1","99999,9",,,,,,,"10379,1,99999,9",,,,,"MET046METAR ENHK 021420Z 11012KT CAVOK 01/M05 Q1038;",
"01044099999","2008-01-02T14:50:00","4","70.486675","22.139744","6.4","HASVIK, NO","FM-15","ENHK ","V020","100,1,N,0057,1","99999,9,C,Y","009900,1,N,1","+0000,1","-0060,1","99999,9",,,,,,,"10379,1,99999,9",,,,,"MET047METAR ENHK 021450Z 10011KT CAVOK M00/M06 Q1038;",
"01044099999","2008-01-02T15:20:00","4","70.486675","22.139744","6.4","HASVIK, NO","FM-15","ENHK ","V020","090,1,N,0062,1","99999,9,C,Y","009900,1,N,1","+0000,1","-0060,1","99999,9",,,,,,,"10379,1,99999,9",,,,,"MET046METAR ENHK 021520Z 09012KT CAVOK 00/M06 Q1038;",
"01044099999","2008-01-03T04:20:00","4","70.486675","22.139744","6.4","HASVIK, NO","FM-15","ENHK ","V020","160,1,N,0021,1","99999,9,C,Y","009900,1,N,1","+0020,1","-0050,1","99999,9",,,,,,,"10400,1,99999,9",,,,,"MET046METAR ENHK 030420Z 16004KT CAVOK 02/M05 Q1040;",
"01044099999","2008-01-03T04:50:00","4","70.486675","22.139744","6.4","HASVIK, NO","FM-15","ENHK ","V020","200,1,N,0021,1","99999,9,C,Y","009900,1,N,1","+0020,1","-0040,1","99999,9",,,,,,,"10400,1,99999,9",,,,,"MET054METAR ENHK 030450Z 20004KT 140V260 CAVOK 02/M04 Q1040;",
"01044099999","2008-01-03T05:20:00","4","70.486675","22.139744","6.4","HASVIK, NO","FM-15","ENHK ","V020","160,1,N,0026,1","99999,9,C,Y","009900,1,N,1","+0020,1","-0050,1","99999,9",,,,,,,"10400,1,99999,9",,,,,"MET054METAR ENHK 030520Z 16005KT 110V220 CAVOK 02/M05 Q1040;",
"01044099999","2008-01-03T05:50:00","4","70.486675","22.139744","6.4","HASVIK, NO","FM-15","ENHK ","V020","170,1,N,0031,1","99999,9,C,Y","009900,1,N,1","+0020,1","-0050,1","99999,9",,,,,,,"10400,1,99999,9",,,,,"MET046METAR ENHK 030550Z 17006KT CAVOK 02/M05 Q1040;",
"01044099999","2008-01-03T06:20:00","4","70.486675","22.139744","6.4","HASVIK, NO","FM-15","ENHK ","V020","180,1,N,0031,1","99999,9,C,Y","009900,1,N,1","+0020,1","-0050,1","99999,9",,,,,,,"10389,1,99999,9",,,,,"MET046METAR ENHK 030620Z 18006KT CAVOK 02/M05 Q1039;",
"01044099999","2008-01-03T06:50:00","4","70.486675","22.139744","6.4","HASVIK, NO","FM-15","ENHK ","V020","999,9,V,0021,1","99999,9,C,Y","009900,1,N,1","+0020,1","-0050,1","99999,9",,,,,,,"10400,1,99999,9",,,,,"MET046METAR ENHK 030650Z VRB04KT CAVOK 02/M05 Q1040;",
"01044099999","2008-01-03T13:20:00","4","70.486675","22.139744","6.4","HASVIK, NO","FM-15","ENHK ","V020","180,1,N,0036,1","22000,1,9,N","011265,1,N,1","+0020,1","-0030,1","99999,9","02,5,+01260,1,99,9",,,,"02,99,1,99,9,99,9,99999,9,99,9,99,9",,"10400,1,99999,9",,,,,"MET060METAR ENHK 031320Z 18007KT 150V240 9999 FEW042 02/M03 Q1040;",
"01044099999","2008-01-03T14:20:00","4","70.486675","22.139744","6.4","HASVIK, NO","FM-15","ENHK ","V020","180,1,N,0041,1","22000,1,9,N","011265,1,N,1","+0020,1","-0040,1","99999,9","02,5,+01260,1,99,9",,,,"02,99,1,99,9,99,9,99999,9,99,9,99,9",,"10400,1,99999,9",,,,,"MET052METAR ENHK 031420Z 18008KT 9999 FEW042 02/M04 Q1040;",
"01044099999","2008-01-03T14:50:00","4","70.486675","22.139744","6.4","HASVIK, NO","FM-15","ENHK ","V020","170,1,N,0036,1","22000,1,9,N","011265,1,N,1","+0010,1","-0040,1","99999,9","02,5,+01230,1,99,9",,,,"02,99,1,99,9,99,9,99999,9,99,9,99,9",,"10400,1,99999,9",,,,,"MET052METAR ENHK 031450Z 17007KT 9999 FEW041 01/M04 Q1040;",
"01044099999","2008-01-04T04:20:00","4","70.486675","22.139744","6.4","HASVIK, NO","FM-15","ENHK ","V020","110,1,N,0067,1","99999,9,C,Y","009900,1,N,1","-0010,1","-0070,1","99999,9",,,,,,,"10379,1,99999,9",,,,,"MET047METAR ENHK 040420Z 11013KT CAVOK M01/M07 Q1038;",
"01044099999","2008-01-04T04:50:00","4","70.486675","22.139744","6.4","HASVIK, NO","FM-15","ENHK ","V020","110,1,N,0051,1","99999,9,C,Y","009900,1,N,1","-0010,1","-0070,1","99999,9",,,,,,,"10379,1,99999,9",,,,,"MET055METAR ENHK 040450Z 11010KT 060V150 CAVOK M01/M07 Q1038;",
"01044099999","2008-01-04T05:20:00","4","70.486675","22.139744","6.4","HASVIK, NO","FM-15","ENHK ","V020","110,1,N,0057,1","99999,9,C,Y","009900,1,N,1","-0010,1","-0080,1","99999,9",,,,,,,"10379,1,99999,9",,,,,"MET047METAR ENHK 040520Z 11011KT CAVOK M01/M08 Q1038;",
"01044099999","2008-01-04T05:50:00","4","70.486675","22.139744","6.4","HASVIK, NO","FM-15","ENHK ","V020","100,1,N,0062,1","99999,9,C,Y","009900,1,N,1","-0020,1","-0080,1","99999,9",,,,,,,"10379,1,99999,9",,,,,"MET047METAR ENHK 040550Z 10012KT CAVOK M02/M08 Q1038;",
"01044099999","2008-01-04T06:50:00","4","70.486675","22.139744","6.4","HASVIK, NO","FM-15","ENHK ","V020","100,1,N,0093,1","99999,9,C,Y","009900,1,N,1","-0020,1","-0090,1","99999,9",,,,,,,"10369,1,99999,9",,,,,"MET047METAR ENHK 040650Z 10018KT CAVOK M02/M09 Q1037;",
"01044099999","2008-01-04T12:50:00","4","70.486675","22.139744","6.4","HASVIK, NO","FM-15","ENHK ","V020","100,1,N,0072,1","99999,9,C,Y","009900,1,N,1","-0010,1","-0070,1","99999,9",,,,,,,"10349,1,99999,9",,,,,"MET047METAR ENHK 041250Z 10014KT CAVOK M01/M07 Q1035;",
"01044099999","2008-01-04T13:20:00","4","70.486675","22.139744","6.4","HASVIK, NO","FM-15","ENHK ","V020","100,1,N,0072,1","99999,9,C,Y","009900,1,N,1","+0000,1","-0070,1","99999,9",,,,,,,"10349,1,99999,9",,,,,"MET047METAR ENHK 041320Z 10014KT CAVOK M00/M07 Q1035;",
"01044099999","2008-01-04T13:50:00","4","70.486675","22.139744","6.4","HASVIK, NO","FM-15","ENHK ","V020","100,1,N,0072,1","99999,9,C,Y","009900,1,N,1","+0000,1","-0070,1","99999,9",,,,,,,"10339,1,99999,9",,,,,"MET047METAR ENHK 041350Z 10014KT CAVOK M00/M07 Q1034;",
"01044099999","2008-01-04T14:20:00","4","70.486675","22.139744","6.4","HASVIK, NO","FM-15","ENHK ","V020","110,1,N,0093,1","99999,9,C,Y","009900,1,N,1","+0000,1","-0070,1","99999,9",,,,,,,"10339,1,99999,9",,,,,"MET046METAR ENHK 041420Z 11018KT CAVOK 00/M07 Q1034;",
"01044099999","2008-01-04T14:50:00","4","70.486675","22.139744","6.4","HASVIK, NO","FM-15","ENHK ","V020","110,1,N,0082,1","99999,9,C,Y","009900,1,N,1","+0000,1","-0060,1","99999,9",,,,,,,"10339,1,99999,9",,,,,"MET046METAR ENHK 041450Z 11016KT CAVOK 00/M06 Q1034;",
"01044099999","2008-01-04T15:20:00","4","70.486675","22.139744","6.4","HASVIK, NO","FM-15","ENHK ","V020","110,1,N,0077,1","99999,9,C,Y","009900,1,N,1","+0000,1","-0070,1","99999,9",,,,,,,"10339,1,99999,9",,,,,"MET046METAR ENHK 041520Z 11015KT CAVOK 00/M07 Q1034;",
"01044099999","2008-01-04T15:50:00","4","70.486675","22.139744","6.4","HASVIK, NO","FM-15","ENHK ","V020","110,1,N,0082,1","99999,9,C,Y","009900,1,N,1","+0000,1","-0070,1","99999,9",,,,,,,"10329,1,99999,9",,,,,"MET046METAR ENHK 041550Z 11016KT CAVOK 00/M07 Q1033;",
"01044099999","2008-01-06T12:50:00","4","70.486675","22.139744","6.4","HASVIK, NO","FM-15","ENHK ","V020","110,1,N,0072,1","99999,9,C,Y","009900,1,N,1","+0000,1","-0070,1","99999,9",,,,,,,"10091,1,99999,9",,,,,"MET046METAR ENHK 061250Z 11014KT CAVOK 00/M07 Q1009;",
"01044099999","2008-01-06T13:20:00","4","70.486675","22.139744","6.4","HASVIK, NO","FM-15","ENHK ","V020","110,1,N,0067,1","99999,9,C,Y","009900,1,N,1","+0000,1","-0060,1","99999,9",,,,,,,"10091,1,99999,9",,,,,"MET046METAR ENHK 061320Z 11013KT CAVOK 00/M06 Q1009;",
"01044099999","2008-01-06T13:50:00","4","70.486675","22.139744","6.4","HASVIK, NO","FM-15","ENHK ","V020","110,1,N,0067,1","99999,9,C,Y","009900,1,N,1","+0000,1","-0070,1","99999,9",,,,,,,"10091,1,99999,9",,,,,"MET046METAR ENHK 061350Z 11013KT CAVOK 00/M07 Q1009;",
"01044099999","2008-01-06T14:20:00","4","70.486675","22.139744","6.4","HASVIK, NO","FM-15","ENHK ","V020","110,1,N,0082,1","99999,9,C,Y","009900,1,N,1","+0000,1","-0060,1","99999,9",,,,,,,"10081,1,99999,9",,,,,"MET046METAR ENHK 061420Z 11016KT CAVOK 00/M06 Q1008;",
"01044099999","2008-01-06T14:50:00","4","70.486675","22.139744","6.4","HASVIK, NO","FM-15","ENHK ","V020","110,1,N,0077,1","99999,9,C,Y","009900,1,N,1","+0000,1","-0060,1","99999,9",,,,,,,"10081,1,99999,9",,,,,"MET046METAR ENHK 061450Z 11015KT CAVOK 00/M06 Q1008;",
"01044099999","2008-01-06T15:20:00","4","70.486675","22.139744","6.4","HASVIK, NO","FM-15","ENHK ","V020","110,1,N,0082,1","99999,9,C,Y","009900,1,N,1","+0000,1","-0060,1","99999,9",,,,,,,"10081,1,99999,9",,,,,"MET046METAR ENHK 061520Z 11016KT CAVOK 00/M06 Q1008;",
"01044099999","2008-01-07T04:20:00","4","70.486675","22.139744","6.4","HASVIK, NO","FM-15","ENHK ","V020","100,1,N,0093,1","99999,9,C,Y","009900,1,N,1","-0010,1","-0080,1","99999,9",,,,,,,"10051,1,99999,9",,,,,"MET047METAR ENHK 070420Z 10018KT CAVOK M01/M08 Q1005;",
"01044099999","2008-01-07T04:50:00","4","70.486675","22.139744","6.4","HASVIK, NO","FM-15","ENHK ","V020","100,1,N,0093,1","99999,9,C,Y","009900,1,N,1","-0010,1","-0070,1","99999,9",,,,,,,"10041,1,99999,9",,,,,"MET047METAR ENHK 070450Z 10018KT CAVOK M01/M07 Q1004;",
"01044099999","2008-01-07T05:20:00","4","70.486675","22.139744","6.4","HASVIK, NO","FM-15","ENHK ","V020","100,1,N,0093,1","99999,9,C,Y","009900,1,N,1","-0010,1","-0060,1","99999,9",,,,,,,"10041,1,99999,9",,,,,"MET047METAR ENHK 070520Z 10018KT CAVOK M01/M06 Q1004;",
"01044099999","2008-01-07T05:50:00","4","70.486675","22.139744","6.4","HASVIK, NO","FM-15","ENHK ","V020","100,1,N,0098,1","99999,9,C,Y","009900,1,N,1","+0000,1","-0060,1","99999,9",,,,,,,"10041,1,99999,9",,,,,"MET047METAR ENHK 070550Z 10019KT CAVOK M00/M06 Q1004;",
"01044099999","2008-01-07T06:20:00","4","70.486675","22.139744","6.4","HASVIK, NO","FM-15","ENHK ","V020","110,1,N,0098,1","99999,9,C,Y","009900,1,N,1","+0000,1","-0050,1","99999,9",,,,,,,"10041,1,99999,9",,,,,"MET047METAR ENHK 070620Z 11019KT CAVOK M00/M05 Q1004;",
"01044099999","2008-01-07T06:50:00","4","70.486675","22.139744","6.4","HASVIK, NO","FM-15","ENHK ","V020","100,1,N,0082,1","99999,9,C,Y","009900,1,N,1","-0010,1","-0060,1","99999,9",,,,,,,"10041,1,99999,9",,,,,"MET047METAR ENHK 070650Z 10016KT CAVOK M01/M06 Q1004;",
"01044099999","2008-01-07T13:20:00","4","70.486675","22.139744","6.4","HASVIK, NO","FM-15","ENHK ","V020","100,1,N,0067,1","99999,9,C,Y","009900,1,N,1","+0000,1","-0050,1","99999,9",,,,,,,"10041,1,99999,9",,,,,"MET047METAR ENHK 071320Z 10013KT CAVOK M00/M05 Q1004;",
"01044099999","2008-01-07T13:50:00","4","70.486675","22.139744","6.4","HASVIK, NO","FM-15","ENHK ","V020","090,1,N,0067,1","99999,9,C,Y","009900,1,N,1","-0010,1","-0050,1","99999,9",,,,,,,"10041,1,99999,9",,,,,"MET047METAR ENHK 071350Z 09013KT CAVOK M01/M05 Q1004;",
"01044099999","2008-01-07T14:20:00","4","70.486675","22.139744","6.4","HASVIK, NO","FM-15","ENHK ","V020","090,1,N,0082,1","99999,9,C,Y","009900,1,N,1","+0000,1","-0050,1","99999,9",,,,,,,"10041,1,99999,9",,,,,"MET047METAR ENHK 071420Z 09016KT CAVOK M00/M05 Q1004;",
"01044099999","2008-01-07T14:50:00","4","70.486675","22.139744","6.4","HASVIK, NO","FM-15","ENHK ","V020","100,1,N,0062,1","99999,9,C,Y","009900,1,N,1","+0000,1","-0060,1","99999,9",,,,,,,"10041,1,99999,9",,,,,"MET055METAR ENHK 071450Z 10012KT 070V130 CAVOK M00/M06 Q1004;",
"01044099999","2008-01-07T15:20:00","4","70.486675","22.139744","6.4","HASVIK, NO","FM-15","ENHK ","V020","110,1,N,0057,1","99999,9,C,Y","009900,1,N,1","+0000,1","-0050,1","99999,9",,,,,,,"10041,1,99999,9",,,,,"MET047METAR ENHK 071520Z 11011KT CAVOK M00/M05 Q1004;",
"01044099999","2008-01-08T04:20:00","4","70.486675","22.139744","6.4","HASVIK, NO","FM-15","ENHK ","V020","090,1,N,0036,1","99999,9,C,Y","009900,1,N,1","-0020,1","-0050,1","99999,9",,,,,,,"10041,1,99999,9",,,,,"MET047METAR ENHK 080420Z 09007KT CAVOK M02/M05 Q1004;",
"01044099999","2008-01-08T04:50:00","4","70.486675","22.139744","6.4","HASVIK, NO","FM-15","ENHK ","V020","090,1,N,0031,1","99999,9,C,Y","009900,1,N,1","-0020,1","-0050,1","99999,9",,,,,,,"10041,1,99999,9",,,,,"MET047METAR ENHK 080450Z 09006KT CAVOK M02/M05 Q1004;",
"01044099999","2008-01-08T05:20:00","4","70.486675","22.139744","6.4","HASVIK, NO","FM-15","ENHK ","V020","090,1,N,0036,1","99999,9,C,Y","009900,1,N,1","-0020,1","-0050,1","99999,9",,,,,,,"10041,1,99999,9",,,,,"MET047METAR ENHK 080520Z 09007KT CAVOK M02/M05 Q1004;",
"01044099999","2008-01-08T05:50:00","4","70.486675","22.139744","6.4","HASVIK, NO","FM-15","ENHK ","V020","090,1,N,0036,1","99999,9,C,Y","009900,1,N,1","-0020,1","-0050,1","99999,9",,,,,,,"10041,1,99999,9",,,,,"MET047METAR ENHK 080550Z 09007KT CAVOK M02/M05 Q1004;",
"01044099999","2008-01-08T06:20:00","4","70.486675","22.139744","6.4","HASVIK, NO","FM-15","ENHK ","V020","090,1,N,0036,1","99999,9,C,Y","009900,1,N,1","-0020,1","-0050,1","99999,9",,,,,,,"10041,1,99999,9",,,,,"MET047METAR ENHK 080620Z 09007KT CAVOK M02/M05 Q1004;",
"01044099999","2008-01-08T06:50:00","4","70.486675","22.139744","6.4","HASVIK, NO","FM-15","ENHK ","V020","090,1,N,0041,1","99999,9,C,Y","009900,1,N,1","-0020,1","-0050,1","99999,9",,,,,,,"10041,1,99999,9",,,,,"MET047METAR ENHK 080650Z 09008KT CAVOK M02/M05 Q1004;",
"01044099999","2008-01-08T15:20:00","4","70.486675","22.139744","6.4","HASVIK, NO","FM-15","ENHK ","V020","100,1,N,0021,1","99999,9,C,Y","009900,1,N,1","-0010,1","-0050,1","99999,9",,,,,,,"10051,1,99999,9",,,,,"MET047METAR ENHK 081520Z 10004KT CAVOK M01/M05 Q1005;",
"01044099999","2008-01-08T16:50:00","4","70.486675","22.139744","6.4","HASVIK, NO","FM-15","ENHK ","V020","999,9,V,0010,1","03000,1,C,N","011265,1,N,1","-0010,1","-0040,1","99999,9","02,5,+00750,1,99,9","07,5,+03000,1,99,9",,,"07,99,1,99,9,99,9,99999,9,99,9,99,9",,"10051,1,99999,9",,,,,"MET060METAR ENHK 081650Z VRB02KT 9999 FEW025 BKN100 M01/M04 Q1005;",
"01044099999","2008-01-09T04:20:00","4","70.486675","22.139744","6.4","HASVIK, NO","FM-15","ENHK ","V020","100,1,N,0021,1","01500,1,C,N","011265,1,N,1","+0010,1","+0000,1","99999,9","02,5,+00750,1,99,9","07,5,+01500,1,99,9",,,"07,99,1,99,9,99,9,99999,9,99,9,99,9",,"10071,1,99999,9","71,1",,,,"MET063METAR ENHK 090420Z 10004KT 9999 -SN FEW025 BKN050 01/M00 Q1007;",
"01044099999","2008-01-09T04:50:00","4","70.486675","22.139744","6.4","HASVIK, NO","FM-15","ENHK ","V020","110,1,N,0031,1","01350,1,C,N","011265,1,N,1","+0010,1","+0000,1","99999,9","02,5,+00750,1,99,9","07,5,+01350,1,99,9",,,"07,99,1,99,9,99,9,99999,9,99,9,99,9",,"10061,1,99999,9","71,1",,,,"MET063METAR ENHK 090450Z 11006KT 9999 -SN FEW025 BKN045 01/M00 Q1006;",
"01044099999","2008-01-09T05:20:00","4","70.486675","22.139744","6.4","HASVIK, NO","FM-15","ENHK ","V020","999,9,V,0015,1","01350,1,C,N","011265,1,N,1","+0000,1","-0010,1","99999,9","02,5,+00900,1,99,9","07,5,+01350,1,99,9",,,"07,99,1,99,9,99,9,99999,9,99,9,99,9",,"10061,1,99999,9",,,,,"MET059METAR ENHK 090520Z VRB03KT 9999 FEW030 BKN045 00/M01 Q1006;",
"01044099999","2008-01-09T05:50:00","4","70.486675","22.139744","6.4","HASVIK, NO","FM-15","ENHK ","V020","120,1,N,0046,1","01050,1,C,N","011265,1,N,1","+0010,1","+0000,1","99999,9","07,5,+01050,1,99,9",,,,"07,99,1,99,9,99,9,99999,9,99,9,99,9",,"10061,1,99999,9",,,,,"MET052METAR ENHK 090550Z 12009KT 9999 BKN035 01/M00 Q1006;",
"01044099999","2008-01-09T06:50:00","4","70.486675","22.139744","6.4","HASVIK, NO","FM-15","ENHK ","V020","100,1,N,0036,1","01500,1,C,N","011265,1,N,1","+0010,1","-0010,1","99999,9","02,5,+00900,1,99,9","07,5,+01500,1,99,9",,,"07,99,1,99,9,99,9,99999,9,99,9,99,9",,"10061,1,99999,9",,,,,"MET059METAR ENHK 090650Z 10007KT 9999 FEW030 BKN050 01/M01 Q1006;",
"01044099999","2008-01-09T13:20:00","4","70.486675","22.139744","6.4","HASVIK, NO","FM-15","ENHK ","V020","090,1,N,0021,1","00720,1,C,N","011265,1,N,1","+0010,1","-0010,1","99999,9","02,5,+00420,1,99,9","07,5,+00720,1,99,9",,,"07,99,1,99,9,99,9,99999,9,99,9,99,9",,"10051,1,99999,9","16,1",,,,"MET064METAR ENHK 091320Z 09004KT 9999 VCSH FEW014 BKN024 01/M01 Q1005;",
"01044099999","2008-01-09T13:50:00","4","70.486675","22.139744","6.4","HASVIK, NO","FM-15","ENHK ","V020","090,1,N,0026,1","00690,1,C,N","011265,1,N,1","+0010,1","-0010,1","99999,9","02,5,+00420,1,99,9","07,5,+00690,1,99,9",,,"07,99,1,99,9,99,9,99999,9,99,9,99,9",,"10051,1,99999,9","16,1",,,,"MET064METAR ENHK 091350Z 09005KT 9999 VCSH FEW014 BKN023 01/M01 Q1005;",
"01044099999","2008-01-09T14:20:00","4","70.486675","22.139744","6.4","HASVIK, NO","FM-15","ENHK ","V020","080,1,N,0026,1","00660,1,C,N","011265,1,N,1","+0010,1","-0010,1","99999,9","04,5,+00450,1,99,9","07,5,+00660,1,99,9",,,"07,99,1,99,9,99,9,99999,9,99,9,99,9",,"10051,1,99999,9","71,1",,,,"MET071METAR ENHK 091420Z 08005KT 050V110 9999 -SN SCT015 BKN022 01/M01 Q1005;",
"01044099999","2008-01-09T15:20:00","4","70.486675","22.139744","6.4","HASVIK, NO","FM-15","ENHK ","V020","090,1,N,0015,1","00750,1,C,N","011265,1,N,1","+0010,1","-0010,1","99999,9","02,5,+00450,1,99,9","07,5,+00750,1,99,9",,,"07,99,1,99,9,99,9,99999,9,99,9,99,9",,"10051,1,99999,9","71,1",,,,"MET063METAR ENHK 091520Z 09003KT 9999 -SN FEW015 BKN025 01/M01 Q1005;",
"01044099999","2008-01-10T04:20:00","4","70.486675","22.139744","6.4","HASVIK, NO","FM-15","ENHK ","V020","100,1,N,0036,1","01290,1,C,N","011265,1,N,1","+0010,1","-0020,1","99999,9","02,5,+00510,1,99,9","07,5,+01290,1,99,9",,,"07,99,1,99,9,99,9,99999,9,99,9,99,9",,"10010,1,99999,9","71,1",,,,"MET071METAR ENHK 100420Z 10007KT 070V130 9999 -SN FEW017 BKN043 01/M02 Q1001;",
"01044099999","2008-01-10T04:50:00","4","70.486675","22.139744","6.4","HASVIK, NO","FM-15","ENHK ","V020","090,1,N,0026,1","01290,1,C,N","011265,1,N,1","+0000,1","-0030,1","99999,9","02,5,+00510,1,99,9","07,5,+01290,1,99,9",,,"07,99,1,99,9,99,9,99999,9,99,9,99,9",,"10010,1,99999,9",,,,,"MET065METAR ENHK 100450Z 09005KT 9999 FEW017 BKN043 00/M03 Q1001 -RESN;",
"01044099999","2008-01-10T05:20:00","4","70.486675","22.139744","6.4","HASVIK, NO","FM-15","ENHK ","V020","090,1,N,0026,1","01260,1,C,N","011265,1,N,1","+0000,1","-0030,1","99999,9","02,5,+00510,1,99,9","07,5,+01260,1,99,9",,,"07,99,1,99,9,99,9,99999,9,99,9,99,9",,"10010,1,99999,9",,,,,"MET059METAR ENHK 100520Z 09005KT 9999 FEW017 BKN042 00/M03 Q1001;",
"01044099999","2008-01-10T05:50:00","4","70.486675","22.139744","6.4","HASVIK, NO","FM-15","ENHK ","V020","100,1,N,0031,1","01260,1,C,N","011265,1,N,1","+0010,1","-0040,1","99999,9","02,5,+00510,1,99,9","07,5,+01260,1,99,9",,,"07,99,1,99,9,99,9,99999,9,99,9,99,9",,"10000,1,99999,9",,,,,"MET059METAR ENHK 100550Z 10006KT 9999 FEW017 BKN042 01/M04 Q1000;",
"01044099999","2008-01-10T06:20:00","4","70.486675","22.139744","6.4","HASVIK, NO","FM-15","ENHK ","V020","100,1,N,0041,1","01320,1,C,N","011265,1,N,1","+0010,1","-0040,1","99999,9","02,5,+00600,1,99,9","07,5,+01320,1,99,9",,,"07,99,1,99,9,99,9,99999,9,99,9,99,9",,"10000,1,99999,9",,,,,"MET059METAR ENHK 100620Z 10008KT 9999 FEW020 BKN044 01/M04 Q1000;",
"01044099999","2008-01-10T12:20:00","4","70.486675","22.139744","6.4","HASVIK, NO","FM-15","ENHK ","V020","120,1,N,0067,1","22000,1,9,N","011265,1,N,1","+0010,1","-0050,1","99999,9","04,5,+00750,1,99,9",,,,"04,99,1,99,9,99,9,99999,9,99,9,99,9",,"10000,1,99999,9",,,,,"MET052METAR ENHK 101220Z 12013KT 9999 SCT025 01/M05 Q1000;",
"01044099999","2008-01-10T12:50:00","4","70.486675","22.139744","6.4","HASVIK, NO","FM-15","ENHK ","V020","120,1,N,0072,1","02250,5,C,N","011265,1,N,1","+0010,1","-0040,1","99999,9","02,5,+00750,1,99,9","07,5,+02250,5,99,9",,,"07,99,1,99,9,99,9,99999,9,99,9,99,9",,"09990,1,99999,9",,,,,"MET059METAR ENHK 101250Z 12014KT 9999 FEW025 BKN075 01/M04 Q0999;",
"01044099999","2008-01-10T13:50:00","4","70.486675","22.139744","6.4","HASVIK, NO","FM-15","ENHK ","V020","120,1,N,0067,1","02250,5,C,N","011265,1,N,1","+0010,1","-0040,1","99999,9","04,5,+00900,1,99,9","07,5,+02250,5,99,9",,,"07,99,1,99,9,99,9,99999,9,99,9,99,9",,"09990,1,99999,9",,,,,"MET059METAR ENHK 101350Z 12013KT 9999 SCT030 BKN075 01/M04 Q0999;",
"01044099999","2008-01-10T14:20:00","4","70.486675","22.139744","6.4","HASVIK, NO","FM-15","ENHK ","V020","120,1,N,0062,1","01500,1,C,N","011265,1,N,1","+0010,1","-0050,1","99999,9","04,5,+00900,1,99,9","07,5,+01500,1,99,9",,,"07,99,1,99,9,99,9,99999,9,99,9,99,9",,"09990,1,99999,9",,,,,"MET059METAR ENHK 101420Z 12012KT 9999 SCT030 BKN050 01/M05 Q0999;",
"01044099999","2008-01-10T14:50:00","4","70.486675","22.139744","6.4","HASVIK, NO","FM-15","ENHK ","V020","120,1,N,0062,1","01500,1,C,N","011265,1,N,1","+0010,1","-0050,1","99999,9","04,5,+00900,1,99,9","07,5,+01500,1,99,9",,,"07,99,1,99,9,99,9,99999,9,99,9,99,9",,"09990,1,99999,9",,,,,"MET059METAR ENHK 101450Z 12012KT 9999 SCT030 BKN050 01/M05 Q0999;",
"01044099999","2008-01-10T15:20:00","4","70.486675","22.139744","6.4","HASVIK, NO","FM-15","ENHK ","V020","130,1,N,0077,1","01500,1,C,N","011265,1,N,1","+0000,1","-0040,1","99999,9","04,5,+00900,1,99,9","07,5,+01500,1,99,9",,,"07,99,1,99,9,99,9,99999,9,99,9,99,9",,"09990,1,99999,9",,,,,"MET059METAR ENHK 101520Z 13015KT 9999 SCT030 BKN050 00/M04 Q0999;",
"01044099999","2008-01-10T15:50:00","4","70.486675","22.139744","6.4","HASVIK, NO","FM-15","ENHK ","V020","130,1,N,0072,1","01500,1,C,N","011265,1,N,1","+0000,1","-0050,1","99999,9","04,5,+01050,1,99,9","07,5,+01500,1,99,9",,,"07,99,1,99,9,99,9,99999,9,99,9,99,9",,"09990,1,99999,9",,,,,"MET060METAR ENHK 101550Z 13014KT 9999 SCT035 BKN050 M00/M05 Q0999;",
"01044099999","2008-01-11T04:20:00","4","70.486675","22.139744","6.4","HASVIK, NO","FM-15","ENHK ","V020","120,1,N,0098,1","99999,9,C,Y","009900,1,N,1","-0020,1","-0050,1","99999,9",,,,,,,"09970,1,99999,9",,,,,"MET047METAR ENHK 110420Z 12019KT CAVOK M02/M05 Q0997;",
"01044099999","2008-01-11T04:50:00","4","70.486675","22.139744","6.4","HASVIK, NO","FM-15","ENHK ","V020","120,1,N,0098,1","99999,9,C,Y","009900,1,N,1","-0010,1","-0050,1","99999,9",,,,,,,"09970,1,99999,9",,,,,"MET047METAR ENHK 110450Z 12019KT CAVOK M01/M05 Q0997;",
"01044099999","2008-01-11T05:20:00","4","70.486675","22.139744","6.4","HASVIK, NO","FM-15","ENHK ","V020","130,1,N,0108,1","99999,9,C,Y","009900,1,N,1","-0010,1","-0050,1","99999,9",,,,,,,"09970,1,99999,9",,,,,"MET047METAR ENHK 110520Z 13021KT CAVOK M01/M05 Q0997;",
"01044099999","2008-01-11T05:50:00","4","70.486675","22.139744","6.4","HASVIK, NO","FM-15","ENHK ","V020","120,1,N,0103,1","99999,9,C,Y","009900,1,N,1","-0010,1","-0050,1","99999,9",,,,,,,"09970,1,99999,9",,,,,"MET047METAR ENHK 110550Z 12020KT CAVOK M01/M05 Q0997;",
"01044099999","2008-01-11T06:50:00","4","70.486675","22.139744","6.4","HASVIK, NO","FM-15","ENHK ","V020","110,1,N,0098,1","99999,9,C,Y","009900,1,N,1","-0020,1","-0070,1","99999,9",,,,,,,"09970,1,99999,9",,,,,"MET047METAR ENHK 110650Z 11019KT CAVOK M02/M07 Q0997;",
"01044099999","2008-01-11T13:20:00","4","70.486675","22.139744","6.4","HASVIK, NO","FM-15","ENHK ","V020","100,1,N,0093,1","22000,1,9,N","011265,1,N,1","-0010,1","-0050,1","99999,9",,,,,"00,99,1,99,9,99,9,99999,9,99,9,99,9",,"09959,1,99999,9",,,,,"MET050METAR ENHK 111320Z 10018KT 9999 NSC M01/M05 Q0996;","Q01    003SCCGA1"
"01044099999","2008-01-11T13:50:00","4","70.486675","22.139744","6.4","HASVIK, NO","FM-15","ENHK ","V020","110,1,N,0093,1","22000,1,9,N","011265,1,N,1","-0010,1","-0040,1","99999,9",,,,,"00,99,1,99,9,99,9,99999,9,99,9,99,9",,"09959,1,99999,9",,,,,"MET050METAR ENHK 111350Z 11018KT 9999 NSC M01/M04 Q0996;","Q01    003SCCGA1"
"01044099999","2008-01-11T14:20:00","4","70.486675","22.139744","6.4","HASVIK, NO","FM-15","ENHK ","V020","110,1,N,0098,1","22000,1,9,N","011265,1,N,1","-0010,1","-0040,1","99999,9",,,,,"00,99,1,99,9,99,9,99999,9,99,9,99,9",,"09959,1,99999,9",,,,,"MET050METAR ENHK 111420Z 11019KT 9999 NSC M01/M04 Q0996;","Q01    003SCCGA1"
"01044099999","2008-01-11T14:50:00","4","70.486675","22.139744","6.4","HASVIK, NO","FM-15","ENHK ","V020","110,1,N,0103,1","22000,1,9,N","011265,1,N,1","-0010,1","-0050,1","99999,9",,,,,"00,99,1,99,9,99,9,99999,9,99,9,99,9",,"09959,1,99999,9",,,,,"MET050METAR ENHK 111450Z 11020KT 9999 NSC M01/M05 Q0996;","Q01    003SCCGA1"
"01044099999","2008-01-11T15:20:00","4","70.486675","22.139744","6.4","HASVIK, NO","FM-15","ENHK ","V020","110,1,N,0093,1","22000,1,9,N","011265,1,N,1","-0010,1","-0040,1","99999,9","02,5,+01200,1,99,9",,,,"02,99,1,99,9,99,9,99999,9,99,9,99,9",,"09959,1,99999,9",,,,,"MET053METAR ENHK 111520Z 11018KT 9999 FEW040 M01/M04 Q0996;",
"01044099999","2008-01-13T12:50:00","4","70.486675","22.139744","6.4","HASVIK, NO","FM-15","ENHK ","V020","110,1,N,0082,1","00900,1,C,N","011265,1,N,1","-0010,1","-0040,1","99999,9","02,5,+00480,1,99,9","04,5,+00900,1,99,9","07,5,+01950,5,99,9",,"07,99,1,99,9,99,9,99999,9,99,9,99,9",,"09980,1,99999,9","16,1",,,,"MET072METAR ENHK 131250Z 11016KT 9999 VCSH FEW016 SCT030 BKN065 M01/M04 Q0998;",
"01044099999","2008-01-13T13:20:00","4","70.486675","22.139744","6.4","HASVIK, NO","FM-15","ENHK ","V020","110,1,N,0062,1","00960,1,C,N","011265,1,N,1","-0010,1","-0040,1","99999,9","02,5,+00510,1,99,9","07,5,+00960,1,99,9",,,"07,99,1,99,9,99,9,99999,9,99,9,99,9",,"09970,1,99999,9",,,,,"MET060METAR ENHK 131320Z 11012KT 9999 FEW017 BKN032 M01/M04 Q0997;",
"01044099999","2008-01-13T13:50:00","4","70.486675","22.139744","6.4","HASVIK, NO","FM-15","ENHK ","V020","100,1,N,0051,1","00930,1,C,N","011265,1,N,1","-0010,1","-0040,1","99999,9","02,5,+00510,1,99,9","07,5,+00930,1,99,9",,,"07,99,1,99,9,99,9,99999,9,99,9,99,9",,"09980,1,99999,9",,,,,"MET060METAR ENHK 131350Z 10010KT 9999 FEW017 BKN031 M01/M04 Q0998;",
"01044099999","2008-01-13T14:20:00","4","70.486675","22.139744","6.4","HASVIK, NO","FM-15","ENHK ","V020","110,1,N,0062,1","00930,1,C,N","011265,1,N,1","-0010,1","-0050,1","99999,9","02,5,+00510,1,99,9","04,5,+00930,1,99,9","07,5,+01470,1,99,9",,"07,99,1,99,9,99,9,99999,9,99,9,99,9",,"09970,1,99999,9",,,,,"MET067METAR ENHK 131420Z 11012KT 9999 FEW017 SCT031 BKN049 M01/M05 Q0997;",
"01044099999","2008-01-13T14:50:00","4","70.486675","22.139744","6.4","HASVIK, NO","FM-15","ENHK ","V020","110,1,N,0067,1","00900,1,C,N","011265,1,N,1","+0000,1","-0050,1","99999,9","02,5,+00510,1,99,9","04,5,+00900,1,99,9","07,5,+02100,1,99,9",,"07,99,1,99,9,99,9,99999,9,99,9,99,9",,"09970,1,99999,9","71,1",,,,"MET071METAR ENHK 131450Z 11013KT 9999 -SN FEW017 SCT030 BKN070 M00/M05 Q0997;",
"01044099999","2008-01-14T04:20:00","4","70.486675","22.139744","6.4","HASVIK, NO","FM-15","ENHK ","V020","160,1,N,0026,1","00330,1,C,N","004000,1,N,1","-0010,1","-0020,1","99999,9","02,5,+00150,1,99,9","04,5,+00330,1,99,9","07,5,+00450,1,99,9",,"07,99,1,99,9,99,9,99999,9,99,9,99,9",,"09990,1,99999,9","71,1",,,,"MET071METAR ENHK 140420Z 16005KT 4000 -SN FEW005 SCT011 BKN015 M01/M02 Q0999;",
"01044099999","2008-01-14T04:50:00","4","70.486675","22.139744","6.4","HASVIK, NO","FM-15","ENHK ","V020","160,1,N,0026,1","00450,1,C,N","004000,1,N,1","-0010,1","-0020,1","99999,9","02,5,+00240,1,99,9","07,5,+00450,1,99,9",,,"07,99,1,99,9,99,9,99999,9,99,9,99,9",,"09990,1,99999,9","71,1",,,,"MET072METAR ENHK 140450Z 16005KT 120V200 4000 -SN FEW008 BKN015 M01/M02 Q0999;",
"01044099999","2008-01-14T05:20:00","4","70.486675","22.139744","6.4","HASVIK, NO","FM-15","ENHK ","V020","110,1,N,0026,1","00330,1,C,N","004000,1,N,1","-0010,1","-0020,1","99999,9","02,5,+00240,1,99,9","07,5,+00330,1,99,9",,,"07,99,1,99,9,99,9,99999,9,99,9,99,9",,"09990,1,99999,9","71,1",,,,"MET064METAR ENHK 140520Z 11005KT 4000 -SN FEW008 BKN011 M01/M02 Q0999;",
"01044099999","2008-01-14T05:50:00","4","70.486675","22.139744","6.4","HASVIK, NO","FM-15","ENHK ","V020","130,1,N,0031,1","00390,1,C,N","006000,1,N,1","+0000,1","-0020,1","99999,9","02,5,+00240,1,99,9","07,5,+00390,1,99,9",,,"07,99,1,99,9,99,9,99999,9,99,9,99,9",,"09990,1,99999,9","71,1",,,,"MET072METAR ENHK 140550Z 13006KT 090V160 6000 -SN FEW008 BKN013 M00/M02 Q0999;",
"01044099999","2008-01-14T06:20:00","4","70.486675","22.139744","6.4","HASVIK, NO","FM-15","ENHK ","V020","120,1,N,0031,1","00390,1,C,N","011265,1,N,1","+0000,1","-0020,1","99999,9","02,5,+00300,1,99,9","07,5,+00390,1,99,9",,,"07,99,1,99,9,99,9,99999,9,99,9,99,9",,"09990,1,99999,9","16,1",,,,"MET079METAR ENHK 140620Z 12006KT 090V160 9999 VCSH FEW010 BKN013 M00/M02 Q0999 -RESN;",
"01044099999","2008-01-14T12:50:00","4","70.486675","22.139744","6.4","HASVIK, NO","FM-15","ENHK ","V020","090,1,N,0051,1","22000,1,9,N","011265,1,N,1","-0010,1","-0040,1","99999,9",,,,,"00,99,1,99,9,99,9,99999,9,99,9,99,9",,"09990,1,99999,9",,,,,"MET050METAR ENHK 141250Z 09010KT 9999 NSC M01/M04 Q0999;","Q01    003SCCGA1"
"01044099999","2008-01-14T14:20:00","4","70.486675","22.139744","6.4","HASVIK, NO","FM-15","ENHK ","V020","090,1,N,0051,1","22000,1,9,N","011265,1,N,1","-0020,1","-0050,1","99999,9",,,,,"00,99,1,99,9,99,9,99999,9,99,9,99,9",,"09990,1,99999,9",,,,,"MET050METAR ENHK 141420Z 09010KT 9999 NSC M02/M05 Q0999;","Q01    003SCCGA1"
"01044099999","2008-01-14T14:50:00","4","70.486675","22.139744","6.4","HASVIK, NO","FM-15","ENHK ","V020","110,1,N,0062,1","22000,1,9,N","011265,1,N,1","+0000,1","-0040,1","99999,9",,,,,"00,99,1,99,9,99,9,99999,9,99,9,99,9",,"09990,1,99999,9",,,,,"MET050METAR ENHK 141450Z 11012KT 9999 NSC M00/M04 Q0999;","Q01    003SCCGA1"
"01044099999","2008-01-15T04:20:00","4","70.486675","22.139744","6.4","HASVIK, NO","FM-15","ENHK ","V020","110,1,N,0139,1","00390,1,C,N","011265,1,N,1","-0010,1","-0020,1","99999,9","02,5,+00300,1,99,9","04,5,+00390,1,99,9","07,5,+01140,1,99,9",,"07,99,1,99,9,99,9,99999,9,99,9,99,9",,"09861,1,99999,9","36,1","85,5",,,"MET079METAR ENHK 150420Z 11027KT 9999 -SHSN -DRSN FEW010 SCT013 BKN038 M01/M02 Q0986;",
"01044099999","2008-01-15T04:50:00","4","70.486675","22.139744","6.4","HASVIK, NO","FM-15","ENHK ","V020","120,1,N,0129,1","00810,1,C,N","011265,1,N,1","-0010,1","-0030,1","99999,9","02,5,+00390,1,99,9","04,5,+00810,1,99,9","07,5,+01410,1,99,9",,"07,99,1,99,9,99,9,99999,9,99,9,99,9",,"09861,1,99999,9","36,1",,,,"MET087METAR ENHK 150450Z 12025KT 080V140 9999 -DRSN FEW013 SCT027 BKN047 M01/M03 Q0986 -RESN;",
"01044099999","2008-01-15T05:20:00","4","70.486675","22.139744","6.4","HASVIK, NO","FM-15","ENHK ","V020","130,1,N,0113,1","01200,1,C,N","011265,1,N,1","+0010,1","-0030,1","99999,9","02,5,+00600,1,99,9","04,5,+01200,1,99,9","07,5,+02400,1,99,9",,"07,99,1,99,9,99,9,99999,9,99,9,99,9",,"09851,1,99999,9",,,,,"MET074METAR ENHK 150520Z 13022KT 080V150 9999 FEW020 SCT040 BKN080 01/M03 Q0985;",
"01044099999","2008-01-15T05:50:00","4","70.486675","22.139744","6.4","HASVIK, NO","FM-15","ENHK ","V020","130,1,N,0123,1","02340,5,C,N","011265,1,N,1","+0010,1","-0030,1","99999,9","02,5,+00600,1,99,9","07,5,+02340,5,99,9",,,"07,99,1,99,9,99,9,99999,9,99,9,99,9",,"09841,1,99999,9",,,,,"MET059METAR ENHK 150550Z 13024KT 9999 FEW020 BKN078 01/M03 Q0984;",
"01044099999","2008-01-15T07:20:00","4","70.486675","22.139744","6.4","HASVIK, NO","FM-15","ENHK ","V020","150,1,N,0098,1","01620,5,C,N","011265,1,N,1","+0000,1","-0040,1","99999,9","02,5,+00600,1,99,9","07,5,+01620,5,99,9",,,"07,99,1,99,9,99,9,99999,9,99,9,99,9",,"09831,1,99999,9",,,,"0149,1","MET070METAR ENHK 150720Z 15019G29KT 120V180 9999 FEW020 BKN054 00/M04 Q0983;",
"01044099999","2008-01-15T08:20:00","4","70.486675","22.139744","6.4","HASVIK, NO","FM-15","ENHK ","V020","150,1,N,0113,1","01680,5,C,N","011265,1,N,1","+0000,1","-0050,1","99999,9","02,5,+00600,1,99,9","07,5,+01680,5,99,9",,,"07,99,1,99,9,99,9,99999,9,99,9,99,9",,"09831,1,99999,9",,,,,"MET059METAR ENHK 150820Z 15022KT 9999 FEW020 BKN056 00/M05 Q0983;",
"01044099999","2008-01-15T09:50:00","4","70.486675","22.139744","6.4","HASVIK, NO","FM-15","ENHK ","V020","140,1,N,0077,1","01350,1,C,N","011265,1,N,1","+0010,1","-0030,1","99999,9","02,5,+00600,1,99,9","07,5,+01350,1,99,9",,,"07,99,1,99,9,99,9,99999,9,99,9,99,9",,"09831,1,99999,9",,,,"0129,1","MET070METAR ENHK 150950Z 14015G25KT 090V180 9999 FEW020 BKN045 01/M03 Q0983;",
"01044099999","2008-01-15T12:20:00","4","70.486675","22.139744","6.4","HASVIK, NO","FM-15","ENHK ","V020","180,1,N,0026,1","01080,1,C,N","011265,1,N,1","+0010,1","-0030,1","99999,9","02,5,+00750,1,99,9","07,5,+01080,1,99,9",,,"07,99,1,99,9,99,9,99999,9,99,9,99,9",,"09831,1,99999,9","85,5",,,,"MET073METAR ENHK 151220Z 18005KT 140V220 9999 -SHSN FEW025 BKN036 01/M03 Q0983;",
"01044099999","2008-01-15T12:50:00","4","70.486675","22.139744","6.4","HASVIK, NO","FM-15","ENHK ","V020","170,1,N,0026,1","01080,1,C,N","011265,1,N,1","+0010,1","-0030,1","99999,9","02,5,+00750,1,99,9","07,5,+01080,1,99,9",,,"07,99,1,99,9,99,9,99999,9,99,9,99,9",,"09831,1,99999,9",,,,,"MET059METAR ENHK 151250Z 17005KT 9999 FEW025 BKN036 01/M03 Q0983;",
"01044099999","2008-01-15T13:20:00","4","70.486675","22.139744","6.4","HASVIK, NO","FM-15","ENHK ","V020","150,1,N,0021,1","01020,1,C,N","011265,1,N,1","+0000,1","-0030,1","99999,9","02,5,+00780,1,99,9","07,5,+01020,1,99,9",,,"07,99,1,99,9,99,9,99999,9,99,9,99,9",,"09831,1,99999,9",,,,,"MET067METAR ENHK 151320Z 15004KT 090V190 9999 FEW026 BKN034 00/M03 Q0983;",
"01044099999","2008-01-15T13:50:00","4","70.486675","22.139744","6.4","HASVIK, NO","FM-15","ENHK ","V020","170,1,N,0026,1","00990,1,C,N","011265,1,N,1","+0010,1","-0030,1","99999,9","02,5,+00810,1,99,9","07,5,+00990,1,99,9",,,"07,99,1,99,9,99,9,99999,9,99,9,99,9",,"09831,1,99999,9",,,,,"MET059METAR ENHK 151350Z 17005KT 9999 FEW027 BKN033 01/M03 Q0983;",
"01044099999","2008-01-15T14:20:00","4","70.486675","22.139744","6.4","HASVIK, NO","FM-15","ENHK ","V020","150,1,N,0046,1","01050,1,C,N","011265,1,N,1","+0020,1","-0030,1","99999,9","07,5,+01050,1,99,9",,,,"07,99,1,99,9,99,9,99999,9,99,9,99,9",,"09831,1,99999,9",,,,,"MET052METAR ENHK 151420Z 15009KT 9999 BKN035 02/M03 Q0983;",
"01044099999","2008-01-15T14:50:00","4","70.486675","22.139744","6.4","HASVIK, NO","FM-15","ENHK ","V020","170,1,N,0046,1","01020,1,C,N","011265,1,N,1","+0020,1","-0030,1","99999,9","07,5,+01020,1,99,9",,,,"07,99,1,99,9,99,9,99999,9,99,9,99,9",,"09831,1,99999,9",,,,,"MET052METAR ENHK 151450Z 17009KT 9999 BKN034 02/M03 Q0983;",
"01044099999","2008-01-15T15:20:00","4","70.486675","22.139744","6.4","HASVIK, NO","FM-15","ENHK ","V020","160,1,N,0041,1","01110,1,C,N","011265,1,N,1","+0020,1","-0030,1","99999,9","02,5,+00900,1,99,9","07,5,+01110,1,99,9",,,"07,99,1,99,9,99,9,99999,9,99,9,99,9",,"09831,1,99999,9",,,,,"MET059METAR ENHK 151520Z 16008KT 9999 FEW030 BKN037 02/M03 Q0983;",
"01044099999","2008-01-16T04:20:00","4","70.486675","22.139744","6.4","HASVIK, NO","FM-15","ENHK ","V020","160,1,N,0036,1","02550,5,C,N","011265,1,N,1","+0050,1","+0000,1","99999,9","02,5,+00750,1,99,9","07,5,+02550,5,99,9",,,"07,99,1,99,9,99,9,99999,9,99,9,99,9",,"09790,1,99999,9",,,,,"MET059METAR ENHK 160420Z 16007KT 9999 FEW025 BKN085 05/M00 Q0979;",
"01044099999","2008-01-16T04:50:00","4","70.486675","22.139744","6.4","HASVIK, NO","FM-15","ENHK ","V020","999,9,V,0010,1","02550,5,C,N","011265,1,N,1","+0040,1","-0010,1","99999,9","02,5,+00750,1,99,9","07,5,+02550,5,99,9",,,"07,99,1,99,9,99,9,99999,9,99,9,99,9",,"09790,1,99999,9",,,,,"MET059METAR ENHK 160450Z VRB02KT 9999 FEW025 BKN085 04/M01 Q0979;",
"01044099999","2008-01-16T05:20:00","4","70.486675","22.139744","6.4","HASVIK, NO","FM-15","ENHK ","V020","160,1,N,0026,1","01800,1,C,N","011265,1,N,1","+0040,1","+0000,1","99999,9","02,5,+00600,1,99,9","04,5,+01920,5,99,9","07,5,+02700,1,99,9",,"07,99,1,99,9,99,9,99999,9,99,9,99,9",,"09790,1,99999,9",,,,,"MET074METAR ENHK 160520Z 16005KT 120V190 9999 FEW020 SCT064 BKN090 04/M00 Q0979;",
"01044099999","2008-01-16T05:50:00","4","70.486675","22.139744","6.4","HASVIK, NO","FM-15","ENHK ","V020","170,1,N,0031,1","02700,1,C,N","011265,1,N,1","+0040,1","+0000,1","99999,9","02,5,+00750,1,99,9","07,5,+02700,1,99,9",,,"07,99,1,99,9,99,9,99999,9,99,9,99,9",,"09790,1,99999,9",,,,,"MET059METAR ENHK 160550Z 17006KT 9999 FEW025 BKN090 04/M00 Q0979;",
"01044099999","2008-01-16T06:50:00","4","70.486675","22.139744","6.4","HASVIK, NO","FM-15","ENHK ","V020","160,1,N,0041,1","01500,1,C,N","011265,1,N,1","+0050,1","-0010,1","99999,9","02,5,+00600,1,99,9","04,5,+01650,5,99,9","07,5,+02700,1,99,9",,"07,99,1,99,9,99,9,99999,9,99,9,99,9",,"09790,1,99999,9",,,,,"MET074METAR ENHK 160650Z 16008KT 130V200 9999 FEW020 SCT055 BKN090 05/M01 Q0979;",
"01044099999","2008-01-16T08:50:00","4","70.486675","22.139744","6.4","HASVIK, NO","FM-15","ENHK ","V020","160,1,N,0041,1","99999,9,C,N","011265,1,N,1","+0050,1","-0010,1","99999,9","02,5,+00600,1,99,9","04,5,+01650,5,99,9",,,"04,99,1,99,9,99,9,99999,9,99,9,99,9",,"09800,1,99999,9",,,,,"MET067METAR ENHK 160850Z 16008KT 140V200 9999 FEW020 SCT055 05/M01 Q0980;","P01 016503SCOCIG"
"01044099999","2008-01-16T09:50:00","4","70.486675","22.139744","6.4","HASVIK, NO","FM-15","ENHK ","V020","090,1,N,0041,1","99999,9,C,N","011265,1,N,1","+0040,1","-0010,1","99999,9","02,5,+00600,1,99,9","04,5,+01500,1,99,9",,,"04,99,1,99,9,99,9,99999,9,99,9,99,9",,"09800,1,99999,9",,,,,"MET067METAR ENHK 160950Z 09008KT 060V120 9999 FEW020 SCT050 04/M01 Q0980;","P01 015003SCOCIG"
"01044099999","2008-01-16T11:20:00","4","70.486675","22.139744","6.4","HASVIK, NO","FM-15","ENHK ","V020","280,1,N,0129,1","00480,1,C,N","011265,1,N,1","+0030,1","+0010,1","99999,9","04,5,+00240,1,99,9","07,5,+00480,1,99,9",,,"07,99,1,99,9,99,9,99999,9,99,9,99,9",,"09831,1,99999,9","80,1",,,"0185,1","MET075METAR ENHK 161120Z 28025G36KT 240V300 9999 -SHRA SCT008 BKN016 03/01 Q0983;",
"01044099999","2008-01-16T12:20:00","4","70.486675","22.139744","6.4","HASVIK, NO","FM-15","ENHK ","V020","280,1,N,0098,1","00450,1,C,N","011265,1,N,1","+0030,1","-0020,1","99999,9","04,5,+00270,1,99,9","07,5,+00450,1,99,9",,,"07,99,1,99,9,99,9,99999,9,99,9,99,9",,"09851,1,99999,9","80,1",,,,"MET065METAR ENHK 161220Z 28019KT 9999 -SHRA SCT009 BKN015 03/M02 Q0985;",
"01044099999","2008-01-16T12:50:00","4","70.486675","22.139744","6.4","HASVIK, NO","FM-15","ENHK ","V020","290,1,N,0118,1","00480,1,C,N","011265,1,N,1","+0030,1","-0020,1","99999,9","02,5,+00300,1,99,9","04,5,+00480,1,99,9","07,5,+00720,1,99,9",,"07,99,1,99,9,99,9,99999,9,99,9,99,9",,"09861,1,99999,9",,,,,"MET074METAR ENHK 161250Z 29023KT 240V330 9999 FEW010 SCT016 BKN024 03/M02 Q0986;",
"01044099999","2008-01-16T13:20:00","4","70.486675","22.139744","6.4","HASVIK, NO","FM-15","ENHK ","V020","280,1,N,0098,1","00720,1,C,N","011265,1,N,1","+0030,1","-0030,1","99999,9","04,5,+00540,1,99,9","07,5,+00720,1,99,9",,,"07,99,1,99,9,99,9,99999,9,99,9,99,9",,"09861,1,99999,9",,,,,"MET067METAR ENHK 161320Z 28019KT 240V320 9999 SCT018 BKN024 03/M03 Q0986;",
"01044099999","2008-01-16T13:50:00","4","70.486675","22.139744","6.4","HASVIK, NO","FM-15","ENHK ","V020","280,1,N,0103,1","00900,1,C,N","011265,1,N,1","+0030,1","-0030,1","99999,9","04,5,+00600,1,99,9","07,5,+00900,1,99,9",,,"07,99,1,99,9,99,9,99999,9,99,9,99,9",,"09871,1,99999,9",,,,"0154,1","MET070METAR ENHK 161350Z 28020G30KT 240V330 9999 SCT020 BKN030 03/M03 Q0987;",
"01044099999","2008-01-16T14:20:00","4","70.486675","22.139744","6.4","HASVIK, NO","FM-15","ENHK ","V020","280,1,N,0093,1","01080,1,C,N","011265,1,N,1","+0030,1","-0030,1","99999,9","02,5,+00780,1,99,9","04,5,+01080,1,99,9","07,5,+01530,5,99,9",,"07,99,1,99,9,99,9,99999,9,99,9,99,9",,"09882,1,99999,9",,,,,"MET074METAR ENHK 161420Z 28018KT 240V320 9999 FEW026 SCT036 BKN051 03/M03 Q0988;",
"01044099999","2008-01-16T14:50:00","4","70.486675","22.139744","6.4","HASVIK, NO","FM-15","ENHK ","V020","280,1,N,0098,1","99999,9,C,N","011265,1,N,1","+0030,1","-0030,1","99999,9","02,5,+00780,1,99,9","04,5,+01110,1,99,9",,,"04,99,1,99,9,99,9,99999,9,99,9,99,9",,"09882,1,99999,9",,,,,"MET059METAR ENHK 161450Z 28019KT 9999 FEW026 SCT037 03/M03 Q0988;","P01 011103SCOCIG"
"01044099999","2008-01-17T04:20:00","4","70.486675","22.139744","6.4","HASVIK, NO","FM-15","ENHK ","V020","300,1,N,0051,1","01200,1,C,N","011265,1,N,1","+0000,1","-0040,1","99999,9","02,5,+00510,1,99,9","04,5,+01200,1,99,9","07,5,+01650,5,99,9",,"07,99,1,99,9,99,9,99999,9,99,9,99,9",,"09949,1,99999,9",,,,,"MET067METAR ENHK 170420Z 30010KT 9999 FEW017 SCT040 BKN055 M00/M04 Q0995;",
"01044099999","2008-01-17T04:50:00","4","70.486675","22.139744","6.4","HASVIK, NO","FM-15","ENHK ","V020","300,1,N,0051,1","00600,1,C,N","009000,1,N,1","+0000,1","-0030,1","99999,9","04,5,+00510,1,99,9","02,5,+00600,1,09,5","07,5,+00900,1,99,9",,"07,99,1,99,9,99,9,99999,9,99,9,99,9",,"09949,1,99999,9","63,1","73,1","87,1",,"MET086METAR ENHK 170450Z 30010KT 270V330 9000 -SHGSSNRA SCT017 FEW020CB BKN030 00/M03 Q0995;",
"01044099999","2008-01-17T05:50:00","4","70.486675","22.139744","6.4","HASVIK, NO","FM-15","ENHK ","V020","280,1,N,0051,1","99999,9,C,N","011265,1,N,1","+0000,1","-0040,1","99999,9","02,5,+00510,1,99,9","04,5,+01410,1,99,9",,,"04,99,1,99,9,99,9,99999,9,99,9,99,9",,"09959,1,99999,9",,,,,"MET065METAR ENHK 170550Z 28010KT 9999 FEW017 SCT047 M00/M04 Q0996 REGS;","P01 014103SCOCIG"
"01044099999","2008-01-17T06:20:00","4","70.486675","22.139744","6.4","HASVIK, NO","FM-15","ENHK ","V020","320,1,N,0051,1","00900,1,C,N","008000,1,N,1","-0010,1","-0030,1","99999,9","02,5,+00300,1,99,9","02,5,+00750,1,09,5","07,5,+00900,1,99,9",,"07,99,1,99,9,99,9,99999,9,99,9,99,9",,"09959,1,99999,9","16,1",,,,"MET081METAR ENHK 170620Z 32010KT 8000 VCSH FEW010 FEW025CB BKN030 M01/M03 Q0996 RESNGS;",
"01044099999","2008-01-17T06:50:00","4","70.486675","22.139744","6.4","HASVIK, NO","FM-15","ENHK ","V020","290,1,N,0062,1","99999,9,C,N","011265,1,N,1","+0000,1","-0050,1","99999,9","02,5,+00510,1,99,9","04,5,+01350,1,99,9",,,"04,99,1,99,9,99,9,99999,9,99,9,99,9",,"09959,1,99999,9","16,1",,,,"MET072METAR ENHK 170650Z 29012KT 260V320 9999 VCSH FEW017 SCT045 00/M05 Q0996;","P01 013503SCOCIG"
"01044099999","2008-01-17T07:20:00","4","70.486675","22.139744","6.4","HASVIK, NO","FM-15","ENHK ","V020","280,1,N,0057,1","99999,9,C,N","011265,1,N,1","+0000,1","-0050,1","99999,9","02,5,+00600,1,99,9","04,5,+01530,5,99,9",,,"04,99,1,99,9,99,9,99999,9,99,9,99,9",,"09959,1,99999,9",,,,,"MET059METAR ENHK 170720Z 28011KT 9999 FEW020 SCT051 00/M05 Q0996;","P01 015303SCOCIG"
"01044099999","2008-01-17T08:20:00","4","70.486675","22.139744","6.4","HASVIK, NO","FM-15","ENHK ","V020","300,1,N,0098,1","00450,1,9,N","002000,1,N,1","-0010,1","-0030,1","99999,9","09,1,+00450,1,99,9",,,,"09,99,1,99,9,99,9,00025,1,99,9,99,9",,"09970,1,99999,9","86,5",,,,"MET057METAR ENHK 170820Z 30019KT 2000 SHSN VV015 M01/M03 Q0997;",
"01044099999","2008-01-17T08:50:00","4","70.486675","22.139744","6.4","HASVIK, NO","FM-15","ENHK ","V020","270,1,N,0046,1","00900,1,C,N","011265,1,N,1","-0010,1","-0030,1","99999,9","02,5,+00510,1,99,9","04,5,+00900,1,99,9","07,5,+01350,1,99,9",,"07,99,1,99,9,99,9,99999,9,99,9,99,9",,"09970,1,99999,9","16,1",,,,"MET085METAR ENHK 170850Z 27009KT 240V300 9999 VCSH FEW017 SCT030 BKN045 M01/M03 Q0997 RESN;",
"01044099999","2008-01-17T09:50:00","4","70.486675","22.139744","6.4","HASVIK, NO","FM-15","ENHK ","V020","260,1,N,0062,1","00750,1,C,N","011265,1,N,1","+0000,1","-0050,1","99999,9","02,5,+00510,1,99,9","04,5,+00750,1,99,9","07,5,+00990,1,99,9",,"07,99,1,99,9,99,9,99999,9,99,9,99,9",,"09970,1,99999,9","16,1",,,"0113,1","MET087METAR ENHK 170950Z 26012G22KT 210V330 9999 VCSH FEW017 SCT025 BKN033 00/M05 Q0997 RESN;",
"01044099999","2008-01-17T12:20:00","4","70.486675","22.139744","6.4","HASVIK, NO","FM-15","ENHK ","V020","300,1,N,0082,1","00750,1,C,N","011265,1,N,1","+0000,1","-0070,1","99999,9","02,5,+00510,1,99,9","04,5,+00750,1,99,9","07,5,+01380,1,99,9",,"07,99,1,99,9,99,9,99999,9,99,9,99,9",,"09990,1,99999,9","16,1",,,,"MET079METAR ENHK 171220Z 30016KT 270V330 9999 VCSH FEW017 SCT025 BKN046 00/M07 Q0999;",
"01044099999","2008-01-17T12:50:00","4","70.486675","22.139744","6.4","HASVIK, NO","FM-15","ENHK ","V020","300,1,N,0113,1","00780,1,C,N","011265,1,N,1","+0000,1","-0060,1","99999,9","02,5,+00510,1,99,9","04,5,+00780,1,99,9","07,5,+01410,1,99,9",,"07,99,1,99,9,99,9,99999,9,99,9,99,9",,"09990,1,99999,9",,,,,"MET066METAR ENHK 171250Z 30022KT 9999 FEW017 SCT026 BKN047 00/M06 Q0999;",
"01044099999","2008-01-17T13:20:00","4","70.486675","22.139744","6.4","HASVIK, NO","FM-15","ENHK ","V020","300,1,N,0098,1","01590,5,C,N","011265,1,N,1","+0000,1","-0100,1","99999,9","04,5,+00960,1,99,9","07,5,+01590,5,99,9",,,"07,99,1,99,9,99,9,99999,9,99,9,99,9",,"09990,1,99999,9",,,,,"MET059METAR ENHK 171320Z 30019KT 9999 SCT032 BKN053 00/M10 Q0999;",
"01044099999","2008-01-17T13:50:00","4","70.486675","22.139744","6.4","HASVIK, NO","FM-15","ENHK ","V020","290,1,N,0087,1","01650,5,C,N","011265,1,N,1","+0000,1","-0090,1","99999,9","04,5,+01080,1,99,9","07,5,+01650,5,99,9",,,"07,99,1,99,9,99,9,99999,9,99,9,99,9",,"09990,1,99999,9","16,1",,,,"MET064METAR ENHK 171350Z 29017KT 9999 VCSH SCT036 BKN055 00/M09 Q0999;",
"01044099999","2008-01-17T14:20:00","4","70.486675","22.139744","6.4","HASVIK, NO","FM-15","ENHK ","V020","280,1,N,0072,1","01590,5,C,N","011265,1,N,1","+0000,1","-0090,1","99999,9","04,5,+01200,1,99,9","07,5,+01590,5,99,9",,,"07,99,1,99,9,99,9,99999,9,99,9,99,9",,"10000,1,99999,9",,,,,"MET059METAR ENHK 171420Z 28014KT 9999 SCT040 BKN053 00/M09 Q1000;",
"01044099999","2008-01-17T15:20:00","4","70.486675","22.139744","6.4","HASVIK, NO","FM-15","ENHK ","V020","270,1,N,0087,1","01800,1,C,N","011265,1,N,1","-0010,1","-0060,1","99999,9","04,5,+01230,1,99,9","07,5,+01800,1,99,9",,,"07,99,1,99,9,99,9,99999,9,99,9,99,9",,"10010,1,99999,9",,,,,"MET068METAR ENHK 171520Z 27017KT 220V300 9999 SCT041 BKN060 M01/M06 Q1001;",
"01044099999","2008-01-18T04:20:00","4","70.486675","22.139744","6.4","HASVIK, NO","FM-15","ENHK ","V020","250,1,N,0093,1","00720,1,C,N","011265,1,N,1","+0020,1","-0020,1","99999,9","02,5,+00300,1,99,9","07,5,+00720,1,99,9",,,"07,99,1,99,9,99,9,99999,9,99,9,99,9",,"10061,1,99999,9","80,1",,,,"MET075METAR ENHK 180420Z 25018KT 230V300 9999 -SHSNRA FEW010 BKN024 02/M02 Q1006;",
"01044099999","2008-01-18T04:50:00","4","70.486675","22.139744","6.4","HASVIK, NO","FM-15","ENHK ","V020","260,1,N,0098,1","00480,1,9,N","004000,1,N,1","+0020,1","-0020,1","99999,9","09,1,+00480,1,99,9",,,,"09,99,1,99,9,99,9,00025,1,99,9,99,9",,"10061,1,99999,9","80,1",,,"0149,1","MET070METAR ENHK 180450Z 26019G29KT 230V290 4000 -SHSNRA VV016 02/M02 Q1006;",
"01044099999","2008-01-18T05:20:00","4","70.486675","22.139744","6.4","HASVIK, NO","FM-15","ENHK ","V020","260,1,N,0093,1","00660,1,C,N","009000,1,N,1","+0020,1","-0010,1","99999,9","02,5,+00390,1,99,9","04,5,+00660,1,99,9","07,5,+00960,1,99,9",,"07,99,1,99,9,99,9,99999,9,99,9,99,9",,"10061,1,99999,9","16,1",,,,"MET086METAR ENHK 180520Z 26018KT 230V290 9000 VCSH FEW013 SCT022 BKN032 02/M01 Q1006 RESNRA;",
"01044099999","2008-01-18T05:50:00","4","70.486675","22.139744","6.4","HASVIK, NO","FM-15","ENHK ","V020","260,1,N,0087,1","00960,1,C,N","011265,1,N,1","+0020,1","-0010,1","99999,9","02,5,+00390,1,99,9","04,5,+00960,1,99,9","07,5,+01500,1,99,9",,"07,99,1,99,9,99,9,99999,9,99,9,99,9",,"10061,1,99999,9","71,1",,,"0139,1","MET078METAR ENHK 180550Z 26017G27KT 9999 -SN FEW013 SCT032 BKN050 02/M01 Q1006 RESN;",
"01044099999","2008-01-18T06:50:00","4","70.486675","22.139744","6.4","HASVIK, NO","FM-15","ENHK ","V020","260,1,N,0067,1","00600,1,C,N","008000,1,N,1","+0010,1","-0010,1","99999,9","07,5,+00600,1,99,9",,,,"07,99,1,99,9,99,9,99999,9,99,9,99,9",,"10071,1,99999,9","71,1",,,,"MET064METAR ENHK 180650Z 26013KT 230V290 8000 -SN BKN020 01/M01 Q1007;",
"01044099999","2008-01-18T12:50:00","4","70.486675","22.139744","6.4","HASVIK, NO","FM-15","ENHK ","V020","260,1,N,0031,1","99999,9,C,N","011265,1,N,1","+0020,1","-0030,1","99999,9","02,5,+00600,1,99,9","04,5,+00780,1,99,9",,,"04,99,1,99,9,99,9,99999,9,99,9,99,9",,"10091,1,99999,9",,,,,"MET059METAR ENHK 181250Z 26006KT 9999 FEW020 SCT026 02/M03 Q1009;","P01 007803SCOCIG"
"01044099999","2008-01-18T13:20:00","4","70.486675","22.139744","6.4","HASVIK, NO","FM-15","ENHK ","V020","240,1,N,0021,1","22000,1,9,N","011265,1,N,1","+0000,1","-0040,1","99999,9","04,5,+00750,1,99,9",,,,"04,99,1,99,9,99,9,99999,9,99,9,99,9",,"10091,1,99999,9",,,,,"MET052METAR ENHK 181320Z 24004KT 9999 SCT025 00/M04 Q1009;",
"01044099999","2008-01-18T13:50:00","4","70.486675","22.139744","6.4","HASVIK, NO","FM-15","ENHK ","V020","999,9,V,0005,1","22000,1,9,N","011265,1,N,1","-0010,1","-0050,1","99999,9","04,5,+00780,1,99,9",,,,"04,99,1,99,9,99,9,99999,9,99,9,99,9",,"10091,1,99999,9",,,,,"MET053METAR ENHK 181350Z VRB01KT 9999 SCT026 M01/M05 Q1009;",
"01044099999","2008-01-18T14:20:00","4","70.486675","22.139744","6.4","HASVIK, NO","FM-15","ENHK ","V020","999,9,V,0005,1","22000,1,9,N","011265,1,N,1","-0010,1","-0040,1","99999,9","04,5,+00810,1,99,9",,,,"04,99,1,99,9,99,9,99999,9,99,9,99,9",,"10091,1,99999,9",,,,,"MET053METAR ENHK 181420Z VRB01KT 9999 SCT027 M01/M04 Q1009;",
"01044099999","2008-01-18T14:50:00","4","70.486675","22.139744","6.4","HASVIK, NO","FM-15","ENHK ","V020","999,9,V,0005,1","22000,1,9,N","011265,1,N,1","+0000,1","-0020,1","99999,9","02,5,+00840,1,99,9",,,,"02,99,1,99,9,99,9,99999,9,99,9,99,9",,"10091,1,99999,9",,,,,"MET052METAR ENHK 181450Z VRB01KT 9999 FEW028 00/M02 Q1009;",
"01044099999","2008-01-20T12:50:00","4","70.486675","22.139744","6.4","HASVIK, NO","FM-15","ENHK ","V020","080,1,N,0036,1","00840,1,C,N","011265,1,N,1","+0030,1","-0030,1","99999,9","02,5,+00720,1,99,9","07,5,+00840,1,99,9",,,"07,99,1,99,9,99,9,99999,9,99,9,99,9",,"09949,1,99999,9","16,1",,,,"MET072METAR ENHK 201250Z 08007KT 020V140 9999 VCSH FEW024 BKN028 03/M03 Q0995;",
"01044099999","2008-01-20T13:20:00","4","70.486675","22.139744","6.4","HASVIK, NO","FM-15","ENHK ","V020","080,1,N,0036,1","00810,1,C,N","011265,1,N,1","+0020,1","-0020,1","99999,9","02,5,+00630,1,99,9","07,5,+00810,1,99,9",,,"07,99,1,99,9,99,9,99999,9,99,9,99,9",,"09959,1,99999,9","85,5",,,,"MET073METAR ENHK 201320Z 08007KT 010V120 9999 -SHSN FEW021 BKN027 02/M02 Q0996;",
"01044099999","2008-01-20T13:50:00","4","70.486675","22.139744","6.4","HASVIK, NO","FM-15","ENHK ","V020","070,1,N,0072,1","00900,1,C,N","011265,1,N,1","+0030,1","-0030,1","99999,9","02,5,+00720,1,99,9","07,5,+00900,1,99,9",,,"07,99,1,99,9,99,9,99999,9,99,9,99,9",,"09959,1,99999,9","16,1",,,,"MET072METAR ENHK 201350Z 07014KT 010V100 9999 VCSH FEW024 BKN030 03/M03 Q0996;",
"01044099999","2008-01-20T14:20:00","4","70.486675","22.139744","6.4","HASVIK, NO","FM-15","ENHK ","V020","070,1,N,0077,1","00990,1,C,N","011265,1,N,1","+0030,1","-0040,1","99999,9","02,5,+00780,1,99,9","07,5,+00990,1,99,9",,,"07,99,1,99,9,99,9,99999,9,99,9,99,9",,"09959,1,99999,9",,,,,"MET059METAR ENHK 201420Z 07015KT 9999 FEW026 BKN033 03/M04 Q0996;",
"01044099999","2008-01-20T14:50:00","4","70.486675","22.139744","6.4","HASVIK, NO","FM-15","ENHK ","V020","060,1,N,0072,1","01050,1,C,N","011265,1,N,1","+0030,1","-0040,1","99999,9","02,5,+00810,1,99,9","07,5,+01050,1,99,9",,,"07,99,1,99,9,99,9,99999,9,99,9,99,9",,"09959,1,99999,9",,,,,"MET059METAR ENHK 201450Z 06014KT 9999 FEW027 BKN035 03/M04 Q0996;",
"01044099999","2008-01-21T04:20:00","4","70.486675","22.139744","6.4","HASVIK, NO","FM-15","ENHK ","V020","070,1,N,0051,1","01080,1,C,N","011265,1,N,1","+0020,1","-0050,1","99999,9","02,5,+00600,1,99,9","07,5,+01080,1,99,9",,,"07,99,1,99,9,99,9,99999,9,99,9,99,9",,"10010,1,99999,9","85,5",,,,"MET073METAR ENHK 210420Z 07010KT 020V120 9999 -SHSN FEW020 BKN036 02/M05 Q1001;",
"01044099999","2008-01-21T04:50:00","4","70.486675","22.139744","6.4","HASVIK, NO","FM-15","ENHK ","V020","070,1,N,0062,1","01050,1,C,N","011265,1,N,1","+0020,1","-0050,1","99999,9","02,5,+00600,1,99,9","04,5,+01050,1,99,9","07,5,+01350,1,99,9",,"07,99,1,99,9,99,9,99999,9,99,9,99,9",,"10010,1,99999,9","85,5",,,,"MET080METAR ENHK 210450Z 07012KT 030V100 9999 -SHSN FEW020 SCT035 BKN045 02/M05 Q1001;",
"01044099999","2008-01-21T05:50:00","4","70.486675","22.139744","6.4","HASVIK, NO","FM-15","ENHK ","V020","050,1,N,0062,1","01140,1,C,N","011265,1,N,1","+0010,1","-0040,1","99999,9","02,5,+00600,1,99,9","07,5,+01140,1,99,9",,,"07,99,1,99,9,99,9,99999,9,99,9,99,9",,,"85,5",,,,"MET067METAR ENHK 210550Z 05012KT 360V110 9999 -SHSN FEW020 BKN038 01/M04;",
"01044099999","2008-01-21T06:50:00","4","70.486675","22.139744","6.4","HASVIK, NO","FM-15","ENHK ","V020","070,1,N,0046,1","01350,1,C,N","011265,1,N,1","+0020,1","-0070,1","99999,9","02,5,+00900,1,99,9","07,5,+01350,1,99,9",,,"07,99,1,99,9,99,9,99999,9,99,9,99,9",,"10020,1,99999,9",,,,,"MET073METAR ENHK 210650Z 07009KT 030V100 9999 FEW030 BKN045 02/M07 Q1002 -RESN;",
"01044099999","2008-01-21T07:50:00","4","70.486675","22.139744","6.4","HASVIK, NO","FM-15","ENHK ","V020","060,1,N,0036,1","01170,1,C,N","011265,1,N,1","+0020,1","-0060,1","99999,9","02,5,+00600,1,99,9","07,5,+01170,1,99,9",,,"07,99,1,99,9,99,9,99999,9,99,9,99,9",,"10031,1,99999,9","16,1",,,,"MET072METAR ENHK 210750Z 06007KT 020V090 9999 VCSH FEW020 BKN039 02/M06 Q1003;",
"01044099999","2008-01-21T08:20:00","4","70.486675","22.139744","6.4","HASVIK, NO","FM-15","ENHK ","V020","070,1,N,0041,1","99999,9,C,N","011265,1,N,1","+0020,1","-0060,1","99999,9","02,5,+00600,1,99,9","04,5,+01350,1,99,9",,,"04,99,1,99,9,99,9,99999,9,99,9,99,9",,"10031,1,99999,9","16,1",,,,"MET072METAR ENHK 210820Z 07008KT 020V130 9999 VCSH FEW020 SCT045 02/M06 Q1003;","P01 013503SCOCIG"
"01044099999","2008-01-21T08:50:00","4","70.486675","22.139744","6.4","HASVIK, NO","FM-15","ENHK ","V020","080,1,N,0036,1","99999,9,C,N","011265,1,N,1","+0010,1","-0030,1","99999,9","02,5,+00450,1,99,9","04,5,+01050,1,99,9",,,"04,99,1,99,9,99,9,99999,9,99,9,99,9",,"10031,1,99999,9","16,1",,,,"MET077METAR ENHK 210850Z 08007KT 050V150 9999 VCSH FEW015 SCT035 01/M03 Q1003 RESN;","P01 010503SCOCIG"
"01044099999","2008-01-21T09:50:00","4","70.486675","22.139744","6.4","HASVIK, NO","FM-15","ENHK ","V020","060,1,N,0051,1","99999,9,C,N","011265,1,N,1","+0010,1","-0030,1","99999,9","02,5,+00600,1,99,9","04,5,+01050,1,99,9",,,"04,99,1,99,9,99,9,99999,9,99,9,99,9",,"10041,1,99999,9","85,5",,,"0103,1","MET076METAR ENHK 210950Z 06010G20KT 020V090 9999 -SHSN FEW020 SCT035 01/M03 Q1004;","P01 010503SCOCIG"
"01044099999","2008-01-21T13:20:00","4","70.486675","22.139744","6.4","HASVIK, NO","FM-15","ENHK ","V020","060,1,N,0031,1","99999,9,C,N","011265,1,N,1","+0000,1","-0030,1","99999,9","02,5,+00810,1,99,9","04,5,+01110,1,99,9",,,"04,99,1,99,9,99,9,99999,9,99,9,99,9",,"10051,1,99999,9","16,1",,,,"MET073METAR ENHK 211320Z 06006KT 010V110 9999 VCSH FEW027 SCT037 M00/M03 Q1005;","P01 011103SCOCIG"
"01044099999","2008-01-21T13:50:00","4","70.486675","22.139744","6.4","HASVIK, NO","FM-15","ENHK ","V020","999,9,V,0031,1","99999,9,C,N","011265,1,N,1","+0000,1","-0040,1","99999,9","02,5,+00780,1,99,9","04,5,+01110,1,99,9",,,"04,99,1,99,9,99,9,99999,9,99,9,99,9",,"10051,1,99999,9","16,1",,,,"MET064METAR ENHK 211350Z VRB06KT 9999 VCSH FEW026 SCT037 00/M04 Q1005;","P01 011103SCOCIG"
"01044099999","2008-01-21T14:20:00","4","70.486675","22.139744","6.4","HASVIK, NO","FM-15","ENHK ","V020","040,1,N,0046,1","22000,1,9,N","011265,1,N,1","+0000,1","-0040,1","99999,9","04,5,+01080,1,99,9",,,,"04,99,1,99,9,99,9,99999,9,99,9,99,9",,"10051,1,99999,9","16,1",,,,"MET065METAR ENHK 211420Z 04009KT 330V080 9999 VCSH SCT036 00/M04 Q1005;",
"01044099999","2008-01-21T14:50:00","4","70.486675","22.139744","6.4","HASVIK, NO","FM-15","ENHK ","V020","050,1,N,0036,1","22000,1,9,N","011265,1,N,1","+0000,1","-0050,1","99999,9","02,5,+01140,1,99,9",,,,"02,99,1,99,9,99,9,99999,9,99,9,99,9",,"10061,1,99999,9","16,1",,,,"MET057METAR ENHK 211450Z 05007KT 9999 VCSH FEW038 00/M05 Q1006;",
"01044099999","2008-01-22T04:20:00","4","70.486675","22.139744","6.4","HASVIK, NO","FM-15","ENHK ","V020","040,1,N,0026,1","01200,1,C,N","011265,1,N,1","+0010,1","-0080,1","99999,9","07,5,+01200,1,99,9",,,,"07,99,1,99,9,99,9,99999,9,99,9,99,9",,"10102,1,99999,9",,,,,"MET060METAR ENHK 220420Z 04005KT 330V080 9999 BKN040 01/M08 Q1010;",
"01044099999","2008-01-22T04:50:00","4","70.486675","22.139744","6.4","HASVIK, NO","FM-15","ENHK ","V020","070,1,N,0021,1","01230,1,C,N","011265,1,N,1","+0010,1","-0070,1","99999,9","07,5,+01230,1,99,9",,,,"07,99,1,99,9,99,9,99999,9,99,9,99,9",,"10102,1,99999,9",,,,,"MET060METAR ENHK 220450Z 07004KT 030V110 9999 BKN041 01/M07 Q1010;",
"01044099999","2008-01-22T05:20:00","4","70.486675","22.139744","6.4","HASVIK, NO","FM-15","ENHK ","V020","999,9,V,0005,1","01350,1,C,N","011265,1,N,1","+0000,1","-0070,1","99999,9","02,5,+01140,1,99,9","07,5,+01350,1,99,9",,,"07,99,1,99,9,99,9,99999,9,99,9,99,9",,"10102,1,99999,9",,,,,"MET060METAR ENHK 220520Z VRB01KT 9999 FEW038 BKN045 M00/M07 Q1010;",
"01044099999","2008-01-22T05:50:00","4","70.486675","22.139744","6.4","HASVIK, NO","FM-15","ENHK ","V020","999,9,V,0005,1","01320,1,C,N","011265,1,N,1","+0000,1","-0060,1","99999,9","02,5,+01140,1,99,9","07,5,+01320,1,99,9",,,"07,99,1,99,9,99,9,99999,9,99,9,99,9",,"10102,1,99999,9",,,,,"MET060METAR ENHK 220550Z VRB01KT 9999 FEW038 BKN044 M00/M06 Q1010;",
"01044099999","2008-01-22T13:20:00","4","70.486675","22.139744","6.4","HASVIK, NO","FM-15","ENHK ","V020","260,1,N,0051,1","01380,1,C,N","011265,1,N,1","+0020,1","-0050,1","99999,9","02,5,+00900,1,99,9","04,5,+01380,1,99,9","07,5,+01650,5,99,9",,"07,99,1,99,9,99,9,99999,9,99,9,99,9",,"10119,1,99999,9",,,,,"MET074METAR ENHK 221320Z 26010KT 230V300 9999 FEW030 SCT046 BKN055 02/M05 Q1012;",
"01044099999","2008-01-22T14:20:00","4","70.486675","22.139744","6.4","HASVIK, NO","FM-15","ENHK ","V020","260,1,N,0062,1","01350,1,C,N","011265,1,N,1","+0020,1","-0040,1","99999,9","02,5,+00900,1,99,9","04,5,+01350,1,99,9","07,5,+01650,5,99,9",,"07,99,1,99,9,99,9,99999,9,99,9,99,9",,"10119,1,99999,9",,,,,"MET074METAR ENHK 221420Z 26012KT 220V290 9999 FEW030 SCT045 BKN055 02/M04 Q1012;",
"01044099999","2008-01-22T14:50:00","4","70.486675","22.139744","6.4","HASVIK, NO","FM-15","ENHK ","V020","260,1,N,0062,1","01350,1,C,N","011265,1,N,1","+0020,1","-0030,1","99999,9","02,5,+00900,1,99,9","07,5,+01350,1,99,9",,,"07,99,1,99,9,99,9,99999,9,99,9,99,9",,"10119,1,99999,9",,,,,"MET067METAR ENHK 221450Z 26012KT 230V290 9999 FEW030 BKN045 02/M03 Q1012;",
"01044099999","2008-01-23T04:20:00","4","70.486675","22.139744","6.4","HASVIK, NO","FM-15","ENHK ","V020","250,1,N,0036,1","00720,1,C,N","011265,1,N,1","+0020,1","-0010,1","99999,9","02,5,+00360,1,99,9","04,5,+00720,1,99,9","07,5,+01080,1,99,9",,"07,99,1,99,9,99,9,99999,9,99,9,99,9",,"10108,1,99999,9",,,,,"MET066METAR ENHK 230420Z 25007KT 9999 FEW012 SCT024 BKN036 02/M01 Q1011;",
"01044099999","2008-01-23T04:50:00","4","70.486675","22.139744","6.4","HASVIK, NO","FM-15","ENHK ","V020","250,1,N,0041,1","00690,1,C,N","011265,1,N,1","+0020,1","-0020,1","99999,9","02,5,+00390,1,99,9","04,5,+00690,1,99,9","07,5,+01110,1,99,9",,"07,99,1,99,9,99,9,99999,9,99,9,99,9",,"10108,1,99999,9",,,,,"MET074METAR ENHK 230450Z 25008KT 200V290 9999 FEW013 SCT023 BKN037 02/M02 Q1011;",
"01044099999","2008-01-23T05:20:00","4","70.486675","22.139744","6.4","HASVIK, NO","FM-15","ENHK ","V020","250,1,N,0036,1","00720,1,C,N","011265,1,N,1","+0020,1","-0020,1","99999,9","02,5,+00390,1,99,9","04,5,+00720,1,99,9","07,5,+01110,1,99,9",,"07,99,1,99,9,99,9,99999,9,99,9,99,9",,"10108,1,99999,9",,,,,"MET074METAR ENHK 230520Z 25007KT 200V290 9999 FEW013 SCT024 BKN037 02/M02 Q1011;",
"01044099999","2008-01-23T05:50:00","4","70.486675","22.139744","6.4","HASVIK, NO","FM-15","ENHK ","V020","250,1,N,0041,1","00780,1,C,N","011265,1,N,1","+0020,1","-0020,1","99999,9","02,5,+00390,1,99,9","04,5,+00780,1,99,9","07,5,+01260,1,99,9",,"07,99,1,99,9,99,9,99999,9,99,9,99,9",,"10108,1,99999,9",,,,,"MET066METAR ENHK 230550Z 25008KT 9999 FEW013 SCT026 BKN042 02/M02 Q1011;",
"01044099999","2008-01-23T06:50:00","4","70.486675","22.139744","6.4","HASVIK, NO","FM-15","ENHK ","V020","240,1,N,0021,1","01350,1,C,N","011265,1,N,1","+0020,1","-0020,1","99999,9","04,5,+00810,1,99,9","07,5,+01350,1,99,9",,,"07,99,1,99,9,99,9,99999,9,99,9,99,9",,"10102,1,99999,9",,,,,"MET059METAR ENHK 230650Z 24004KT 9999 SCT027 BKN045 02/M02 Q1010;",
"01044099999","2008-01-23T14:50:00","4","70.486675","22.139744","6.4","HASVIK, NO","FM-15","ENHK ","V020","110,1,N,0077,1","99999,9,C,Y","009900,1,N,1","+0010,1","-0060,1","99999,9",,,,,,,"10031,1,99999,9",,,,,"MET046METAR ENHK 231450Z 11015KT CAVOK 01/M06 Q1003;",
"01044099999","2008-01-24T04:20:00","4","70.486675","22.139744","6.4","HASVIK, NO","FM-15","ENHK ","V020","110,1,N,0093,1","99999,9,C,Y","009900,1,N,1","+0010,1","-0050,1","99999,9",,,,,,,"09861,1,99999,9",,,,,"MET046METAR ENHK 240420Z 11018KT CAVOK 01/M05 Q0986;",
"01044099999","2008-01-24T04:50:00","4","70.486675","22.139744","6.4","HASVIK, NO","FM-15","ENHK ","V020","110,1,N,0103,1","99999,9,C,Y","009900,1,N,1","+0010,1","-0040,1","99999,9",,,,,,,"09851,1,99999,9",,,,,"MET046METAR ENHK 240450Z 11020KT CAVOK 01/M04 Q0985;",
"01044099999","2008-01-24T05:20:00","4","70.486675","22.139744","6.4","HASVIK, NO","FM-15","ENHK ","V020","140,1,N,0113,1","99999,9,C,Y","009900,1,N,1","+0020,1","-0050,1","99999,9",,,,,,,"09841,1,99999,9",,,,"0170,1","MET049METAR ENHK 240520Z 14022G33KT CAVOK 02/M05 Q0984;",
"01044099999","2008-01-24T05:50:00","4","70.486675","22.139744","6.4","HASVIK, NO","FM-15","ENHK ","V020","140,1,N,0098,1","99999,9,C,Y","009900,1,N,1","+0010,1","-0060,1","99999,9",,,,,,,"09851,1,99999,9",,,,,"MET046METAR ENHK 240550Z 14019KT CAVOK 01/M06 Q0985;",
"01044099999","2008-01-24T06:20:00","4","70.486675","22.139744","6.4","HASVIK, NO","FM-15","ENHK ","V020","160,1,N,0087,1","99999,9,C,Y","009900,1,N,1","+0010,1","-0060,1","99999,9",,,,,,,"09851,1,99999,9",,,,,"MET046METAR ENHK 240620Z 16017KT CAVOK 01/M06 Q0985;",
"01044099999","2008-01-24T13:50:00","4","70.486675","22.139744","6.4","HASVIK, NO","FM-15","ENHK ","V020","150,1,N,0077,1","22000,1,9,N","011265,1,N,1","+0030,1","-0050,1","99999,9",,,,,"00,99,1,99,9,99,9,99999,9,99,9,99,9",,"09821,1,99999,9",,,,,"MET049METAR ENHK 241350Z 15015KT 9999 NSC 03/M05 Q0982;","Q01    003SCCGA1"
"01044099999","2008-01-24T14:20:00","4","70.486675","22.139744","6.4","HASVIK, NO","FM-15","ENHK ","V020","150,1,N,0077,1","22000,1,9,N","011265,1,N,1","+0020,1","-0060,1","99999,9",,,,,"00,99,1,99,9,99,9,99999,9,99,9,99,9",,"09810,1,99999,9",,,,,"MET049METAR ENHK 241420Z 15015KT 9999 NSC 02/M06 Q0981;","Q01    003SCCGA1"
"01044099999","2008-01-24T14:50:00","4","70.486675","22.139744","6.4","HASVIK, NO","FM-15","ENHK ","V020","170,1,N,0062,1","22000,1,9,N","011265,1,N,1","+0020,1","-0050,1","99999,9",,,,,"00,99,1,99,9,99,9,99999,9,99,9,99,9",,"09810,1,99999,9",,,,,"MET057METAR ENHK 241450Z 17012KT 140V210 9999 NSC 02/M05 Q0981;","Q01    003SCCGA1"
"01044099999","2008-01-24T15:20:00","4","70.486675","22.139744","6.4","HASVIK, NO","FM-15","ENHK ","V020","170,1,N,0036,1","22000,1,9,N","011265,1,N,1","+0020,1","-0050,1","99999,9",,,,,"00,99,1,99,9,99,9,99999,9,99,9,99,9",,"09810,1,99999,9",,,,,"MET057METAR ENHK 241520Z 17007KT 150V210 9999 NSC 02/M05 Q0981;","Q01    003SCCGA1"
"01044099999","2008-01-25T04:20:00","4","70.486675","22.139744","6.4","HASVIK, NO","FM-15","ENHK ","V020","120,1,N,0021,1","00600,1,C,N","008000,1,N,1","+0000,1","-0010,1","99999,9","02,5,+00420,1,99,9","07,5,+00600,1,99,9",,,"07,99,1,99,9,99,9,99999,9,99,9,99,9",,"09810,1,99999,9","85,5",,,,"MET065METAR ENHK 250420Z 12004KT 8000 -SHSN FEW014 BKN020 00/M01 Q0981;",
"01044099999","2008-01-25T04:50:00","4","70.486675","22.139744","6.4","HASVIK, NO","FM-15","ENHK ","V020","090,1,N,0026,1","99999,9,C,N","011265,1,N,1","+0000,1","-0010,1","99999,9","02,5,+00450,1,99,9","04,5,+00630,1,99,9",,,"04,99,1,99,9,99,9,99999,9,99,9,99,9",,"09810,1,99999,9","16,1",,,,"MET064METAR ENHK 250450Z 09005KT 9999 VCSH FEW015 SCT021 00/M01 Q0981;","P01 006303SCOCIG"
"01044099999","2008-01-25T05:20:00","4","70.486675","22.139744","6.4","HASVIK, NO","FM-15","ENHK ","V020","100,1,N,0021,1","99999,9,C,N","011265,1,N,1","+0000,1","-0010,1","99999,9","02,5,+00330,1,99,9","04,5,+00660,1,99,9",,,"04,99,1,99,9,99,9,99999,9,99,9,99,9",,"09810,1,99999,9","16,1",,,,"MET065METAR ENHK 250520Z 10004KT 9999 VCSH FEW011 SCT022 M00/M01 Q0981;","P01 006603SCOCIG"
"01044099999","2008-01-25T05:50:00","4","70.486675","22.139744","6.4","HASVIK, NO","FM-15","ENHK ","V020","090,1,N,0026,1","22000,1,9,N","011265,1,N,1","-0010,1","-0010,1","99999,9","02,5,+00300,1,99,9",,,,"02,99,1,99,9,99,9,99999,9,99,9,99,9",,"09810,1,99999,9",,,,,"MET053METAR ENHK 250550Z 09005KT 9999 FEW010 M01/M01 Q0981;",
"01044099999","2008-01-25T06:20:00","4","70.486675","22.139744","6.4","HASVIK, NO","FM-15","ENHK ","V020","090,1,N,0021,1","99999,9,C,N","011265,1,N,1","+0000,1","-0010,1","99999,9","02,5,+00240,1,99,9","04,5,+00570,1,99,9",,,"04,99,1,99,9,99,9,99999,9,99,9,99,9",,"09810,1,99999,9",,,,,"MET067METAR ENHK 250620Z 09004KT 040V150 9999 FEW008 SCT019 00/M01 Q0981;","P01 005703SCOCIG"
"01044099999","2008-01-25T13:20:00","4","70.486675","22.139744","6.4","HASVIK, NO","FM-15","ENHK ","V020","200,1,N,0026,1","22000,1,9,N","011265,1,N,1","+0020,1","-0030,1","99999,9","04,5,+01050,1,99,9",,,,"04,99,1,99,9,99,9,99999,9,99,9,99,9",,"09810,1,99999,9",,,,,"MET060METAR ENHK 251320Z 20005KT 150V260 9999 SCT035 02/M03 Q0981;",
"01044099999","2008-01-25T13:50:00","4","70.486675","22.139744","6.4","HASVIK, NO","FM-15","ENHK ","V020","240,1,N,0031,1","01050,1,C,N","011265,1,N,1","+0020,1","-0040,1","99999,9","07,5,+01050,1,99,9",,,,"07,99,1,99,9,99,9,99999,9,99,9,99,9",,"09810,1,99999,9",,,,,"MET060METAR ENHK 251350Z 24006KT 200V280 9999 BKN035 02/M04 Q0981;",
"01044099999","2008-01-25T14:20:00","4","70.486675","22.139744","6.4","HASVIK, NO","FM-15","ENHK ","V020","250,1,N,0051,1","01050,1,C,N","011265,1,N,1","+0030,1","-0010,1","99999,9","07,5,+01050,1,99,9",,,,"07,99,1,99,9,99,9,99999,9,99,9,99,9",,"09810,1,99999,9",,,,,"MET060METAR ENHK 251420Z 25010KT 210V290 9999 BKN035 03/M01 Q0981;",
"01044099999","2008-01-25T14:50:00","4","70.486675","22.139744","6.4","HASVIK, NO","FM-15","ENHK ","V020","240,1,N,0026,1","22000,1,9,N","011265,1,N,1","+0010,1","-0030,1","99999,9","04,5,+01050,1,99,9",,,,"04,99,1,99,9,99,9,99999,9,99,9,99,9",,"09810,1,99999,9",,,,,"MET060METAR ENHK 251450Z 24005KT 180V270 9999 SCT035 01/M03 Q0981;",
"01044099999","2008-01-25T15:20:00","4","70.486675","22.139744","6.4","HASVIK, NO","FM-15","ENHK ","V020","240,1,N,0036,1","22000,1,9,N","011265,1,N,1","+0020,1","-0030,1","99999,9","04,5,+01050,1,99,9",,,,"04,99,1,99,9,99,9,99999,9,99,9,99,9",,"09810,1,99999,9",,,,,"MET060METAR ENHK 251520Z 24007KT 210V270 9999 SCT035 02/M03 Q0981;",
"01044099999","2008-01-27T12:50:00","4","70.486675","22.139744","6.4","HASVIK, NO","FM-15","ENHK ","V020","260,1,N,0082,1","99999,9,C,N","011265,1,N,1","+0010,1","-0030,1","99999,9","02,5,+01050,1,99,9","04,5,+01350,1,99,9",,,"04,99,1,99,9,99,9,99999,9,99,9,99,9",,"09919,1,99999,9",,,,,"MET067METAR ENHK 271250Z 26016KT 220V290 9999 FEW035 SCT045 01/M03 Q0992;","P01 013503SCOCIG"
"01044099999","2008-01-27T13:20:00","4","70.486675","22.139744","6.4","HASVIK, NO","FM-15","ENHK ","V020","260,1,N,0093,1","01050,1,C,N","011265,1,N,1","+0010,1","-0020,1","99999,9","02,5,+00600,1,99,9","04,5,+01050,1,99,9","07,5,+01500,1,99,9",,"07,99,1,99,9,99,9,99999,9,99,9,99,9",,"09929,1,99999,9","16,1",,,,"MET071METAR ENHK 271320Z 26018KT 9999 VCSH FEW020 SCT035 BKN050 01/M02 Q0993;",
"01044099999","2008-01-27T13:50:00","4","70.486675","22.139744","6.4","HASVIK, NO","FM-15","ENHK ","V020","300,1,N,0139,1","00180,1,9,N","002000,1,N,1","+0010,1","+0000,1","99999,9","09,1,+00180,1,99,9",,,,"09,99,1,99,9,99,9,00025,1,99,9,99,9",,"09929,1,99999,9","86,5",,,,"MET056METAR ENHK 271350Z 30027KT 2000 SHSN VV006 01/M00 Q0993;",
"01044099999","2008-01-27T14:20:00","4","70.486675","22.139744","6.4","HASVIK, NO","FM-15","ENHK ","V020","330,1,N,0082,1","99999,9,C,N","011265,1,N,1","+0010,1","-0010,1","99999,9","04,5,+00750,1,99,9","04,5,+01050,1,99,9",,,"04,99,1,99,9,99,9,99999,9,99,9,99,9",,"09949,1,99999,9",,,,,"MET059METAR ENHK 271420Z 33016KT 9999 SCT025 SCT035 01/M01 Q0995;","P01 010503SCOCIG"
"01044099999","2008-01-27T15:20:00","4","70.486675","22.139744","6.4","HASVIK, NO","FM-15","ENHK ","V020","320,1,N,0087,1","01050,1,C,N","011265,1,N,1","+0020,1","-0020,1","99999,9","04,5,+00750,1,99,9","07,5,+01050,1,99,9",,,"07,99,1,99,9,99,9,99999,9,99,9,99,9",,"09949,1,99999,9",,,,,"MET059METAR ENHK 271520Z 32017KT 9999 SCT025 BKN035 02/M02 Q0995;",
"01044099999","2008-01-28T04:20:00","4","70.486675","22.139744","6.4","HASVIK, NO","FM-15","ENHK ","V020","240,1,N,0067,1","99999,9,C,N","007000,1,N,1","+0010,1","-0010,1","99999,9","02,5,+00360,1,99,9","04,5,+00780,1,99,9",,,"04,99,1,99,9,99,9,99999,9,99,9,99,9",,"10031,1,99999,9","86,5",,,,"MET064METAR ENHK 280420Z 24013KT 7000 SHSN FEW012 SCT026 01/M01 Q1003;","P01 007803SCOCIG"
"01044099999","2008-01-28T04:50:00","4","70.486675","22.139744","6.4","HASVIK, NO","FM-15","ENHK ","V020","170,1,N,0021,1","22000,1,9,N","011265,1,N,1","-0010,1","-0020,1","99999,9","04,5,+00810,1,99,9",,,,"04,99,1,99,9,99,9,99999,9,99,9,99,9",,"10020,1,99999,9","16,1",,,,"MET063METAR ENHK 280450Z 17004KT 9999 VCSH SCT027 M01/M02 Q1002 RESN;",
"01044099999","2008-01-28T05:20:00","4","70.486675","22.139744","6.4","HASVIK, NO","FM-15","ENHK ","V020","120,1,N,0015,1","99999,9,C,N","011265,1,N,1","-0010,1","-0020,1","99999,9","02,5,+00810,1,99,9","04,5,+01140,1,99,9",,,"04,99,1,99,9,99,9,99999,9,99,9,99,9",,"10020,1,99999,9",,,,,"MET060METAR ENHK 280520Z 12003KT 9999 FEW027 SCT038 M01/M02 Q1002;","P01 011403SCOCIG"
"01044099999","2008-01-28T05:50:00","4","70.486675","22.139744","6.4","HASVIK, NO","FM-15","ENHK ","V020","999,9,V,0010,1","99999,9,C,N","011265,1,N,1","+0000,1","-0020,1","99999,9","02,5,+00750,1,99,9","04,5,+01140,1,99,9",,,"04,99,1,99,9,99,9,99999,9,99,9,99,9",,"10020,1,99999,9",,,,,"MET060METAR ENHK 280550Z VRB02KT 9999 FEW025 SCT038 M00/M02 Q1002;","P01 011403SCOCIG"
"01044099999","2008-01-28T06:20:00","4","70.486675","22.139744","6.4","HASVIK, NO","FM-15","ENHK ","V020","160,1,N,0031,1","99999,9,C,N","011265,1,N,1","+0000,1","-0030,1","99999,9","02,5,+00720,1,99,9","04,5,+01110,1,99,9",,,"04,99,1,99,9,99,9,99999,9,99,9,99,9",,"10010,1,99999,9",,,,,"MET059METAR ENHK 280620Z 16006KT 9999 FEW024 SCT037 00/M03 Q1001;","P01 011103SCOCIG"
"01044099999","2008-01-28T13:20:00","4","70.486675","22.139744","6.4","HASVIK, NO","FM-15","ENHK ","V020","130,1,N,0082,1","01650,5,C,N","011265,1,N,1","+0020,1","-0050,1","99999,9","02,5,+01050,1,99,9","07,5,+01650,5,99,9",,,"07,99,1,99,9,99,9,99999,9,99,9,99,9",,"09909,1,99999,9",,,,,"MET059METAR ENHK 281320Z 13016KT 9999 FEW035 BKN055 02/M05 Q0991;",
"01044099999","2008-01-28T13:50:00","4","70.486675","22.139744","6.4","HASVIK, NO","FM-15","ENHK ","V020","110,1,N,0077,1","01500,1,C,N","011265,1,N,1","+0020,1","-0030,1","99999,9","02,5,+01050,1,99,9","07,5,+01500,1,99,9",,,"07,99,1,99,9,99,9,99999,9,99,9,99,9",,"09909,1,99999,9",,,,,"MET059METAR ENHK 281350Z 11015KT 9999 FEW035 BKN050 02/M03 Q0991;",
"01044099999","2008-01-28T14:20:00","4","70.486675","22.139744","6.4","HASVIK, NO","FM-15","ENHK ","V020","100,1,N,0093,1","01500,1,C,N","011265,1,N,1","+0020,1","-0030,1","99999,9","02,5,+01050,1,99,9","04,5,+01500,1,99,9","07,5,+03000,1,99,9",,"07,99,1,99,9,99,9,99999,9,99,9,99,9",,"09898,1,99999,9",,,,,"MET066METAR ENHK 281420Z 10018KT 9999 FEW035 SCT050 BKN100 02/M03 Q0990;",
"01044099999","2008-01-28T14:50:00","4","70.486675","22.139744","6.4","HASVIK, NO","FM-15","ENHK ","V020","130,1,N,0082,1","03000,1,C,N","011265,1,N,1","+0030,1","-0030,1","99999,9","04,5,+01500,1,99,9","07,5,+03000,1,99,9",,,"07,99,1,99,9,99,9,99999,9,99,9,99,9",,"09892,1,99999,9",,,,,"MET059METAR ENHK 281450Z 13016KT 9999 SCT050 BKN100 03/M03 Q0989;",
"01044099999","2008-01-28T15:20:00","4","70.486675","22.139744","6.4","HASVIK, NO","FM-15","ENHK ","V020","150,1,N,0093,1","03000,1,C,N","011265,1,N,1","+0030,1","-0030,1","99999,9","04,5,+01500,1,99,9","07,5,+03000,1,99,9",,,"07,99,1,99,9,99,9,99999,9,99,9,99,9",,"09882,1,99999,9",,,,,"MET059METAR ENHK 281520Z 15018KT 9999 SCT050 BKN100 03/M03 Q0988;",
"01044099999","2008-01-28T15:50:00","4","70.486675","22.139744","6.4","HASVIK, NO","FM-15","ENHK ","V020","120,1,N,0087,1","01500,1,C,N","011265,1,N,1","+0030,1","-0020,1","99999,9","07,5,+01500,1,99,9",,,,"07,99,1,99,9,99,9,99999,9,99,9,99,9",,"09871,1,99999,9",,,,,"MET052METAR ENHK 281550Z 12017KT 9999 BKN050 03/M02 Q0987;",
"01044099999","2008-01-29T04:20:00","4","70.486675","22.139744","6.4","HASVIK, NO","FM-15","ENHK ","V020","230,1,N,0067,1","00600,1,C,N","008000,1,N,1","+0030,1","-0030,1","99999,9","02,5,+00450,1,99,9","04,5,+00600,1,99,9","07,5,+01080,1,99,9",,"07,99,1,99,9,99,9,99999,9,99,9,99,9",,"09780,1,99999,9","61,1","71,1",,,"MET080METAR ENHK 290420Z 23013KT 200V200 8000 -RASN FEW015 SCT020 BKN036 03/M03 Q0978;",
"01044099999","2008-01-29T04:50:00","4","70.486675","22.139744","6.4","HASVIK, NO","FM-15","ENHK ","V020","230,1,N,0082,1","00540,1,9,N","006000,1,N,1","+0010,1","-0010,1","99999,9","09,1,+00540,1,99,9",,,,"09,99,1,99,9,99,9,00025,1,99,9,99,9",,"09780,1,99999,9","85,5",,,,"MET065METAR ENHK 290450Z 23016KT 190V250 6000 -SHSN VV018 01/M01 Q0978;",
"01044099999","2008-01-29T05:20:00","4","70.486675","22.139744","6.4","HASVIK, NO","FM-15","ENHK ","V020","240,1,N,0067,1","01050,1,C,N","011265,1,N,1","+0020,1","-0020,1","99999,9","02,5,+00600,1,99,9","04,5,+01050,1,99,9","07,5,+01620,5,99,9",,"07,99,1,99,9,99,9,99999,9,99,9,99,9",,"09780,1,99999,9","16,1",,,,"MET084METAR ENHK 290520Z 24013KT 200V270 9999 VCSH FEW020 SCT035 BKN054 02/M02 Q0978 RESN;",
"01044099999","2008-01-29T05:50:00","4","70.486675","22.139744","6.4","HASVIK, NO","FM-15","ENHK ","V020","240,1,N,0062,1","01020,1,C,N","009000,1,N,1","+0020,1","-0020,1","99999,9","04,5,+00690,1,99,9","07,5,+01020,1,99,9",,,"07,99,1,99,9,99,9,99999,9,99,9,99,9",,"09770,1,99999,9","16,1",,,,"MET077METAR ENHK 290550Z 24012KT 200V300 9000 VCSH SCT023 BKN034 02/M02 Q0977 RESN;",
"01044099999","2008-01-29T06:50:00","4","70.486675","22.139744","6.4","HASVIK, NO","FM-15","ENHK ","V020","220,1,N,0077,1","00360,1,9,N","002500,1,N,1","+0010,1","+0000,1","99999,9","09,1,+00360,1,99,9",,,,"09,99,1,99,9,99,9,00025,1,99,9,99,9",,"09770,1,99999,9","73,1",,,,"MET062METAR ENHK 290650Z 22015KT 180V260 2500 SN VV012 01/M00 Q0977;",
"01044099999","2008-01-29T09:50:00","4","70.486675","22.139744","6.4","HASVIK, NO","FM-15","ENHK ","V020","270,1,N,0154,1","00450,1,C,N","004000,1,N,1","+0020,1","+0000,1","99999,9","02,5,+00300,1,99,9","04,5,+00450,1,09,5","07,5,+00900,1,99,9",,"07,99,1,99,9,99,9,99999,9,99,9,99,9",,"09760,1,99999,9","63,1","73,1","88,1","0216,1","MET089METAR ENHK 290950Z 27030G42KT 240V300 4000E SHGSSNRA FEW010 SCT015CB BKN030 02/M00 Q0976;",
"01044099999","2008-01-29T12:50:00","4","70.486675","22.139744","6.4","HASVIK, NO","FM-15","ENHK ","V020","280,1,N,0129,1","00690,1,C,N","011265,1,N,1","+0030,1","-0030,1","99999,9","02,5,+00360,1,99,9","04,5,+00690,1,99,9","07,5,+00960,1,99,9",,"07,99,1,99,9,99,9,99999,9,99,9,99,9",,"09790,1,99999,9","16,1",,,"0206,1","MET074METAR ENHK 291250Z 28025G40KT 9999 VCSH FEW012 SCT023 BKN032 03/M03 Q0979;",
"01044099999","2008-01-29T13:20:00","4","70.486675","22.139744","6.4","HASVIK, NO","FM-15","ENHK ","V020","280,1,N,0129,1","00840,1,C,N","011265,1,N,1","+0030,1","-0010,1","99999,9","02,5,+00420,1,99,9","07,5,+00840,1,99,9",,,"07,99,1,99,9,99,9,99999,9,99,9,99,9",,"09790,1,99999,9","16,1",,,"0190,1","MET067METAR ENHK 291320Z 28025G37KT 9999 VCSH FEW014 BKN028 03/M01 Q0979;",
"01044099999","2008-01-29T13:50:00","4","70.486675","22.139744","6.4","HASVIK, NO","FM-15","ENHK ","V020","270,1,N,0134,1","00780,1,C,N","007000,1,N,1","+0010,1","+9999,9","99999,9","02,5,+00390,1,99,9","07,5,+00780,1,99,9",,,"07,99,1,99,9,99,9,99999,9,99,9,99,9",,"09790,1,99999,9","81,1",,,"0195,1","MET067METAR ENHK 291350Z 27026G38KT 7000 SHSNRA FEW013 BKN026 01/M Q0979;",
"01044099999","2008-01-29T14:20:00","4","70.486675","22.139744","6.4","HASVIK, NO","FM-15","ENHK ","V020","260,1,N,0113,1","00750,1,C,N","004500,1,N,1","+0020,1","+0000,1","99999,9","02,5,+00360,1,99,9","07,5,+00750,1,99,9",,,"07,99,1,99,9,99,9,99999,9,99,9,99,9",,"09790,1,99999,9","61,1","71,1",,"0180,1","MET076METAR ENHK 291420Z 26022G35KT 210V290 4500 -SNRA FEW012 BKN025 02/M00 Q0979;",
"01044099999","2008-01-29T14:50:00","4","70.486675","22.139744","6.4","HASVIK, NO","FM-15","ENHK ","V020","250,1,N,0108,1","00780,1,C,N","008000,1,N,1","+0020,1","-0010,1","99999,9","04,5,+00390,1,99,9","07,5,+00780,1,99,9",,,"07,99,1,99,9,99,9,99999,9,99,9,99,9",,"09790,1,99999,9","80,1",,,"0165,1","MET078METAR ENHK 291450Z 25021G32KT 200V280 8000 -SHSNRA SCT013 BKN026 02/M01 Q0979;",
"01044099999","2008-01-30T04:20:00","4","70.486675","22.139744","6.4","HASVIK, NO","FM-15","ENHK ","V020","290,1,N,0154,1","99999,9,C,N","011265,1,N,1","+0030,1","-0030,1","99999,9","02,5,+00750,1,99,9","04,5,+01500,1,99,9",,,"04,99,1,99,9,99,9,99999,9,99,9,99,9",,"09851,1,99999,9","16,1",,,"0206,1","MET082METAR ENHK 300420Z 29030G40KT 260V320 9999 VCSH FEW025 SCT050 03/M03 Q0985 RERASN;","P01 015003SCOCIG"
"01044099999","2008-01-30T04:50:00","4","70.486675","22.139744","6.4","HASVIK, NO","FM-15","ENHK ","V020","280,1,N,0154,1","00960,1,C,N","011265,1,N,1","+0030,1","-0040,1","99999,9","02,5,+00600,1,99,9","04,5,+00960,1,99,9","07,5,+01560,5,99,9",,"07,99,1,99,9,99,9,99999,9,99,9,99,9",,"09851,1,99999,9","16,1",,,"0206,1","MET082METAR ENHK 300450Z 28030G40KT 9999 VCSH FEW020 SCT032 BKN052 03/M04 Q0985 -RERASN;",
"01044099999","2008-01-30T05:20:00","4","70.486675","22.139744","6.4","HASVIK, NO","FM-15","ENHK ","V020","280,1,N,0154,1","00960,1,C,N","011265,1,N,1","+0030,1","-0030,1","99999,9","02,5,+00600,1,99,9","04,5,+00960,1,99,9","07,5,+01590,5,99,9",,"07,99,1,99,9,99,9,99999,9,99,9,99,9",,"09851,1,99999,9",,,,"0206,1","MET083METAR ENHK 300520Z 28030G40KT 240V300 9999 FEW020 SCT032 BKN053 03/M03 Q0985 -RERA;",
"01044099999","2008-01-30T05:50:00","4","70.486675","22.139744","6.4","HASVIK, NO","FM-15","ENHK ","V020","270,1,N,0159,1","00900,1,C,N","011265,1,N,1","+0030,1","-0030,1","99999,9","02,5,+00600,1,99,9","04,5,+00900,1,99,9","07,5,+01800,1,99,9",,"07,99,1,99,9,99,9,99999,9,99,9,99,9",,"09851,1,99999,9",,,,"0221,1","MET069METAR ENHK 300550Z 27031G43KT 9999 FEW020 SCT030 BKN060 03/M03 Q0985;",
"01044099999","2008-01-30T06:50:00","4","70.486675","22.139744","6.4","HASVIK, NO","FM-15","ENHK ","V020","280,1,N,0154,1","00360,1,C,N","004000,1,N,1","+0020,1","-0020,1","99999,9","07,5,+00360,1,99,9",,,,"07,99,1,99,9,99,9,99999,9,99,9,99,9",,"09861,1,99999,9","85,5",,,"0211,1","MET061METAR ENHK 300650Z 28030G41KT 4000 -SHSN BKN012 02/M02 Q0986;",
"01044099999","2008-01-30T09:50:00","4","70.486675","22.139744","6.4","HASVIK, NO","FM-15","ENHK ","V020","290,1,N,0113,1","00450,1,C,N","002500,1,N,1","+0020,1","+0000,1","99999,9","02,5,+00240,1,99,9","04,5,+00450,1,09,5","07,5,+00450,1,99,9",,"07,99,1,99,9,99,9,99999,9,99,9,99,9",,"09871,1,99999,9","63,1","73,1","88,1","0175,1","MET087METAR ENHK 300950Z 29022G34KT 240V340 2500 SHGSSNRA FEW008 SCT015CB BKN015 02/00 Q0987;",
"01044099999","2008-01-30T12:20:00","4","70.486675","22.139744","6.4","HASVIK, NO","FM-15","ENHK ","V020","330,1,N,0087,1","00210,1,9,N","001000,1,N,1","+0000,1","+0000,1","99999,9","09,1,+00210,1,99,9",,,,"09,99,1,99,9,99,9,00025,1,99,9,99,9",,"09882,1,99999,9","63,1","73,1",,,"MET056METAR ENHK 301220Z 33017KT 1000 SNRA VV007 00/M00 Q0988;",
"01044099999","2008-01-30T12:50:00","4","70.486675","22.139744","6.4","HASVIK, NO","FM-15","ENHK ","V020","330,1,N,0067,1","00180,1,9,N","000900,1,N,1","+0000,1","+0000,1","99999,9","09,1,+00180,1,99,9",,,,"09,99,1,99,9,99,9,00025,1,99,9,99,9",,"09882,1,99999,9","63,1","73,1",,,"MET056METAR ENHK 301250Z 33013KT 0900 SNRA VV006 00/M00 Q0988;",
"01044099999","2008-01-30T13:20:00","4","70.486675","22.139744","6.4","HASVIK, NO","FM-15","ENHK ","V020","350,1,N,0046,1","00180,1,9,N","001000,1,N,1","+0000,1","+0000,1","99999,9","09,1,+00180,1,99,9",,,,"09,99,1,99,9,99,9,00025,1,99,9,99,9",,"09892,1,99999,9","63,1","73,1",,,"MET064METAR ENHK 301320Z 35009KT 270V080 1000 SNRA VV006 00/M00 Q0989;",
"01044099999","2008-01-30T13:50:00","4","70.486675","22.139744","6.4","HASVIK, NO","FM-15","ENHK ","V020","290,1,N,0051,1","00240,1,9,N","001100,1,N,1","+0000,1","+0000,1","99999,9","09,1,+00240,1,99,9",,,,"09,99,1,99,9,99,9,00025,1,99,9,99,9",,"09892,1,99999,9","63,1","73,1",,,"MET064METAR ENHK 301350Z 29010KT 240V320 1100 SNRA VV008 00/M00 Q0989;",
"01044099999","2008-01-30T14:20:00","4","70.486675","22.139744","6.4","HASVIK, NO","FM-15","ENHK ","V020","350,1,N,0036,1","00210,1,9,N","000900,1,N,1","+0000,1","-0010,1","99999,9","09,1,+00210,1,99,9",,,,"09,99,1,99,9,99,9,00025,1,99,9,99,9",,"09892,1,99999,9","63,1","73,1",,,"MET065METAR ENHK 301420Z 35007KT 290V030 0900 SNRA VV007 M00/M01 Q0989;",
"01044099999","2008-01-30T14:50:00","4","70.486675","22.139744","6.4","HASVIK, NO","FM-15","ENHK ","V020","999,9,V,0010,1","00180,1,9,N","000900,1,N,1","+0000,1","-0010,1","99999,9","09,1,+00180,1,99,9",,,,"09,99,1,99,9,99,9,00025,1,99,9,99,9",,"09892,1,99999,9","63,1","73,1",,,"MET057METAR ENHK 301450Z VRB02KT 0900 SNRA VV006 M00/M01 Q0989;",
"01044099999","2008-01-31T04:20:00","4","70.486675","22.139744","6.4","HASVIK, NO","FM-15","ENHK ","V020","010,1,N,0067,1","00600,1,C,N","002000,1,N,1","-0010,1","-0020,1","99999,9","02,5,+00300,1,99,9","07,5,+00600,1,99,9",,,"07,99,1,99,9,99,9,99999,9,99,9,99,9",,"09919,1,99999,9","85,5",,,,"MET075METAR ENHK 310420Z 01013KT 330V060 2000E -SHSN FEW010 BKN020 M01/M02 Q0992;",
"01044099999","2008-01-31T04:50:00","4","70.486675","22.139744","6.4","HASVIK, NO","FM-15","ENHK ","V020","050,1,N,0026,1","01320,1,C,N","008000,1,N,1","-0010,1","-0020,1","99999,9","02,5,+00540,1,99,9","07,5,+01320,1,99,9",,,"07,99,1,99,9,99,9,99999,9,99,9,99,9",,"09919,1,99999,9","16,1",,,,"MET093METAR ENHK 310450Z 05005KT 340V100 8000 VCSH FEW018 BKN044 M01/M02 Q0992 RESN/VIS IN SH/2000;",
"01044099999","2008-01-31T05:50:00","4","70.486675","22.139744","6.4","HASVIK, NO","FM-15","ENHK ","V020","330,1,N,0015,1","00930,1,C,N","007000,1,N,1","-0010,1","-0020,1","99999,9","02,5,+00600,1,99,9","04,5,+00930,1,99,9","07,5,+01500,1,99,9",,"07,99,1,99,9,99,9,99999,9,99,9,99,9",,"09919,1,99999,9","85,5",,,,"MET073METAR ENHK 310550Z 33003KT 7000 -SHSN FEW020 SCT031 BKN050 M01/M02 Q0992;",
"01044099999","2008-01-31T06:20:00","4","70.486675","22.139744","6.4","HASVIK, NO","FM-15","ENHK ","V020","320,1,N,0051,1","00600,1,9,N","005000,1,N,1","-0010,1","-0020,1","99999,9","09,1,+00600,1,99,9",,,,"09,99,1,99,9,99,9,00025,1,99,9,99,9",,"09919,1,99999,9","85,5",,,,"MET058METAR ENHK 310620Z 32010KT 5000 -SHSN VV020 M01/M02 Q0992;",
"01044099999","2008-01-31T12:20:00","4","70.486675","22.139744","6.4","HASVIK, NO","FM-15","ENHK ","V020","350,1,N,0026,1","99999,9,C,N","011265,1,N,1","-0020,1","-0040,1","99999,9","02,5,+00630,1,99,9","04,5,+00870,1,99,9",,,"04,99,1,99,9,99,9,99999,9,99,9,99,9",,"09919,1,99999,9","16,1",,,,"MET065METAR ENHK 311220Z 35005KT 9999 VCSH FEW021 SCT029 M02/M04 Q0992;","P01 008703SCOCIG"
"01044099999","2008-01-31T12:50:00","4","70.486675","22.139744","6.4","HASVIK, NO","FM-15","ENHK ","V020","340,1,N,0067,1","00840,1,C,N","007000,1,N,1","-0020,1","-0040,1","99999,9","02,5,+00540,1,99,9","07,5,+00840,1,99,9",,,"07,99,1,99,9,99,9,99999,9,99,9,99,9",,"09919,1,99999,9","85,5",,,,"MET066METAR ENHK 311250Z 34013KT 7000 -SHSN FEW018 BKN028 M02/M04 Q0992;",
"01044099999","2008-01-31T13:20:00","4","70.486675","22.139744","6.4","HASVIK, NO","FM-15","ENHK ","V020","350,1,N,0026,1","01110,1,C,N","011265,1,N,1","-0020,1","-0040,1","99999,9","04,5,+00840,1,99,9","07,5,+01110,1,99,9",,,"07,99,1,99,9,99,9,99999,9,99,9,99,9",,"09919,1,99999,9","16,1",,,,"MET065METAR ENHK 311320Z 35005KT 9999 VCSH SCT028 BKN037 M02/M04 Q0992;",
"01044099999","2008-01-31T13:50:00","4","70.486675","22.139744","6.4","HASVIK, NO","FM-15","ENHK ","V020","310,1,N,0057,1","00900,1,C,N","011265,1,N,1","-0020,1","-0040,1","99999,9","02,5,+00630,1,99,9","04,5,+00900,1,99,9","07,5,+01230,1,99,9",,"07,99,1,99,9,99,9,99999,9,99,9,99,9",,"09919,1,99999,9",,,,,"MET075METAR ENHK 311350Z 31011KT 270V360 9999 FEW021 SCT030 BKN041 M02/M04 Q0992;",
"01044099999","2008-01-31T14:20:00","4","70.486675","22.139744","6.4","HASVIK, NO","FM-15","ENHK ","V020","300,1,N,0072,1","01260,1,C,N","011265,1,N,1","-0010,1","-0040,1","99999,9","02,5,+00600,1,99,9","04,5,+01260,1,99,9","07,5,+01680,5,99,9",,"07,99,1,99,9,99,9,99999,9,99,9,99,9",,"09919,1,99999,9",,,,,"MET067METAR ENHK 311420Z 30014KT 9999 FEW020 SCT042 BKN056 M01/M04 Q0992;",
"01044099999","2008-01-31T15:20:00","4","70.486675","22.139744","6.4","HASVIK, NO","FM-15","ENHK ","V020","300,1,N,0082,1","01740,5,C,N","011265,1,N,1","-0010,1","-0050,1","99999,9","04,5,+01290,1,99,9","07,5,+01740,5,99,9",,,"07,99,1,99,9,99,9,99999,9,99,9,99,9",,"09919,1,99999,9","16,1",,,,"MET065METAR ENHK 311520Z 30016KT 9999 VCSH SCT043 BKN058 M01/M05 Q0992;",
"01044099999","2008-02-01T04:20:00","4","70.486675","22.139744","6.4","HASVIK, NO","FM-15","ENHK ","V020","110,1,N,0067,1","99999,9,C,Y","009900,1,N,1","-0020,1","-0070,1","99999,9",,,,,,,"09898,1,99999,9",,,,,"MET047METAR ENHK 010420Z 11013KT CAVOK M02/M07 Q0990;",
"01044099999","2008-02-01T04:50:00","4","70.486675","22.139744","6.4","HASVIK, NO","FM-15","ENHK ","V020","110,1,N,0082,1","99999,9,C,Y","009900,1,N,1","-0020,1","-0070,1","99999,9",,,,,,,"09892,1,99999,9",,,,,"MET047METAR ENHK 010450Z 11016KT CAVOK M02/M07 Q0989;",
"01044099999","2008-02-01T05:20:00","4","70.486675","22.139744","6.4","HASVIK, NO","FM-15","ENHK ","V020","120,1,N,0077,1","99999,9,C,Y","009900,1,N,1","-0020,1","-0060,1","99999,9",,,,,,,"09892,1,99999,9",,,,,"MET047METAR ENHK 010520Z 12015KT CAVOK M02/M06 Q0989;",
"01044099999","2008-02-01T05:50:00","4","70.486675","22.139744","6.4","HASVIK, NO","FM-15","ENHK ","V020","130,1,N,0082,1","99999,9,C,Y","009900,1,N,1","-0010,1","-0060,1","99999,9",,,,,,,"09892,1,99999,9",,,,,"MET047METAR ENHK 010550Z 13016KT CAVOK M01/M06 Q0989;",
"01044099999","2008-02-01T13:20:00","4","70.486675","22.139744","6.4","HASVIK, NO","FM-15","ENHK ","V020","120,1,N,0103,1","99999,9,C,N","011265,1,N,1","-0020,1","-0060,1","99999,9","02,5,+00450,1,99,9","04,5,+03000,1,99,9",,,"04,99,1,99,9,99,9,99999,9,99,9,99,9",,"09831,1,99999,9",,,,,"MET068METAR ENHK 011320Z 12020KT 080V140 9999 FEW015 SCT100 M02/M06 Q0983;","P01 030003SCOCIG"
"01044099999","2008-02-01T14:20:00","4","70.486675","22.139744","6.4","HASVIK, NO","FM-15","ENHK ","V020","110,1,N,0129,1","99999,9,C,N","011265,1,N,1","-0030,1","-0060,1","99999,9","02,5,+00600,1,99,9","04,5,+03000,1,99,9",,,"04,99,1,99,9,99,9,99999,9,99,9,99,9",,"09821,1,99999,9","36,1",,,,"MET066METAR ENHK 011420Z 11025KT 9999 -DRSN FEW020 SCT100 M03/M06 Q0982;","P01 030003SCOCIG"
"01044099999","2008-02-03T13:20:00","4","70.486675","22.139744","6.4","HASVIK, NO","FM-15","ENHK ","V020","999,9,V,0005,1","00360,1,C,N","011265,1,N,1","-0010,1","-0020,1","99999,9","02,5,+00210,1,99,9","04,5,+00360,1,99,9","07,5,+00480,1,99,9",,"07,99,1,99,9,99,9,99999,9,99,9,99,9",,"09949,1,99999,9","16,1",,,,"MET072METAR ENHK 031320Z VRB01KT 9999 VCSH FEW007 SCT012 BKN016 M01/M02 Q0995;",
"01044099999","2008-02-03T13:50:00","4","70.486675","22.139744","6.4","HASVIK, NO","FM-15","ENHK ","V020","999,9,V,0005,1","00420,1,C,N","011265,1,N,1","-0010,1","-0020,1","99999,9","02,5,+00210,1,99,9","04,5,+00420,1,99,9","07,5,+00660,1,99,9",,"07,99,1,99,9,99,9,99999,9,99,9,99,9",,"09949,1,99999,9","16,1",,,,"MET072METAR ENHK 031350Z VRB01KT 9999 VCSH FEW007 SCT014 BKN022 M01/M02 Q0995;",
"01044099999","2008-02-03T14:20:00","4","70.486675","22.139744","6.4","HASVIK, NO","FM-15","ENHK ","V020","999,9,V,0005,1","99999,9,C,N","011265,1,N,1","-0030,1","-0040,1","99999,9","02,5,+00300,1,99,9","04,5,+00690,1,99,9",,,"04,99,1,99,9,99,9,99999,9,99,9,99,9",,"09949,1,99999,9","16,1",,,,"MET065METAR ENHK 031420Z VRB01KT 9999 VCSH FEW010 SCT023 M03/M04 Q0995;","P01 006903SCOCIG"
"01044099999","2008-02-03T14:50:00","4","70.486675","22.139744","6.4","HASVIK, NO","FM-15","ENHK ","V020","999,9,C,0000,1","22000,1,9,N","011265,1,N,1","-0040,1","-0050,1","99999,9","02,5,+00300,1,99,9",,,,"02,99,1,99,9,99,9,99999,9,99,9,99,9",,"09959,1,99999,9",,,,,"MET053METAR ENHK 031450Z 00000KT 9999 FEW010 M04/M05 Q0996;",
"01044099999","2008-02-04T04:20:00","4","70.486675","22.139744","6.4","HASVIK, NO","FM-15","ENHK ","V020","999,9,V,0005,1","00150,1,9,N","001000,1,N,1","+0000,1","-0010,1","99999,9","09,1,+00150,1,99,9",,,,"09,99,1,99,9,99,9,00025,1,99,9,99,9",,"10031,1,99999,9","75,1",,,,"MET056METAR ENHK 040420Z VRB01KT 1000 +SN VV005 M00/M01 Q1003;",
"01044099999","2008-02-04T04:50:00","4","70.486675","22.139744","6.4","HASVIK, NO","FM-15","ENHK ","V020","999,9,V,0015,1","00150,1,9,N","000500,1,N,1","+0000,1","-0010,1","99999,9","09,1,+00150,1,99,9",,,,"09,99,1,99,9,99,9,00025,1,99,9,99,9",,"10031,1,99999,9","75,1",,,,"MET056METAR ENHK 040450Z VRB03KT 0500 +SN VV005 M00/M01 Q1003;",
"01044099999","2008-02-04T05:20:00","4","70.486675","22.139744","6.4","HASVIK, NO","FM-15","ENHK ","V020","340,1,N,0036,1","00300,1,9,N","002000,1,N,1","+0000,1","-0010,1","99999,9","09,1,+00300,1,99,9",,,,"09,99,1,99,9,99,9,00025,1,99,9,99,9",,"10041,1,99999,9","73,1",,,,"MET055METAR ENHK 040520Z 34007KT 2000 SN VV010 M00/M01 Q1004;",
"01044099999","2008-02-04T06:50:00","4","70.486675","22.139744","6.4","HASVIK, NO","FM-15","ENHK ","V020","020,1,N,0051,1","01950,5,C,N","011265,1,N,1","+0000,1","-0020,1","99999,9","04,5,+01050,1,99,9","07,5,+01950,5,99,9",,,"07,99,1,99,9,99,9,99999,9,99,9,99,9",,"10051,1,99999,9",,,,,"MET068METAR ENHK 040650Z 02010KT 350V070 9999 SCT035 BKN065 M00/M02 Q1005;",
"01044099999","2008-02-04T07:50:00","4","70.486675","22.139744","6.4","HASVIK, NO","FM-15","ENHK ","V020","020,1,N,0057,1","00750,1,C,N","005000,1,N,1","-0010,1","-0030,1","99999,9","04,5,+00450,1,99,9","07,5,+00750,1,99,9",,,"07,99,1,99,9,99,9,99999,9,99,9,99,9",,"10061,1,99999,9","71,1",,,,"MET072METAR ENHK 040750Z 02011KT 340V060 5000 -SN SCT015 BKN025 M01/M03 Q1006;",
"01044099999","2008-02-04T08:50:00","4","70.486675","22.139744","6.4","HASVIK, NO","FM-15","ENHK ","V020","010,1,N,0031,1","99999,9,C,N","011265,1,N,1","-0010,1","-0050,1","99999,9","04,5,+00750,1,99,9","04,5,+01950,5,99,9",,,"04,99,1,99,9,99,9,99999,9,99,9,99,9",,"10081,1,99999,9",,,,,"MET068METAR ENHK 040850Z 01006KT 320V080 9999 SCT025 SCT065 M01/M05 Q1008;","P01 019503SCOCIG"
"01044099999","2008-02-04T11:20:00","4","70.486675","22.139744","6.4","HASVIK, NO","FM-15","ENHK ","V020","070,1,N,0026,1","00750,1,C,N","011265,1,N,1","-0020,1","-0030,1","99999,9","02,5,+00450,1,99,9","04,5,+00750,1,99,9","07,5,+01050,1,99,9",,"07,99,1,99,9,99,9,99999,9,99,9,99,9",,"10091,1,99999,9","16,1",,,,"MET072METAR ENHK 041120Z 07005KT 9999 VCSH FEW015 SCT025 BKN035 M02/M03 Q1009;",
"01044099999","2008-02-04T13:20:00","4","70.486675","22.139744","6.4","HASVIK, NO","FM-15","ENHK ","V020","999,9,V,0005,1","99999,9,C,N","011265,1,N,1","-0040,1","-0060,1","99999,9","02,5,+00300,1,99,9","04,5,+00750,1,99,9",,,"04,99,1,99,9,99,9,99999,9,99,9,99,9",,"10102,1,99999,9",,,,,"MET065METAR ENHK 041320Z VRB01KT 9999 FEW010 SCT025 M04/M06 Q1010 RESN;","P01 007503SCOCIG"
"01044099999","2008-02-04T13:50:00","4","70.486675","22.139744","6.4","HASVIK, NO","FM-15","ENHK ","V020","090,1,N,0021,1","00660,1,C,N","011265,1,N,1","-0030,1","-0040,1","99999,9","02,5,+00270,1,99,9","04,5,+00660,1,99,9","07,5,+01470,1,99,9",,"07,99,1,99,9,99,9,99999,9,99,9,99,9",,"10102,1,99999,9","16,1",,,,"MET072METAR ENHK 041350Z 09004KT 9999 VCSH FEW009 SCT022 BKN049 M03/M04 Q1010;",
"01044099999","2008-02-04T14:50:00","4","70.486675","22.139744","6.4","HASVIK, NO","FM-15","ENHK ","V020","999,9,V,0005,1","99999,9,C,N","011265,1,N,1","-0030,1","-0050,1","99999,9","02,5,+00300,1,99,9","04,5,+01500,1,99,9",,,"04,99,1,99,9,99,9,99999,9,99,9,99,9",,"10108,1,99999,9",,,,,"MET060METAR ENHK 041450Z VRB01KT 9999 FEW010 SCT050 M03/M05 Q1011;","P01 015003SCOCIG"
"01044099999","2008-02-04T15:20:00","4","70.486675","22.139744","6.4","HASVIK, NO","FM-15","ENHK ","V020","999,9,V,0005,1","22000,1,9,N","011265,1,N,1","-0050,1","-0060,1","99999,9","02,5,+00300,1,99,9",,,,"02,99,1,99,9,99,9,99999,9,99,9,99,9",,"10108,1,99999,9",,,,,"MET053METAR ENHK 041520Z VRB01KT 9999 FEW010 M05/M06 Q1011;",
"01044099999","2008-02-05T04:20:00","4","70.486675","22.139744","6.4","HASVIK, NO","FM-15","ENHK ","V020","140,1,N,0108,1","22000,1,9,N","011265,1,N,1","-0010,1","-0050,1","99999,9","02,5,+00960,1,99,9",,,,"02,99,1,99,9,99,9,99999,9,99,9,99,9",,"10119,1,99999,9",,,,"0159,1","MET056METAR ENHK 050420Z 14021G31KT 9999 FEW032 M01/M05 Q1012;",
"01044099999","2008-02-05T04:50:00","4","70.486675","22.139744","6.4","HASVIK, NO","FM-15","ENHK ","V020","140,1,N,0108,1","22000,1,9,N","011265,1,N,1","-0010,1","-0050,1","99999,9","02,5,+01020,1,99,9",,,,"02,99,1,99,9,99,9,99999,9,99,9,99,9",,"10108,1,99999,9",,,,,"MET053METAR ENHK 050450Z 14021KT 9999 FEW034 M01/M05 Q1011;",
"01044099999","2008-02-05T05:20:00","4","70.486675","22.139744","6.4","HASVIK, NO","FM-15","ENHK ","V020","130,1,N,0113,1","22000,1,9,N","011265,1,N,1","-0010,1","-0040,1","99999,9","04,5,+01080,1,99,9",,,,"04,99,1,99,9,99,9,99999,9,99,9,99,9",,"10108,1,99999,9",,,,,"MET053METAR ENHK 050520Z 13022KT 9999 SCT036 M01/M04 Q1011;",
"01044099999","2008-02-05T05:50:00","4","70.486675","22.139744","6.4","HASVIK, NO","FM-15","ENHK ","V020","130,1,N,0108,1","22000,1,9,N","011265,1,N,1","-0010,1","-0050,1","99999,9","04,5,+01050,1,99,9",,,,"04,99,1,99,9,99,9,99999,9,99,9,99,9",,"10108,1,99999,9",,,,,"MET053METAR ENHK 050550Z 13021KT 9999 SCT035 M01/M05 Q1011;",
"01044099999","2008-02-05T06:20:00","4","70.486675","22.139744","6.4","HASVIK, NO","FM-15","ENHK ","V020","140,1,N,0118,1","22000,1,9,N","011265,1,N,1","-0020,1","-0050,1","99999,9","04,5,+01080,1,99,9",,,,"04,99,1,99,9,99,9,99999,9,99,9,99,9",,"10108,1,99999,9",,,,,"MET053METAR ENHK 050620Z 14023KT 9999 SCT036 M02/M05 Q1011;",
"01044099999","2008-02-05T06:50:00","4","70.486675","22.139744","6.4","HASVIK, NO","FM-15","ENHK ","V020","130,1,N,0113,1","22000,1,9,N","011265,1,N,1","-0010,1","-0050,1","99999,9","04,5,+01110,1,99,9",,,,"04,99,1,99,9,99,9,99999,9,99,9,99,9",,"10108,1,99999,9",,,,,"MET053METAR ENHK 050650Z 13022KT 9999 SCT037 M01/M05 Q1011;",
"01044099999","2008-02-05T07:50:00","4","70.486675","22.139744","6.4","HASVIK, NO","FM-15","ENHK ","V020","140,1,N,0129,1","22000,1,9,N","011265,1,N,1","-0020,1","-0050,1","99999,9","04,5,+01080,1,99,9",,,,"04,99,1,99,9,99,9,99999,9,99,9,99,9",,"10108,1,99999,9",,,,,"MET053METAR ENHK 050750Z 14025KT 9999 SCT036 M02/M05 Q1011;",
"01044099999","2008-02-05T08:50:00","4","70.486675","22.139744","6.4","HASVIK, NO","FM-15","ENHK ","V020","140,1,N,0098,1","22000,1,9,N","011265,1,N,1","-0010,1","-0060,1","99999,9","02,5,+01080,1,99,9",,,,"02,99,1,99,9,99,9,99999,9,99,9,99,9",,"10108,1,99999,9",,,,,"MET053METAR ENHK 050850Z 14019KT 9999 FEW036 M01/M06 Q1011;",
"01044099999","2008-02-05T09:50:00","4","70.486675","22.139744","6.4","HASVIK, NO","FM-15","ENHK ","V020","140,1,N,0123,1","22000,1,9,N","011265,1,N,1","-0020,1","-0050,1","99999,9","02,5,+01140,1,99,9",,,,"02,99,1,99,9,99,9,99999,9,99,9,99,9",,"10108,1,99999,9",,,,,"MET053METAR ENHK 050950Z 14024KT 9999 FEW038 M02/M05 Q1011;",
"01044099999","2008-02-05T11:50:00","4","70.486675","22.139744","6.4","HASVIK, NO","FM-15","ENHK ","V020","140,1,N,0134,1","22000,1,9,N","011265,1,N,1","-0020,1","-0050,1","99999,9","02,5,+00900,1,99,9",,,,"02,99,1,99,9,99,9,99999,9,99,9,99,9",,"10102,1,99999,9",,,,,"MET053METAR ENHK 051150Z 14026KT 9999 FEW030 M02/M05 Q1010;",
"01044099999","2008-02-05T12:50:00","4","70.486675","22.139744","6.4","HASVIK, NO","FM-15","ENHK ","V020","130,1,N,0113,1","22000,1,9,N","011265,1,N,1","-0010,1","-0090,1","99999,9",,,,,"00,99,1,99,9,99,9,99999,9,99,9,99,9",,"10102,1,99999,9","36,1",,,,"MET063METAR ENHK 051250Z 13022KT 110V170 9999 DRSN NSC M01/M09 Q1010;","Q01    003SCCGA1"
"01044099999","2008-02-05T13:20:00","4","70.486675","22.139744","6.4","HASVIK, NO","FM-15","ENHK ","V020","110,1,N,0149,1","22000,1,9,N","011265,1,N,1","-0030,1","-0070,1","99999,9",,,,,"00,99,1,99,9,99,9,99999,9,99,9,99,9",,"10102,1,99999,9","38,1",,,,"MET056METAR ENHK 051320Z 11029KT 9999 -BLSN NSC M03/M07 Q1010;","Q01    003SCCGA1"
"01044099999","2008-02-05T13:50:00","4","70.486675","22.139744","6.4","HASVIK, NO","FM-15","ENHK ","V020","120,1,N,0134,1","22000,1,9,N","011265,1,N,1","-0020,1","-0070,1","99999,9",,,,,"00,99,1,99,9,99,9,99999,9,99,9,99,9",,"10102,1,99999,9","38,1",,,,"MET055METAR ENHK 051350Z 12026KT 9999 BLSN NSC M02/M07 Q1010;","Q01    003SCCGA1"
"01044099999","2008-02-05T14:50:00","4","70.486675","22.139744","6.4","HASVIK, NO","FM-15","ENHK ","V020","110,1,N,0154,1","22000,1,9,N","999999,9,N,1","-0030,1","-0070,1","99999,9",,,,,,,"10100,1,99999,9",,,,,"MET054METAR ENHK 051450Z 11030KT 999 BLSN NSC M03/M07 Q1010;",
"01044099999","2008-02-06T04:20:00","4","70.486675","22.139744","6.4","HASVIK, NO","FM-15","ENHK ","V020","110,1,N,0134,1","22000,1,9,N","011265,1,N,1","-0010,1","-0050,1","99999,9","02,5,+00570,1,99,9",,,,"02,99,1,99,9,99,9,99999,9,99,9,99,9",,"10108,1,99999,9",,,,,"MET053METAR ENHK 060420Z 11026KT 9999 FEW019 M01/M05 Q1011;",
"01044099999","2008-02-06T04:50:00","4","70.486675","22.139744","6.4","HASVIK, NO","FM-15","ENHK ","V020","110,1,N,0149,1","22000,1,9,N","011265,1,N,1","-0010,1","-0050,1","99999,9","02,5,+00630,1,99,9",,,,"02,99,1,99,9,99,9,99999,9,99,9,99,9",,"10108,1,99999,9","38,1",,,,"MET059METAR ENHK 060450Z 11029KT 9999 -BLSN FEW021 M01/M05 Q1011;",
"01044099999","2008-02-06T05:20:00","4","70.486675","22.139744","6.4","HASVIK, NO","FM-15","ENHK ","V020","120,1,N,0144,1","99999,9,C,N","011265,1,N,1","-0010,1","-0050,1","99999,9","02,5,+00630,1,99,9","04,5,+02370,5,99,9",,,"04,99,1,99,9,99,9,99999,9,99,9,99,9",,"10108,1,99999,9","38,1",,,,"MET066METAR ENHK 060520Z 12028KT 9999 -BLSN FEW021 SCT079 M01/M05 Q1011;","P01 023703SCOCIG"
"01044099999","2008-02-06T05:50:00","4","70.486675","22.139744","6.4","HASVIK, NO","FM-15","ENHK ","V020","110,1,N,0134,1","22000,1,9,N","011265,1,N,1","-0010,1","-0050,1","99999,9","04,5,+02400,1,99,9",,,,"04,99,1,99,9,99,9,99999,9,99,9,99,9",,"10102,1,99999,9","38,1",,,,"MET059METAR ENHK 060550Z 11026KT 9999 -BLSN SCT080 M01/M05 Q1010;",
"01044099999","2008-02-06T06:20:00","4","70.486675","22.139744","6.4","HASVIK, NO","FM-15","ENHK ","V020","110,1,N,0134,1","22000,1,9,N","011265,1,N,1","-0010,1","-0050,1","99999,9","04,5,+02490,5,99,9",,,,"04,99,1,99,9,99,9,99999,9,99,9,99,9",,"10108,1,99999,9","38,1",,,,"MET059METAR ENHK 060620Z 11026KT 9999 -BLSN SCT083 M01/M05 Q1011;",
"01044099999","2008-02-06T06:50:00","4","70.486675","22.139744","6.4","HASVIK, NO","FM-15","ENHK ","V020","110,1,N,0139,1","22000,1,9,N","011265,1,N,1","-0010,1","-0050,1","99999,9","04,5,+02580,5,99,9",,,,"04,99,1,99,9,99,9,99999,9,99,9,99,9",,"10102,1,99999,9",,,,,"MET053METAR ENHK 060650Z 11027KT 9999 SCT086 M01/M05 Q1010;",
"01044099999","2008-02-06T07:50:00","4","70.486675","22.139744","6.4","HASVIK, NO","FM-15","ENHK ","V020","140,1,N,0129,1","99999,9,C,N","011265,1,N,1","+0000,1","-0050,1","99999,9","02,5,+00660,1,99,9","04,5,+02520,5,99,9",,,"04,99,1,99,9,99,9,99999,9,99,9,99,9",,"10102,1,99999,9",,,,,"MET060METAR ENHK 060750Z 14025KT 9999 FEW022 SCT084 M00/M05 Q1010;","P01 025203SCOCIG"
"01044099999","2008-02-06T09:50:00","4","70.486675","22.139744","6.4","HASVIK, NO","FM-15","ENHK ","V020","140,1,N,0123,1","22000,1,9,N","011265,1,N,1","+0000,1","-0050,1","99999,9",,,,,"00,99,1,99,9,99,9,99999,9,99,9,99,9",,"10108,1,99999,9",,,,,"MET050METAR ENHK 060950Z 14024KT 9999 NSC M00/M05 Q1011;","Q01    003SCCGA1"
"01044099999","2008-02-06T10:20:00","4","70.486675","22.139744","6.4","HASVIK, NO","FM-15","ENHK ","V020","140,1,N,0123,1","22000,1,9,N","011265,1,N,1","-0010,1","-0060,1","99999,9",,,,,"00,99,1,99,9,99,9,99999,9,99,9,99,9",,"10108,1,99999,9",,,,,"MET058METAR ENHK 061020Z 14024KT 100V170 9999 NSC M01/M06 Q1011;","Q01    003SCCGA1"
"01044099999","2008-02-06T12:50:00","4","70.486675","22.139744","6.4","HASVIK, NO","FM-15","ENHK ","V020","120,1,N,0118,1","22000,1,9,N","011265,1,N,1","-0010,1","-0050,1","99999,9",,,,,"00,99,1,99,9,99,9,99999,9,99,9,99,9",,"10102,1,99999,9","36,1",,,,"MET055METAR ENHK 061250Z 12023KT 9999 DRSN NSC M01/M05 Q1010;","Q01    003SCCGA1"
"01044099999","2008-02-06T13:50:00","4","70.486675","22.139744","6.4","HASVIK, NO","FM-15","ENHK ","V020","130,1,N,0118,1","22000,1,9,N","011265,1,N,1","-0010,1","-0060,1","99999,9",,,,,"00,99,1,99,9,99,9,99999,9,99,9,99,9",,"10102,1,99999,9","36,1",,,,"MET056METAR ENHK 061350Z 13023KT 9999 -DRSN NSC M01/M06 Q1010;","Q01    003SCCGA1"
"01044099999","2008-02-06T14:20:00","4","70.486675","22.139744","6.4","HASVIK, NO","FM-15","ENHK ","V020","130,1,N,0113,1","22000,1,9,N","011265,1,N,1","-0010,1","-0060,1","99999,9",,,,,"00,99,1,99,9,99,9,99999,9,99,9,99,9",,"10102,1,99999,9","36,1",,,,"MET056METAR ENHK 061420Z 13022KT 9999 -DRSN NSC M01/M06 Q1010;","Q01    003SCCGA1"
"01044099999","2008-02-06T14:50:00","4","70.486675","22.139744","6.4","HASVIK, NO","FM-15","ENHK ","V020","140,1,N,0113,1","22000,1,9,N","011265,1,N,1","-0010,1","-0070,1","99999,9",,,,,"00,99,1,99,9,99,9,99999,9,99,9,99,9",,"10091,1,99999,9","36,1",,,,"MET056METAR ENHK 061450Z 14022KT 9999 -DRSN NSC M01/M07 Q1009;","Q01    003SCCGA1"
"01044099999","2008-02-07T04:20:00","4","70.486675","22.139744","6.4","HASVIK, NO","FM-15","ENHK ","V020","130,1,N,0051,1","22000,1,9,N","011265,1,N,1","+0020,1","-0050,1","99999,9",,,,,"00,99,1,99,9,99,9,99999,9,99,9,99,9",,"10102,1,99999,9",,,,,"MET057METAR ENHK 070420Z 13010KT 080V180 9999 NSC 02/M05 Q1010;","Q01    003SCCGA1"
"01044099999","2008-02-07T04:50:00","4","70.486675","22.139744","6.4","HASVIK, NO","FM-15","ENHK ","V020","100,1,N,0051,1","22000,1,9,N","011265,1,N,1","+0010,1","-0040,1","99999,9",,,,,"00,99,1,99,9,99,9,99999,9,99,9,99,9",,"10102,1,99999,9",,,,,"MET049METAR ENHK 070450Z 10010KT 9999 NSC 01/M04 Q1010;","Q01    003SCCGA1"
"01044099999","2008-02-07T05:50:00","4","70.486675","22.139744","6.4","HASVIK, NO","FM-15","ENHK ","V020","110,1,N,0057,1","99999,9,C,Y","009900,1,N,1","+0010,1","-0040,1","99999,9",,,,,,,"10102,1,99999,9",,,,,"MET046METAR ENHK 070550Z 11011KT CAVOK 01/M04 Q1010;",
"01044099999","2008-02-07T07:20:00","4","70.486675","22.139744","6.4","HASVIK, NO","FM-15","ENHK ","V020","110,1,N,0057,1","99999,9,C,N","011265,1,N,1","+0010,1","-0040,1","99999,9","02,5,+00600,1,99,9","04,5,+02100,1,99,9",,,"04,99,1,99,9,99,9,99999,9,99,9,99,9",,"10108,1,99999,9",,,,,"MET059METAR ENHK 070720Z 11011KT 9999 FEW020 SCT070 01/M04 Q1011;","P01 021003SCOCIG"
"01044099999","2008-02-07T08:20:00","4","70.486675","22.139744","6.4","HASVIK, NO","FM-15","ENHK ","V020","130,1,N,0041,1","01650,5,C,N","011265,1,N,1","+0020,1","-0040,1","99999,9","02,5,+00600,1,99,9","07,5,+01650,5,99,9",,,"07,99,1,99,9,99,9,99999,9,99,9,99,9",,"10108,1,99999,9",,,,,"MET067METAR ENHK 070820Z 13008KT 100V180 9999 FEW020 BKN055 02/M04 Q1011;",
"01044099999","2008-02-07T08:50:00","4","70.486675","22.139744","6.4","HASVIK, NO","FM-15","ENHK ","V020","140,1,N,0041,1","01650,5,C,N","011265,1,N,1","+0020,1","-0050,1","99999,9","02,5,+00600,1,99,9","07,5,+01650,5,99,9",,,"07,99,1,99,9,99,9,99999,9,99,9,99,9",,"10119,1,99999,9",,,,,"MET067METAR ENHK 070850Z 14008KT 120V180 9999 FEW020 BKN055 02/M05 Q1012;",
"01044099999","2008-02-07T11:50:00","4","70.486675","22.139744","6.4","HASVIK, NO","FM-15","ENHK ","V020","100,1,N,0046,1","01050,1,C,N","011265,1,N,1","+0010,1","-0020,1","99999,9","02,5,+00600,1,99,9","04,5,+01050,1,99,9","07,5,+02100,1,99,9",,"07,99,1,99,9,99,9,99999,9,99,9,99,9",,"10119,1,99999,9",,,,,"MET072METAR ENHK 071150Z 10009KT 9999 FEW020 SCT035 BKN070 01/M02 Q1012 -RESN;",
"01044099999","2008-02-07T12:50:00","4","70.486675","22.139744","6.4","HASVIK, NO","FM-15","ENHK ","V020","100,1,N,0041,1","02100,1,C,N","011265,1,N,1","+0020,1","-0030,1","99999,9","02,5,+01650,5,99,9","07,5,+02100,1,99,9",,,"07,99,1,99,9,99,9,99999,9,99,9,99,9",,"10129,1,99999,9",,,,,"MET059METAR ENHK 071250Z 10008KT 9999 FEW055 BKN070 02/M03 Q1013;",
"01044099999","2008-02-07T13:20:00","4","70.486675","22.139744","6.4","HASVIK, NO","FM-15","ENHK ","V020","090,1,N,0036,1","99999,9,C,N","011265,1,N,1","+0020,1","-0030,1","99999,9","04,5,+01050,1,99,9","04,5,+02250,5,99,9",,,"04,99,1,99,9,99,9,99999,9,99,9,99,9",,"10119,1,99999,9",,,,,"MET067METAR ENHK 071320Z 09007KT 080V140 9999 SCT035 SCT075 02/M03 Q1012;","P01 022503SCOCIG"
"01044099999","2008-02-07T13:50:00","4","70.486675","22.139744","6.4","HASVIK, NO","FM-15","ENHK ","V020","090,1,N,0026,1","99999,9,C,N","011265,1,N,1","+0020,1","-0030,1","99999,9","04,5,+01050,1,99,9","04,5,+02250,5,99,9",,,"04,99,1,99,9,99,9,99999,9,99,9,99,9",,"10129,1,99999,9",,,,,"MET067METAR ENHK 071350Z 09005KT 070V150 9999 SCT035 SCT075 02/M03 Q1013;","P01 022503SCOCIG"
"01044099999","2008-02-07T14:50:00","4","70.486675","22.139744","6.4","HASVIK, NO","FM-15","ENHK ","V020","180,1,N,0036,1","22000,1,9,N","011265,1,N,1","+0030,1","-0020,1","99999,9","04,5,+01650,5,99,9",,,,"04,99,1,99,9,99,9,99999,9,99,9,99,9",,"10119,1,99999,9",,,,,"MET052METAR ENHK 071450Z 18007KT 9999 SCT055 03/M02 Q1012;",
"01044099999","2008-02-07T15:50:00","4","70.486675","22.139744","6.4","HASVIK, NO","FM-15","ENHK ","V020","180,1,N,0036,1","22000,1,9,N","011265,1,N,1","+0030,1","-0030,1","99999,9","04,5,+01650,5,99,9",,,,"04,99,1,99,9,99,9,99999,9,99,9,99,9",,"10119,1,99999,9",,,,,"MET052METAR ENHK 071550Z 18007KT 9999 SCT055 03/M03 Q1012;",
"01044099999","2008-02-08T04:20:00","4","70.486675","22.139744","6.4","HASVIK, NO","FM-15","ENHK ","V020","120,1,N,0062,1","22000,1,9,N","011265,1,N,1","+0010,1","-0050,1","99999,9",,,,,"00,99,1,99,9,99,9,99999,9,99,9,99,9",,"10102,1,99999,9",,,,,"MET049METAR ENHK 080420Z 12012KT 9999 NSC 01/M05 Q1010;","Q01    003SCCGA1"
"01044099999","2008-02-08T04:50:00","4","70.486675","22.139744","6.4","HASVIK, NO","FM-15","ENHK ","V020","110,1,N,0062,1","22000,1,9,N","011265,1,N,1","+0010,1","-0050,1","99999,9",,,,,"00,99,1,99,9,99,9,99999,9,99,9,99,9",,"10102,1,99999,9",,,,,"MET049METAR ENHK 080450Z 11012KT 9999 NSC 01/M05 Q1010;","Q01    003SCCGA1"
"01044099999","2008-02-08T05:20:00","4","70.486675","22.139744","6.4","HASVIK, NO","FM-15","ENHK ","V020","100,1,N,0057,1","22000,1,9,N","011265,1,N,1","+0000,1","-0050,1","99999,9",,,,,"00,99,1,99,9,99,9,99999,9,99,9,99,9",,"10102,1,99999,9",,,,,"MET049METAR ENHK 080520Z 10011KT 9999 NSC 00/M05 Q1010;","Q01    003SCCGA1"
"01044099999","2008-02-08T05:50:00","4","70.486675","22.139744","6.4","HASVIK, NO","FM-15","ENHK ","V020","110,1,N,0062,1","22000,1,9,N","011265,1,N,1","+0010,1","-0050,1","99999,9",,,,,"00,99,1,99,9,99,9,99999,9,99,9,99,9",,"10102,1,99999,9",,,,,"MET049METAR ENHK 080550Z 11012KT 9999 NSC 01/M05 Q1010;","Q01    003SCCGA1"
"01044099999","2008-02-08T06:20:00","4","70.486675","22.139744","6.4","HASVIK, NO","FM-15","ENHK ","V020","100,1,N,0062,1","22000,1,9,N","011265,1,N,1","+0000,1","-0050,1","99999,9",,,,,"00,99,1,99,9,99,9,99999,9,99,9,99,9",,"10102,1,99999,9",,,,,"MET049METAR ENHK 080620Z 10012KT 9999 NSC 00/M05 Q1010;","Q01    003SCCGA1"
"01044099999","2008-02-08T06:50:00","4","70.486675","22.139744","6.4","HASVIK, NO","FM-15","ENHK ","V020","110,1,N,0062,1","22000,1,9,N","011265,1,N,1","+0010,1","-0050,1","99999,9",,,,,"00,99,1,99,9,99,9,99999,9,99,9,99,9",,"10102,1,99999,9",,,,,"MET049METAR ENHK 080650Z 11012KT 9999 NSC 01/M05 Q1010;","Q01    003SCCGA1"
"01044099999","2008-02-08T07:50:00","4","70.486675","22.139744","6.4","HASVIK, NO","FM-15","ENHK ","V020","120,1,N,0046,1","01920,5,C,N","011265,1,N,1","+0010,1","-0050,1","99999,9","02,5,+00900,1,99,9","07,5,+01920,5,99,9",,,"07,99,1,99,9,99,9,99999,9,99,9,99,9",,"10108,1,99999,9",,,,,"MET059METAR ENHK 080750Z 12009KT 9999 FEW030 BKN064 01/M05 Q1011;",
"01044099999","2008-02-08T08:50:00","4","70.486675","22.139744","6.4","HASVIK, NO","FM-15","ENHK ","V020","180,1,N,0031,1","00300,1,9,N","001200,1,N,1","+0000,1","-0010,1","99999,9","09,1,+00300,1,99,9",,,,"09,99,1,99,9,99,9,00025,1,99,9,99,9",,"10108,1,99999,9","73,1",,,,"MET062METAR ENHK 080850Z 18006KT 140V220 1200 SN VV010 00/M01 Q1011;",
"01044099999","2008-02-08T12:20:00","4","70.486675","22.139744","6.4","HASVIK, NO","FM-15","ENHK ","V020","280,1,N,0098,1","00930,1,C,N","011265,1,N,1","+0040,1","-0010,1","99999,9","02,5,+00540,1,99,9","04,5,+00930,1,99,9","07,5,+01770,5,99,9",,"07,99,1,99,9,99,9,99999,9,99,9,99,9",,"10139,1,99999,9","16,1",,,,"MET071METAR ENHK 081220Z 28019KT 9999 VCSH FEW018 SCT031 BKN059 04/M01 Q1014;",
"01044099999","2008-02-08T12:50:00","4","70.486675","22.139744","6.4","HASVIK, NO","FM-15","ENHK ","V020","280,1,N,0103,1","01950,5,C,N","011265,1,N,1","+0040,1","-0020,1","99999,9","04,5,+01020,1,99,9","07,5,+01950,5,99,9",,,"07,99,1,99,9,99,9,99999,9,99,9,99,9",,"10149,1,99999,9","16,1",,,,"MET064METAR ENHK 081250Z 28020KT 9999 VCSH SCT034 BKN065 04/M02 Q1015;",
"01044099999","2008-02-08T13:20:00","4","70.486675","22.139744","6.4","HASVIK, NO","FM-15","ENHK ","V020","290,1,N,0134,1","01980,5,C,N","005000,1,N,1","+0020,1","+0000,1","99999,9","04,5,+00960,1,99,9","07,5,+01980,5,99,9",,,"07,99,1,99,9,99,9,99999,9,99,9,99,9",,"10159,1,99999,9","61,1","71,1",,,"MET065METAR ENHK 081320Z 29026KT 5000 -RASN SCT032 BKN066 02/M00 Q1016;",
"01044099999","2008-02-08T13:50:00","4","70.486675","22.139744","6.4","HASVIK, NO","FM-15","ENHK ","V020","280,1,N,0087,1","01740,5,C,N","011265,1,N,1","+0030,1","+0000,1","99999,9","04,5,+01080,1,99,9","07,5,+01740,5,99,9",,,"07,99,1,99,9,99,9,99999,9,99,9,99,9",,"10159,1,99999,9","16,1",,,,"MET072METAR ENHK 081350Z 28017KT 240V330 9999 VCSH SCT036 BKN058 03/M00 Q1016;",
"01044099999","2008-02-08T14:20:00","4","70.486675","22.139744","6.4","HASVIK, NO","FM-15","ENHK ","V020","280,1,N,0123,1","01020,1,C,N","007000,1,N,1","+0010,1","+0000,1","99999,9","02,5,+00480,1,99,9","04,5,+01020,1,99,9","07,5,+01650,5,99,9",,"07,99,1,99,9,99,9,99999,9,99,9,99,9",,"10159,1,99999,9","83,1",,,,"MET074METAR ENHK 081420Z 28024KT 7000 -SHRASN FEW016 SCT034 BKN055 01/M00 Q1016;",
"01044099999","2008-02-08T14:50:00","4","70.486675","22.139744","6.4","HASVIK, NO","FM-15","ENHK ","V020","310,1,N,0093,1","99999,9,C,N","011265,1,N,1","+0020,1","+0000,1","99999,9","04,5,+01050,1,99,9","04,5,+01980,5,99,9",,,"04,99,1,99,9,99,9,99999,9,99,9,99,9",,"10169,1,99999,9","16,1",,,,"MET063METAR ENHK 081450Z 31018KT 9999 VCSH SCT035 SCT066 02/00 Q1017;","P01 019803SCOCIG"
"01044099999","2008-02-09T14:50:00","4","70.486675","22.139744","6.4","HASVIK, NO","FM-15","ENHK ","V020","100,1,N,0098,1","99999,9,C,Y","009900,1,N,1","+0030,1","-0030,1","99999,9",,,,,,,"10220,1,99999,9",,,,,"MET046METAR ENHK 091450Z 10019KT CAVOK 03/M03 Q1022;",
"01044099999","2008-02-09T15:20:00","4","70.486675","22.139744","6.4","HASVIK, NO","FM-15","ENHK ","V020","110,1,N,0082,1","99999,9,C,Y","009900,1,N,1","+0030,1","-0040,1","99999,9",,,,,,,"10220,1,99999,9",,,,,"MET046METAR ENHK 091520Z 11016KT CAVOK 03/M04 Q1022;",
"01044099999","2008-02-10T12:50:00","4","70.486675","22.139744","6.4","HASVIK, NO","FM-15","ENHK ","V020","280,1,N,0098,1","01650,5,C,N","011265,1,N,1","+0060,1","-0020,1","99999,9","02,5,+01410,1,99,9","07,5,+01650,5,99,9",,,"07,99,1,99,9,99,9,99999,9,99,9,99,9",,"10159,1,99999,9",,,,"0190,1","MET070METAR ENHK 101250Z 28019G37KT 200V300 9999 FEW047 BKN055 06/M02 Q1016;",
"01044099999","2008-02-10T13:20:00","4","70.486675","22.139744","6.4","HASVIK, NO","FM-15","ENHK ","V020","280,1,N,0098,1","01620,5,C,N","011265,1,N,1","+0060,1","-0010,1","99999,9","02,5,+01380,1,99,9","07,5,+01620,5,99,9",,,"07,99,1,99,9,99,9,99999,9,99,9,99,9",,"10159,1,99999,9",,,,,"MET067METAR ENHK 101320Z 28019KT 220V310 9999 FEW046 BKN054 06/M01 Q1016;",
"01044099999","2008-02-10T14:20:00","4","70.486675","22.139744","6.4","HASVIK, NO","FM-15","ENHK ","V020","280,1,N,0098,1","01620,5,C,N","011265,1,N,1","+0050,1","+0010,1","99999,9","02,5,+01350,1,99,9","07,5,+01620,5,99,9",,,"07,99,1,99,9,99,9,99999,9,99,9,99,9",,"10159,1,99999,9","80,1",,,,"MET064METAR ENHK 101420Z 28019KT 9999 -SHRA FEW045 BKN054 05/01 Q1016;",
"01044099999","2008-02-10T14:50:00","4","70.486675","22.139744","6.4","HASVIK, NO","FM-15","ENHK ","V020","290,1,N,0118,1","01590,5,C,N","011265,1,N,1","+0050,1","+0010,1","99999,9","02,5,+01290,1,99,9","07,5,+01590,5,99,9",,,"07,99,1,99,9,99,9,99999,9,99,9,99,9",,"10169,1,99999,9","80,1",,,"0175,1","MET067METAR ENHK 101450Z 29023G34KT 9999 -SHRA FEW043 BKN053 05/01 Q1017;",
"01044099999","2008-02-11T04:20:00","4","70.486675","22.139744","6.4","HASVIK, NO","FM-15","ENHK ","V020","260,1,N,0093,1","99999,9,C,N","011265,1,N,1","+0060,1","-0020,1","99999,9","02,5,+00600,1,99,9","04,5,+02100,1,99,9",,,"04,99,1,99,9,99,9,99999,9,99,9,99,9",,"10190,1,99999,9",,,,"0144,1","MET070METAR ENHK 110420Z 26018G28KT 220V290 9999 FEW020 SCT070 06/M02 Q1019;","P01 021003SCOCIG"
"01044099999","2008-02-11T04:50:00","4","70.486675","22.139744","6.4","HASVIK, NO","FM-15","ENHK ","V020","270,1,N,0154,1","01350,1,C,N","011265,1,N,1","+0060,1","-0010,1","99999,9","02,5,+00600,1,99,9","04,5,+01350,1,99,9","07,5,+02100,1,99,9",,"07,99,1,99,9,99,9,99999,9,99,9,99,9",,"10200,1,99999,9",,,,,"MET066METAR ENHK 110450Z 27030KT 9999 FEW020 SCT045 BKN070 06/M01 Q1020;",
"01044099999","2008-02-11T05:50:00","4","70.486675","22.139744","6.4","HASVIK, NO","FM-15","ENHK ","V020","270,1,N,0103,1","99999,9,C,N","011265,1,N,1","+0060,1","+0000,1","99999,9","02,5,+00540,1,99,9","04,5,+01140,1,99,9",,,"04,99,1,99,9,99,9,99999,9,99,9,99,9",,"10200,1,99999,9",,,,"0159,1","MET075METAR ENHK 110550Z 27020G31KT 240V300 9999 FEW018 SCT038 06/M00 Q1020 REDZ;","P01 011403SCOCIG"
"01044099999","2008-02-11T06:20:00","4","70.486675","22.139744","6.4","HASVIK, NO","FM-15","ENHK ","V020","270,1,N,0118,1","01500,1,C,N","011265,1,N,1","+0060,1","+0000,1","99999,9","02,5,+00900,1,99,9","07,5,+01500,1,99,9",,,"07,99,1,99,9,99,9,99999,9,99,9,99,9",,"10200,1,99999,9","16,1",,,"0180,1","MET075METAR ENHK 110620Z 27023G35KT 240V300 9999 VCSH FEW030 BKN050 06/M00 Q1020;",
"01044099999","2008-02-11T07:20:00","4","70.486675","22.139744","6.4","HASVIK, NO","FM-15","ENHK ","V020","270,1,N,0082,1","01200,1,C,N","011265,1,N,1","+0050,1","+0000,1","99999,9","02,5,+00900,1,99,9","04,5,+01200,1,99,9","07,5,+01800,1,99,9",,"07,99,1,99,9,99,9,99999,9,99,9,99,9",,"10200,1,99999,9",,,,"0144,1","MET068METAR ENHK 110720Z 27016G28KT 9999 FEW030 SCT040 BKN060 05/00 Q1020;",
"01044099999","2008-02-11T12:50:00","4","70.486675","22.139744","6.4","HASVIK, NO","FM-15","ENHK ","V020","270,1,N,0108,1","01500,1,C,N","011265,1,N,1","+0070,1","+0000,1","99999,9","02,5,+01230,1,99,9","07,5,+01500,1,99,9",,,"07,99,1,99,9,99,9,99999,9,99,9,99,9",,"10200,1,99999,9",,,,"0195,1","MET062METAR ENHK 111250Z 27021G38KT 9999 FEW041 BKN050 07/M00 Q1020;",
"01044099999","2008-02-11T13:20:00","4","70.486675","22.139744","6.4","HASVIK, NO","FM-15","ENHK ","V020","270,1,N,0082,1","01470,1,C,N","011265,1,N,1","+0060,1","+0000,1","99999,9","02,5,+01200,1,99,9","07,5,+01470,1,99,9",,,"07,99,1,99,9,99,9,99999,9,99,9,99,9",,"10200,1,99999,9","16,1",,,,"MET063METAR ENHK 111320Z 27016KT 9999 VCSH FEW040 BKN049 06/00 Q1020;",
"01044099999","2008-02-11T14:20:00","4","70.486675","22.139744","6.4","HASVIK, NO","FM-15","ENHK ","V020","270,1,N,0108,1","01410,1,C,N","011265,1,N,1","+0060,1","+0000,1","99999,9","02,5,+01140,1,99,9","07,5,+01410,1,99,9",,,"07,99,1,99,9,99,9,99999,9,99,9,99,9",,"10200,1,99999,9","16,1",,,,"MET063METAR ENHK 111420Z 27021KT 9999 VCSH FEW038 BKN047 06/00 Q1020;",
"01044099999","2008-02-11T14:50:00","4","70.486675","22.139744","6.4","HASVIK, NO","FM-15","ENHK ","V020","270,1,N,0108,1","01380,1,C,N","011265,1,N,1","+0060,1","+0000,1","99999,9","02,5,+01110,1,99,9","07,5,+01380,1,99,9",,,"07,99,1,99,9,99,9,99999,9,99,9,99,9",,"10200,1,99999,9",,,,,"MET058METAR ENHK 111450Z 27021KT 9999 FEW037 BKN046 06/00 Q1020;",
"01044099999","2008-02-12T05:20:00","4","70.486675","22.139744","6.4","HASVIK, NO","FM-15","ENHK ","V020","260,1,N,0139,1","99999,9,C,N","011265,1,N,1","+0080,1","+0000,1","99999,9","02,5,+00600,1,99,9","04,5,+01410,1,99,9",,,"04,99,1,99,9,99,9,99999,9,99,9,99,9",,"10031,1,99999,9",,,,"0195,1","MET070METAR ENHK 120520Z 26027G38KT 230V290 9999 FEW020 SCT047 08/M00 Q1003;","P01 014103SCOCIG"
"01044099999","2008-02-12T06:20:00","4","70.486675","22.139744","6.4","HASVIK, NO","FM-15","ENHK ","V020","270,1,N,0134,1","99999,9,C,N","011265,1,N,1","+0080,1","+0010,1","99999,9","02,5,+00600,1,99,9","04,5,+01050,1,99,9",,,"04,99,1,99,9,99,9,99999,9,99,9,99,9",,"10031,1,99999,9","61,1",,,"0201,1","MET073METAR ENHK 120620Z 27026G39KT 240V300 9999 -RA FEW020 SCT035 08/01 Q1003;","P01 010503SCOCIG"
"01044099999","2008-02-12T13:20:00","4","70.486675","22.139744","6.4","HASVIK, NO","FM-15","ENHK ","V020","270,1,N,0103,1","00810,1,C,N","011265,1,N,1","+0040,1","+0010,1","99999,9","02,5,+00360,1,99,9","07,5,+00810,1,99,9",,,"07,99,1,99,9,99,9,99999,9,99,9,99,9",,"10020,1,99999,9","61,1",,,,"MET062METAR ENHK 121320Z 27020KT 9999 -RA FEW012 BKN027 04/01 Q1002;",
"01044099999","2008-02-12T14:20:00","4","70.486675","22.139744","6.4","HASVIK, NO","FM-15","ENHK ","V020","270,1,N,0098,1","00780,1,C,N","011265,1,N,1","+0040,1","+0010,1","99999,9","02,5,+00390,1,99,9","07,5,+00780,1,99,9",,,"07,99,1,99,9,99,9,99999,9,99,9,99,9",,"10020,1,99999,9","61,1",,,,"MET061METAR ENHK 121420Z 27019KT 9999 -RA FEW013 BKN026 04/1 Q1002;",
"01044099999","2008-02-13T04:20:00","4","70.486675","22.139744","6.4","HASVIK, NO","FM-15","ENHK ","V020","300,1,N,0118,1","00450,1,C,N","002000,1,N,1","+0000,1","-0040,1","99999,9","07,5,+00450,1,99,9","04,5,+00600,1,09,5",,,,,"09919,1,99999,9","73,1","90,1",,,"MET069METAR ENHK 130420Z 30023KT 2000 SHGRSN BKN015 SCT020CB M00/M04 Q0992;","Q01+000042SCOTCV"
"01044099999","2008-02-13T04:50:00","4","70.486675","22.139744","6.4","HASVIK, NO","FM-15","ENHK ","V020","300,1,N,0149,1","00450,1,9,N","003500,1,N,1","-0010,1","-0030,1","99999,9","09,1,+00450,1,99,9",,,,"09,99,1,99,9,99,9,00025,1,99,9,99,9",,"09919,1,99999,9","85,5",,,"0221,1","MET061METAR ENHK 130450Z 30029G43KT 3500 -SHSN VV015 M01/M03 Q0992;",
"01044099999","2008-02-13T05:20:00","4","70.486675","22.139744","6.4","HASVIK, NO","FM-15","ENHK ","V020","300,1,N,0139,1","99999,9,C,N","008000,1,N,1","+0000,1","-0070,1","99999,9","02,5,+00450,1,99,9","04,5,+01050,1,99,9",,,"04,99,1,99,9,99,9,99999,9,99,9,99,9",,"09909,1,99999,9","16,1",,,"0190,1","MET072METAR ENHK 130520Z 30027G37KT 8000 VCSH FEW015 SCT035 00/M07 Q0991 RESN;","P01 010503SCOCIG"
"01044099999","2008-02-13T05:50:00","4","70.486675","22.139744","6.4","HASVIK, NO","FM-15","ENHK ","V020","280,1,N,0108,1","99999,9,C,N","011265,1,N,1","+0010,1","-0050,1","99999,9","02,5,+00600,1,99,9","04,5,+01140,1,99,9",,,"04,99,1,99,9,99,9,99999,9,99,9,99,9",,"09919,1,99999,9",,,,,"MET067METAR ENHK 130550Z 28021KT 250V310 9999 FEW020 SCT038 01/M05 Q0992;","P01 011403SCOCIG"
"01044099999","2008-02-13T06:20:00","4","70.486675","22.139744","6.4","HASVIK, NO","FM-15","ENHK ","V020","290,1,N,0144,1","01200,1,C,N","011265,1,N,1","+0010,1","-0070,1","99999,9","02,5,+00600,1,99,9","07,5,+01200,1,99,9",,,"07,99,1,99,9,99,9,99999,9,99,9,99,9",,"09909,1,99999,9",,,,"0201,1","MET062METAR ENHK 130620Z 29028G39KT 9999 FEW020 BKN040 01/M07 Q0991;",
"01044099999","2008-02-13T06:50:00","4","70.486675","22.139744","6.4","HASVIK, NO","FM-15","ENHK ","V020","290,1,N,0149,1","99999,9,C,N","011265,1,N,1","+0010,1","-0070,1","99999,9","07,5,+01500,5,99,9",,,,"02,99,1,99,9,99,9,99999,9,99,9,99,9",,"09920,1,99999,9",,,,"0206,1","MET063METAR ENHK 130650Z 29029G40KT 9999 FEW0230 BKN050 01/M07 Q0992;","P01 015003SCOCIG"
"01044099999","2008-02-13T07:50:00","4","70.486675","22.139744","6.4","HASVIK, NO","FM-15","ENHK ","V020","290,1,N,0170,1","00150,1,9,N","000400,1,N,1","+0000,1","-0020,1","99999,9","09,1,+00150,1,99,9",,,,"09,99,1,99,9,99,9,00025,1,99,9,99,9",,"09909,1,99999,9","86,5",,,"0231,1","MET060METAR ENHK 130750Z 29033G45KT 0400 +SHSN VV005 00/M02 Q0991;",
"01044099999","2008-02-13T12:50:00","4","70.486675","22.139744","6.4","HASVIK, NO","FM-15","ENHK ","V020","340,1,N,0098,1","99999,9,C,N","011265,1,N,1","+0000,1","-0050,1","99999,9","02,5,+00360,1,99,9","07,5,+01200,5,99,9",,,"02,99,1,99,9,99,9,99999,9,99,9,99,9",,"10010,1,99999,9","38,1","85,5",,"0165,1","MET089METAR ENHK 131250Z 34019G32KT 300V030 9999 -SHSN -BLSN FEW012 CT025 BKN040 M00/M05 Q1001;","P01 012003SCOCIG"
"01044099999","2008-02-13T13:20:00","4","70.486675","22.139744","6.4","HASVIK, NO","FM-15","ENHK ","V020","340,1,N,0082,1","01050,1,C,N","011265,1,N,1","+0000,1","-0060,1","99999,9","02,5,+00480,1,99,9","07,5,+01050,1,99,9",,,"07,99,1,99,9,99,9,99999,9,99,9,99,9",,"10020,1,99999,9","16,1",,,,"MET073METAR ENHK 131320Z 34016KT 300V010 9999 VCSH FEW016 BKN035 M00/M06 Q1002;",
"01044099999","2008-02-13T13:50:00","4","70.486675","22.139744","6.4","HASVIK, NO","FM-15","ENHK ","V020","340,1,N,0113,1","01260,1,C,N","011265,1,N,1","+0010,1","-0080,1","99999,9","02,5,+00600,1,99,9","07,5,+01260,1,99,9",,,"07,99,1,99,9,99,9,99999,9,99,9,99,9",,"10020,1,99999,9","16,1",,,"0170,1","MET075METAR ENHK 131350Z 34022G33KT 310V020 9999 VCSH FEW020 BKN042 01/M08 Q1002;",
"01044099999","2008-02-13T14:20:00","4","70.486675","22.139744","6.4","HASVIK, NO","FM-15","ENHK ","V020","340,1,N,0108,1","00960,1,C,N","011265,1,N,1","+0000,1","-0070,1","99999,9","02,5,+00480,1,99,9","07,5,+00960,1,99,9",,,"07,99,1,99,9,99,9,99999,9,99,9,99,9",,"10031,1,99999,9","16,1",,,,"MET073METAR ENHK 131420Z 34021KT 310V030 9999 VCSH FEW016 BKN032 M00/M07 Q1003;",
"01044099999","2008-02-13T14:50:00","4","70.486675","22.139744","6.4","HASVIK, NO","FM-15","ENHK ","V020","340,1,N,0103,1","00900,1,C,N","006000,1,N,1","-0010,1","-0060,1","99999,9","02,5,+00450,1,99,9","07,5,+00900,1,99,9",,,"07,99,1,99,9,99,9,99999,9,99,9,99,9",,"10041,1,99999,9","38,1","71,1",,"0165,1","MET081METAR ENHK 131450Z 34020G32KT 320V030 6000 -SN -BLSN FEW015 BKN030 M01/M06 Q1004;",
"01044099999","2008-02-13T15:20:00","4","70.486675","22.139744","6.4","HASVIK, NO","FM-15","ENHK ","V020","340,1,N,0108,1","00750,1,C,N","005000,1,N,1","-0010,1","-0050,1","99999,9","02,5,+00300,1,99,9","04,5,+00750,1,99,9","07,5,+00900,1,99,9",,"07,99,1,99,9,99,9,99999,9,99,9,99,9",,"10041,1,99999,9","71,1",,,"0175,1","MET083METAR ENHK 131520Z 34021G34KT 310V010 5000W -SN FEW010 SCT025 BKN030 M01/M05 Q1004;",
"01044099999","2008-02-13T15:50:00","4","70.486675","22.139744","6.4","HASVIK, NO","FM-15","ENHK ","V020","340,1,N,0123,1","99999,9,C,N","003500,1,N,1","-0020,1","-0040,1","99999,9","04,5,+00450,1,99,9","04,5,+01050,1,99,9",,,"04,99,1,99,9,99,9,99999,9,99,9,99,9",,"10051,1,99999,9","38,1","85,5",,"0206,1","MET082METAR ENHK 131550Z 34024G40KT 310V020 3500 -SHSN BLSN SCT015 SCT035 M02/M04 Q1005;","P01 010503SCOCIG"
"01044099999","2008-02-14T04:20:00","4","70.486675","22.139744","6.4","HASVIK, NO","FM-15","ENHK ","V020","340,1,N,0108,1","22000,1,9,N","011265,1,N,1","-0040,1","-0080,1","99999,9","04,5,+00900,1,99,9",,,,"04,99,1,99,9,99,9,99999,9,99,9,99,9",,"10159,1,99999,9","38,1",,,"0170,1","MET061METAR ENHK 140420Z 34021G33KT 9999 BLSN SCT030 M04/M08 Q1016;",
"01044099999","2008-02-14T04:50:00","4","70.486675","22.139744","6.4","HASVIK, NO","FM-15","ENHK ","V020","340,1,N,0108,1","01350,1,C,N","011265,1,N,1","-0030,1","-0100,1","99999,9","02,5,+00900,1,99,9","07,5,+01350,1,99,9",,,"07,99,1,99,9,99,9,99999,9,99,9,99,9",,,"38,1",,,"0175,1","MET076METAR ENHK 140450Z 34021G34KT 310V010 9999 -BLSN FEW030 BKN045 M03/M10 1017;",
"01044099999","2008-02-14T05:20:00","4","70.486675","22.139744","6.4","HASVIK, NO","FM-15","ENHK ","V020","350,1,N,0087,1","01350,1,C,N","011265,1,N,1","-0030,1","-0100,1","99999,9","02,5,+00900,1,99,9","07,5,+01350,1,99,9",,,"07,99,1,99,9,99,9,99999,9,99,9,99,9",,"10169,1,99999,9","38,1",,,"0154,1","MET077METAR ENHK 140520Z 35017G30KT 300V060 9999 -BLSN FEW030 BKN045 M03/M10 Q1017;",
"01044099999","2008-02-14T05:50:00","4","70.486675","22.139744","6.4","HASVIK, NO","FM-15","ENHK ","V020","350,1,N,0098,1","99999,9,C,N","011265,1,N,1","-0030,1","-0100,1","99999,9","02,5,+00900,1,99,9","04,5,+01350,1,99,9",,,"04,99,1,99,9,99,9,99999,9,99,9,99,9",,"10169,1,99999,9","38,1",,,"0190,1","MET077METAR ENHK 140550Z 35019G37KT 310V070 9999 -BLSN FEW030 SCT045 M03/M10 Q1017;","P01 013503SCOCIG"
"01044099999","2008-02-14T06:20:00","4","70.486675","22.139744","6.4","HASVIK, NO","FM-15","ENHK ","V020","010,1,N,0072,1","01350,1,C,N","011265,1,N,1","-0040,1","-0110,1","99999,9","02,5,+00930,1,99,9","07,5,+01350,1,99,9",,,"07,99,1,99,9,99,9,99999,9,99,9,99,9",,"10180,1,99999,9",,,,"0170,1","MET063METAR ENHK 140620Z 01014G33KT 9999 FEW031 BKN045 M04/M11 Q1018;",
"01044099999","2008-02-14T06:50:00","4","70.486675","22.139744","6.4","HASVIK, NO","FM-15","ENHK ","V020","340,1,N,0077,1","22000,1,9,N","011265,1,N,1","+9999,9","-0090,1","99999,9","04,5,+01500,5,99,9","04,1,+01500,1,99,9",,,"04,99,1,99,9,99,9,99999,9,99,9,99,9",,"10180,1,99999,9","38,1",,,"0175,1","MET083METAR ENHK 140650Z 34015G34KT 290V040 9999 -BLSN FEW30 SCT050 M04/M09 04/M09 Q1018;","Q01 +00403ATOT  "
"01044099999","2008-02-14T07:50:00","4","70.486675","22.139744","6.4","HASVIK, NO","FM-15","ENHK ","V020","999,9,V,0093,1","99999,9,C,N","011265,1,N,1","-0040,1","-0090,1","99999,9","02,5,+00900,1,99,9","04,5,+01350,1,99,9",,,"04,99,1,99,9,99,9,99999,9,99,9,99,9",,"10200,1,99999,9","16,1",,,"0170,1","MET068METAR ENHK 140750Z VRB18G33KT 9999 VCSH FEW030 SCT045 M04/M09 Q1020;","P01 013503SCOCIG"
"01044099999","2008-02-14T09:50:00","4","70.486675","22.139744","6.4","HASVIK, NO","FM-15","ENHK ","V020","340,1,N,0108,1","01380,1,C,N","011265,1,N,1","-0040,1","-0090,1","99999,9","02,5,+00870,1,99,9","07,5,+01380,1,99,9",,,"07,99,1,99,9,99,9,99999,9,99,9,99,9",,"10220,1,99999,9","16,1",,,"0180,1","MET068METAR ENHK 140950Z 34021G35KT 9999 VCSH FEW029 BKN046 M04/M09 Q1022;",
"01044099999","2008-02-14T11:20:00","4","70.486675","22.139744","6.4","HASVIK, NO","FM-15","ENHK ","V020","360,1,N,0051,1","00900,1,C,N","011265,1,N,1","-0040,1","-0080,1","99999,9","02,5,+00480,1,99,9","07,5,+00900,1,99,9",,,"07,99,1,99,9,99,9,99999,9,99,9,99,9",,"10240,1,99999,9","16,1",,,"0108,1","MET081METAR ENHK 141120Z 36010G21KT 260V170 9999 VCSH FEW016 BKN030 M04/M08 Q1024 RESN;",
"01044099999","2008-02-14T11:50:00","4","70.486675","22.139744","6.4","HASVIK, NO","FM-15","ENHK ","V020","350,1,N,0087,1","00930,1,C,N","011265,1,N,1","-0050,1","-0070,1","99999,9","02,5,+00450,1,99,9","07,5,+00930,1,99,9",,,"07,99,1,99,9,99,9,99999,9,99,9,99,9",,"10240,1,99999,9","16,1",,,"0144,1","MET068METAR ENHK 141150Z 35017G28KT 9999 VCSH FEW015 BKN031 M05/M07 Q1024;",
"01044099999","2008-02-14T12:20:00","4","70.486675","22.139744","6.4","HASVIK, NO","FM-15","ENHK ","V020","020,1,N,0051,1","00960,1,C,N","011265,1,N,1","-0050,1","-0060,1","99999,9","02,5,+00300,1,99,9","02,5,+00450,1,09,5","07,5,+00960,1,99,9",,"07,99,1,99,9,99,9,99999,9,99,9,99,9",,"10251,1,99999,9","16,1",,,"0113,1","MET093METAR ENHK 141220Z 02010G22KT 290V120 9999 VCSH FEW010 FEW015CB BKN032 M05/M06 Q1025 RESNGS/;",
"01044099999","2008-02-14T13:20:00","4","70.486675","22.139744","6.4","HASVIK, NO","FM-15","ENHK ","V020","999,9,9,9999,9","01350,5,9,N","011265,1,N,1","-0040,1","-0110,1","99999,9","02,5,+00750,5,99,9","02,5,+00750,5,02,5","04,5,+01350,5,99,9",,,,"10250,1,99999,9",,,,,"MET090METAR ENHK 141320Z 36013G23 310V090 9999 VCSH -BLSN FEW025 FEW025TCU SCT045 M04/M11 Q1025;",
"01044099999","2008-02-14T13:50:00","4","70.486675","22.139744","6.4","HASVIK, NO","FM-15","ENHK ","V020","340,1,N,0098,1","01470,1,C,N","011265,1,N,1","-0040,1","-0100,1","99999,9","02,5,+00750,1,99,9","02,5,+00900,1,02,5","07,5,+01470,1,99,9",,"07,99,1,99,9,99,9,99999,9,99,9,99,9",,"10261,1,99999,9","38,1","85,5",,"0159,1","MET093METAR ENHK 141350Z 34019G31KT 260V040 9999 -SHSN -BLSN FEW025 FEW030TCU BKN049 M04/M10 Q1026;",
"01044099999","2008-02-14T14:20:00","4","70.486675","22.139744","6.4","HASVIK, NO","FM-15","ENHK ","V020","340,1,N,0103,1","00180,1,9,N","000700,1,N,1","-0040,1","-0100,1","99999,9","09,1,+00180,1,99,9",,,,"09,99,1,99,9,99,9,00025,1,99,9,99,9",,"10261,1,99999,9","38,1","86,5",,"0175,1","MET073METAR ENHK 141420Z 34020G34KT 300V020 0700 SHSN BLSN VV006 M04/M10 Q1026;",
"01044099999","2008-02-14T14:50:00","4","70.486675","22.139744","6.4","HASVIK, NO","FM-15","ENHK ","V020","340,1,N,0072,1","00450,1,C,N","006000,1,N,1","-0050,1","-0060,1","99999,9","02,5,+00300,1,99,9","04,5,+00450,1,99,9","07,5,+00900,1,99,9",,"07,99,1,99,9,99,9,99999,9,99,9,99,9",,"10261,1,99999,9","38,1","85,5",,"0129,1","MET089METAR ENHK 141450Z 34014G25KT 310V010 6000 -SHSN BLSN FEW010 SCT015 BKN030 M05/M06 Q1026;",
"01044099999","2008-02-15T04:20:00","4","70.486675","22.139744","6.4","HASVIK, NO","FM-15","ENHK ","V020","999,9,V,0026,1","00960,1,C,N","011265,1,N,1","-0040,1","-0120,1","99999,9","02,5,+00570,1,99,9","07,5,+00960,1,99,9",,,"07,99,1,99,9,99,9,99999,9,99,9,99,9",,"10339,1,99999,9","16,1",,,"0057,1","MET068METAR ENHK 150420Z VRB05G11KT 9999 VCSH FEW019 BKN032 M04/M12 Q1034;",
"01044099999","2008-02-15T04:50:00","4","70.486675","22.139744","6.4","HASVIK, NO","FM-15","ENHK ","V020","999,9,V,0031,1","01020,1,C,N","009000,1,N,1","-0040,1","-0110,1","99999,9","02,5,+00630,1,99,9","07,5,+01020,1,99,9",,,"07,99,1,99,9,99,9,99999,9,99,9,99,9",,"10349,1,99999,9","85,5",,,,"MET065METAR ENHK 150450Z VRB06KT 9000-SHSN FEW021 BKN034 M04/M11 Q1035;",
"01044099999","2008-02-15T05:20:00","4","70.486675","22.139744","6.4","HASVIK, NO","FM-15","ENHK ","V020","999,9,V,0015,1","01080,1,C,N","011265,1,N,1","-0050,1","-0090,1","99999,9","02,5,+00750,1,99,9","07,5,+01080,1,99,9",,,"07,99,1,99,9,99,9,99999,9,99,9,99,9",,"10339,1,99999,9","16,1",,,,"MET070METAR ENHK 150520Z VRB03KT 9999 VCSH FEW025 BKN036 M05/M09 Q1034 RESN;",
"01044099999","2008-02-15T05:50:00","4","70.486675","22.139744","6.4","HASVIK, NO","FM-15","ENHK ","V020","030,1,N,0031,1","01440,1,C,N","011265,1,N,1","-0040,1","-0100,1","99999,9","04,5,+01080,1,99,9","07,5,+01440,1,99,9",,,"07,99,1,99,9,99,9,99999,9,99,9,99,9",,"10349,1,99999,9","16,1",,,,"MET073METAR ENHK 150550Z 03006KT 320V080 9999 VCSH SCT036 BKN048 M04/M10 Q1035;",
"01044099999","2008-02-15T06:20:00","4","70.486675","22.139744","6.4","HASVIK, NO","FM-15","ENHK ","V020","020,1,N,0026,1","01470,1,C,N","011265,1,N,1","-0040,1","-0090,1","99999,9","02,5,+01080,1,99,9","07,5,+01470,1,99,9",,,"07,99,1,99,9,99,9,99999,9,99,9,99,9",,"10349,1,99999,9","16,1",,,,"MET073METAR ENHK 150620Z 02005KT 290V070 9999 VCSH FEW036 BKN049 M04/M09 Q1035;",
"01044099999","2008-02-15T06:50:00","4","70.486675","22.139744","6.4","HASVIK, NO","FM-15","ENHK ","V020","999,9,V,0010,1","01470,1,C,N","011265,1,N,1","-0040,1","-0100,1","99999,9","02,5,+01050,1,99,9","07,5,+01470,1,99,9",,,"07,99,1,99,9,99,9,99999,9,99,9,99,9",,"10339,1,99999,9","16,1",,,,"MET065METAR ENHK 150650Z VRB02KT 9999 VCSH FEW035 BKN049 M04/M10 Q1034;",
"01044099999","2008-02-15T12:50:00","4","70.486675","22.139744","6.4","HASVIK, NO","FM-15","ENHK ","V020","240,1,N,0031,1","01320,1,C,N","011265,1,N,1","-0030,1","-0080,1","99999,9","02,5,+00900,1,99,9","07,5,+01320,1,99,9",,,"07,99,1,99,9,99,9,99999,9,99,9,99,9",,"10349,1,99999,9",,,,,"MET068METAR ENHK 151250Z 24006KT 180V270 9999 FEW030 BKN044 M03/M08 Q1035;",
"01044099999","2008-02-15T13:20:00","4","70.486675","22.139744","6.4","HASVIK, NO","FM-15","ENHK ","V020","230,1,N,0031,1","99999,9,C,N","011265,1,N,1","-0020,1","-0080,1","99999,9","02,5,+00900,1,99,9","04,5,+01380,1,99,9",,,"04,99,1,99,9,99,9,99999,9,99,9,99,9",,"10329,1,99999,9",,,,,"MET068METAR ENHK 151320Z 23006KT 170V260 9999 FEW030 SCT046 M02/M08 Q1033;","P01 013803SCOCIG"
"01044099999","2008-02-15T13:50:00","4","70.486675","22.139744","6.4","HASVIK, NO","FM-15","ENHK ","V020","220,1,N,0036,1","99999,9,C,N","011265,1,N,1","-0020,1","-0080,1","99999,9","02,5,+00870,1,99,9","04,5,+01380,1,99,9",,,"04,99,1,99,9,99,9,99999,9,99,9,99,9",,"10329,1,99999,9",,,,,"MET068METAR ENHK 151350Z 22007KT 150V240 9999 FEW029 SCT046 M02/M08 Q1033;","P01 013803SCOCIG"
"01044099999","2008-02-15T14:20:00","4","70.486675","22.139744","6.4","HASVIK, NO","FM-15","ENHK ","V020","240,1,N,0036,1","01410,1,C,N","011265,1,N,1","-0020,1","-0080,1","99999,9","02,5,+00840,1,99,9","07,5,+01410,1,99,9",,,"07,99,1,99,9,99,9,99999,9,99,9,99,9",,"10329,1,99999,9",,,,,"MET068METAR ENHK 151420Z 24007KT 180V270 9999 FEW028 BKN047 M02/M08 Q1033;",
"01044099999","2008-02-15T14:50:00","4","70.486675","22.139744","6.4","HASVIK, NO","FM-15","ENHK ","V020","180,1,N,0026,1","99999,9,C,N","011265,1,N,1","-0020,1","-0080,1","99999,9","02,5,+00870,1,99,9","04,5,+01440,1,99,9",,,"04,99,1,99,9,99,9,99999,9,99,9,99,9",,"10318,1,99999,9",,,,,"MET060METAR ENHK 151450Z 18005KT 9999 FEW029 SCT048 M02/M08 Q1032;","P01 014403SCOCIG"
"01044099999","2008-02-17T12:50:00","4","70.486675","22.139744","6.4","HASVIK, NO","FM-15","ENHK ","V020","300,1,N,0123,1","99999,9,C,N","011265,1,N,1","-0020,1","-0040,1","99999,9","02,5,+00450,1,99,9","04,5,+00840,1,02,5",,,"04,99,1,99,9,99,9,99999,9,99,9,99,9",,"09980,1,99999,9","16,1",,,"0180,1","MET071METAR ENHK 171250Z 30024G35KT 9999 VCSH FEW015 SCT028TCU M02/M04 Q0998;","P01 008403SCOCIG"
"01044099999","2008-02-17T13:20:00","4","70.486675","22.139744","6.4","HASVIK, NO","FM-15","ENHK ","V020","310,1,N,0154,1","99999,9,C,N","011265,1,N,1","-0010,1","-0050,1","99999,9","02,5,+00450,1,99,9","02,5,+00840,1,02,5","04,5,+00840,1,99,9",,"04,99,1,99,9,99,9,99999,9,99,9,99,9",,"09980,1,99999,9","16,1",,,,"MET075METAR ENHK 171320Z 31030KT 9999 VCSH FEW015 FEW028TCU SCT028 M01/M05 Q0998;","P01 008403SCOCIG"
"01044099999","2008-02-17T13:50:00","4","70.486675","22.139744","6.4","HASVIK, NO","FM-15","ENHK ","V020","310,1,N,0129,1","99999,9,C,N","011265,1,N,1","-0010,1","-0060,1","99999,9","02,5,+00480,1,99,9","02,5,+00840,1,09,5","04,5,+00840,1,99,9",,"04,99,1,99,9,99,9,99999,9,99,9,99,9",,"09980,1,99999,9","85,5",,,,"MET075METAR ENHK 171350Z 31025KT 9999 -SHSN FEW016 FEW028CB SCT028 M01/M06 Q0998;","P01 008403SCOCIG"
"01044099999","2008-02-17T14:20:00","4","70.486675","22.139744","6.4","HASVIK, NO","FM-15","ENHK ","V020","300,1,N,0149,1","22000,1,9,N","011265,1,N,1","+9999,9","+9999,9","99999,9","02,5,+00420,1,99,9","02,5,+00810,1,09,5","04,1,+00810,1,99,9",,"04,99,1,99,9,99,9,99999,9,99,9,99,9",,,"73,1","88,1",,,"MET068METAR ENHK 171420Z 30029KT 9999 3000E SHGSSN FEW014 FEW027CB SCT027;",
"01044099999","2008-02-17T14:50:00","4","70.486675","22.139744","6.4","HASVIK, NO","FM-15","ENHK ","V020","310,1,N,0123,1","99999,9,C,N","011265,1,N,1","-0010,1","-0040,1","99999,9","02,5,+00450,1,99,9","02,5,+00810,1,09,5","04,5,+00840,1,99,9",,"04,99,1,99,9,99,9,99999,9,99,9,99,9",,"09980,1,99999,9","16,1",,,,"MET074METAR ENHK 171450Z 31024KT 9999 VCSH FEW015 FEW027CB SCT028 M01/M04 Q0998;","P01 008403SCOCIG"
"01044099999","2008-02-18T04:20:00","4","70.486675","22.139744","6.4","HASVIK, NO","FM-15","ENHK ","V020","310,1,N,0082,1","99999,9,C,N","011265,1,N,1","-0030,1","-0060,1","99999,9","02,5,+00510,1,99,9","04,5,+00840,1,99,9",,,"04,99,1,99,9,99,9,99999,9,99,9,99,9",,"09949,1,99999,9","16,1",,,,"MET065METAR ENHK 180420Z 31016KT 9999 VCSH FEW017 SCT028 M03/M06 Q0995;","P01 008403SCOCIG"
"01044099999","2008-02-18T04:50:00","4","70.486675","22.139744","6.4","HASVIK, NO","FM-15","ENHK ","V020","320,1,N,0144,1","99999,9,C,N","009000,1,N,1","-0030,1","-0060,1","99999,9","02,5,+00480,1,99,9","04,5,+00870,1,99,9",,,"04,99,1,99,9,99,9,99999,9,99,9,99,9",,"09949,1,99999,9","38,1","85,5",,,"MET071METAR ENHK 180450Z 32028KT 9000 -SHSN BLSN FEW016 SCT029 M03/M06 Q0995;","P01 008703SCOCIG"
"01044099999","2008-02-18T05:20:00","4","70.486675","22.139744","6.4","HASVIK, NO","FM-15","ENHK ","V020","300,1,N,0113,1","01020,1,C,N","006000,1,N,1","-0030,1","-0060,1","99999,9","02,5,+00510,1,99,9","07,5,+01020,1,99,9",,,"07,99,1,99,9,99,9,99999,9,99,9,99,9",,"09949,1,99999,9","38,1","85,5",,,"MET071METAR ENHK 180520Z 30022KT 6000 -SHSN BLSN FEW017 BKN034 M03/M06 Q0995;",
"01044099999","2008-02-18T05:50:00","4","70.486675","22.139744","6.4","HASVIK, NO","FM-15","ENHK ","V020","320,1,N,0108,1","01050,1,C,N","011265,1,N,1","-0040,1","-0050,1","99999,9","02,5,+00510,1,99,9","07,5,+01050,1,99,9",,,"07,99,1,99,9,99,9,99999,9,99,9,99,9",,"09949,1,99999,9","38,1","71,1",,"0165,1","MET077METAR ENHK 180550Z 32021G32KT 9999 3000E -SNBLSN FEW017 BKN035 M04/M05 Q0995;",
"01044099999","2008-02-18T06:20:00","4","70.486675","22.139744","6.4","HASVIK, NO","FM-15","ENHK ","V020","310,1,N,0139,1","01080,1,C,N","011265,1,N,1","-0030,1","-0040,1","99999,9","02,5,+00570,1,99,9","07,5,+01080,1,99,9",,,"07,99,1,99,9,99,9,99999,9,99,9,99,9",,"09949,1,99999,9","38,1","85,5",,"0216,1","MET074METAR ENHK 180620Z 31027G42KT 9999 -SHSN BLSN FEW019 BKN036 M03/M04 Q0995;",
"01044099999","2008-02-18T11:50:00","4","70.486675","22.139744","6.4","HASVIK, NO","FM-15","ENHK ","V020","300,1,N,0144,1","01260,1,C,N","003000,1,N,1","+0000,1","-0030,1","99999,9","04,5,+00510,1,99,9","07,5,+01260,1,99,9",,,"07,99,1,99,9,99,9,99999,9,99,9,99,9",,"09970,1,99999,9","86,5",,,,"MET064METAR ENHK 181150Z 30028KT 3000 SHSN SCT017 BKN042 00/M03 Q0997;",
"01044099999","2008-02-18T12:50:00","4","70.486675","22.139744","6.4","HASVIK, NO","FM-15","ENHK ","V020","330,1,N,0062,1","00900,1,C,N","011265,1,N,1","-0010,1","-0020,1","99999,9","02,5,+00420,1,99,9","07,5,+00900,1,99,9",,,"07,99,1,99,9,99,9,99999,9,99,9,99,9",,"09980,1,99999,9","16,1",,,,"MET065METAR ENHK 181250Z 33012KT 9999 VCSH FEW014 BKN030 M01/M02 Q0998;",
"01044099999","2008-02-18T13:20:00","4","70.486675","22.139744","6.4","HASVIK, NO","FM-15","ENHK ","V020","340,1,N,0057,1","99999,9,C,N","011265,1,N,1","+0000,1","-0040,1","99999,9","02,5,+00450,1,99,9","04,5,+00900,1,99,9",,,"04,99,1,99,9,99,9,99999,9,99,9,99,9",,"09980,1,99999,9",,,,,"MET059METAR ENHK 181320Z 34011KT 9999 FEW015 SCT030 00/M04 Q0998;","P01 009003SCOCIG"
"01044099999","2008-02-18T13:50:00","4","70.486675","22.139744","6.4","HASVIK, NO","FM-15","ENHK ","V020","340,1,N,0067,1","99999,9,C,N","011265,1,N,1","+0010,1","-0080,1","99999,9","02,5,+00450,1,99,9","04,5,+00900,1,99,9",,,"04,99,1,99,9,99,9,99999,9,99,9,99,9",,"09990,1,99999,9","16,1",,,,"MET072METAR ENHK 181350Z 34013KT 310V020 9999 VCSH FEW015 SCT030 01/M08 Q0999;","P01 009003SCOCIG"
"01044099999","2008-02-18T14:20:00","4","70.486675","22.139744","6.4","HASVIK, NO","FM-15","ENHK ","V020","340,1,N,0067,1","00900,1,C,N","011265,1,N,1","+0010,1","-0060,1","99999,9","02,5,+00450,1,99,9","07,5,+00900,1,99,9",,,"07,99,1,99,9,99,9,99999,9,99,9,99,9",,"10000,1,99999,9","16,1",,,,"MET072METAR ENHK 181420Z 34013KT 310V030 9999 VCSH FEW015 BKN030 01/M06 Q1000;",
"01044099999","2008-02-18T14:50:00","4","70.486675","22.139744","6.4","HASVIK, NO","FM-15","ENHK ","V020","340,1,N,0072,1","01500,1,9,N","000700,1,N,1","-0020,1","-0030,1","99999,9","09,1,+01500,1,99,9",,,,"09,99,1,99,9,99,9,00025,1,99,9,99,9",,"10000,1,99999,9","86,5",,,,"MET066METAR ENHK 181450Z 34014KT 310V060 0700 SHSN VV0500 M02/M03 Q1000;",
"01044099999","2008-02-18T15:20:00","4","70.486675","22.139744","6.4","HASVIK, NO","FM-15","ENHK ","V020","320,1,N,0051,1","00900,1,C,N","011265,1,N,1","+0000,1","-0030,1","99999,9","02,5,+00450,1,99,9","04,5,+00900,1,99,9","07,5,+01380,1,99,9",,"07,99,1,99,9,99,9,99999,9,99,9,99,9",,"10000,1,99999,9","16,1",,,,"MET085METAR ENHK 181520Z 32010KT 300V020 9999 VCSH FEW015 SCT030 BKN046 M00/M03 Q1000 RESN;",
"01044099999","2008-02-18T15:50:00","4","70.486675","22.139744","6.4","HASVIK, NO","FM-15","ENHK ","V020","340,1,N,0062,1","01500,1,C,N","011265,1,N,1","+0000,1","-0060,1","99999,9","02,5,+00600,1,99,9","07,5,+01500,1,99,9",,,"07,99,1,99,9,99,9,99999,9,99,9,99,9",,"10010,1,99999,9",,,,,"MET068METAR ENHK 181550Z 34012KT 310V010 9999 FEW020 BKN050 M00/M06 Q1001;",
"01044099999","2008-02-19T04:20:00","4","70.486675","22.139744","6.4","HASVIK, NO","FM-15","ENHK ","V020","340,1,N,0067,1","00750,1,C,N","011265,1,N,1","-0030,1","-0060,1","99999,9","02,5,+00480,1,99,9","04,5,+00750,1,99,9","07,5,+01020,1,99,9",,"07,99,1,99,9,99,9,99999,9,99,9,99,9",,"10051,1,99999,9","16,1",,,,"MET072METAR ENHK 190420Z 34013KT 9999 VCSH FEW016 SCT025 BKN034 M03/M06 Q1005;",
"01044099999","2008-02-19T04:50:00","4","70.486675","22.139744","6.4","HASVIK, NO","FM-15","ENHK ","V020","340,1,N,0041,1","00990,1,C,N","011265,1,N,1","-0030,1","-0050,1","99999,9","04,5,+00720,1,99,9","07,5,+00990,1,99,9",,,"07,99,1,99,9,99,9,99999,9,99,9,99,9",,"10041,1,99999,9",,,,,"MET068METAR ENHK 190450Z 34008KT 300V030 9999 SCT024 BKN033 M03/M05 Q1004;",
"01044099999","2008-02-19T05:20:00","4","70.486675","22.139744","6.4","HASVIK, NO","FM-15","ENHK ","V020","330,1,N,0082,1","00300,1,9,N","005000,1,N,1","-0030,1","-0050,1","99999,9","09,1,+00300,1,99,9",,,,"09,99,1,99,9,99,9,00025,1,99,9,99,9",,"10051,1,99999,9","85,5",,,,"MET058METAR ENHK 190520Z 33016KT 5000 -SHSN VV010 M03/M05 Q1005;",
"01044099999","2008-02-19T05:50:00","4","70.486675","22.139744","6.4","HASVIK, NO","FM-15","ENHK ","V020","340,1,N,0041,1","00780,1,C,N","011265,1,N,1","-0030,1","-0040,1","99999,9","02,5,+00570,1,99,9","04,5,+00780,1,99,9","07,5,+00990,1,99,9",,"07,99,1,99,9,99,9,99999,9,99,9,99,9",,"10041,1,99999,9","16,1",,,,"MET072METAR ENHK 190550Z 34008KT 9999 VCSH FEW019 SCT026 BKN033 M03/M04 Q1004;",
"01044099999","2008-02-19T06:20:00","4","70.486675","22.139744","6.4","HASVIK, NO","FM-15","ENHK ","V020","340,1,N,0077,1","01020,1,C,N","011265,1,N,1","-0040,1","-0050,1","99999,9","02,5,+00600,1,99,9","07,5,+01020,1,99,9",,,"07,99,1,99,9,99,9,99999,9,99,9,99,9",,"10051,1,99999,9","16,1",,,,"MET065METAR ENHK 190620Z 34015KT 9999 VCSH FEW020 BKN034 M04/M05 Q1005;",
"01044099999","2008-02-19T06:50:00","4","70.486675","22.139744","6.4","HASVIK, NO","FM-15","ENHK ","V020","310,1,N,0113,1","99999,9,C,N","011265,1,N,1","-0020,1","-0070,1","99999,9","02,5,+00570,1,99,9","04,5,+01050,1,99,9",,,"04,99,1,99,9,99,9,99999,9,99,9,99,9",,"10041,1,99999,9","16,1",,,,"MET065METAR ENHK 190650Z 31022KT 9999 VCSH FEW019 SCT035 M02/M07 Q1004;","P01 010503SCOCIG"
"01044099999","2008-02-19T12:20:00","4","70.486675","22.139744","6.4","HASVIK, NO","FM-15","ENHK ","V020","330,1,N,0067,1","01050,1,C,N","011265,1,N,1","-0020,1","-0050,1","99999,9","02,5,+00450,1,99,9","04,5,+01050,1,99,9","07,5,+02100,1,99,9",,"07,99,1,99,9,99,9,99999,9,99,9,99,9",,"10041,1,99999,9","16,1",,,,"MET077METAR ENHK 191220Z 33013KT 9999 VCSH FEW015 SCT035 BKN070 M02/M05 Q1004 RESN;",
"01044099999","2008-02-19T12:50:00","4","70.486675","22.139744","6.4","HASVIK, NO","FM-15","ENHK ","V020","340,1,N,0062,1","00900,1,C,N","011265,1,N,1","-0020,1","-0060,1","99999,9","02,5,+00450,1,99,9","04,5,+00900,1,99,9","07,5,+02100,1,99,9",,"07,99,1,99,9,99,9,99999,9,99,9,99,9",,"10051,1,99999,9","16,1",,,,"MET080METAR ENHK 191250Z 34012KT 320V030 9999 VCSH FEW015 SCT030 BKN070 M02/M06 Q1005;",
"01044099999","2008-02-19T13:20:00","4","70.486675","22.139744","6.4","HASVIK, NO","FM-15","ENHK ","V020","330,1,N,0103,1","00450,1,9,N","001500,1,N,1","-0020,1","-0050,1","99999,9","09,1,+00450,1,99,9",,,,"09,99,1,99,9,99,9,00025,1,99,9,99,9",,"10051,1,99999,9","86,5",,,"0175,1","MET068METAR ENHK 191320Z 33020G34KT 310V010 1500 SHSN VV015 M02/M05 Q1005;",
"01044099999","2008-02-19T13:50:00","4","70.486675","22.139744","6.4","HASVIK, NO","FM-15","ENHK ","V020","360,1,N,0036,1","99999,9,C,N","011265,1,N,1","-0040,1","-0050,1","99999,9","02,5,+00450,1,99,9","04,5,+00900,1,99,9",,,"04,99,1,99,9,99,9,99999,9,99,9,99,9",,"10051,1,99999,9","16,1",,,,"MET073METAR ENHK 191350Z 36007KT 330V040 9999 VCSH FEW015 SCT030 M04/M05 Q1005;","P01 009003SCOCIG"
"01044099999","2008-02-19T14:20:00","4","70.486675","22.139744","6.4","HASVIK, NO","FM-15","ENHK ","V020","340,1,N,0051,1","00300,1,9,N","002500,1,N,1","-0020,1","-0060,1","99999,9","09,1,+00300,1,99,9",,,,"09,99,1,99,9,99,9,00025,1,99,9,99,9",,"10041,1,99999,9","86,5",,,"0113,1","MET068METAR ENHK 191420Z 34010G22KT 310V030 2500 SHSN VV010 M02/M06 Q1004;",
"01044099999","2008-02-19T15:20:00","4","70.486675","22.139744","6.4","HASVIK, NO","FM-15","ENHK ","V020","340,1,N,0067,1","99999,9,C,N","011265,1,N,1","-0020,1","-0060,1","99999,9","02,5,+00450,1,99,9","04,5,+01200,1,99,9",,,"04,99,1,99,9,99,9,99999,9,99,9,99,9",,"10041,1,99999,9",,,,,"MET068METAR ENHK 191520Z 34013KT 310V020 9999 FEW015 SCT040 M02/M06 Q1004;","P01 012003SCOCIG"
"01044099999","2008-02-20T04:20:00","4","70.486675","22.139744","6.4","HASVIK, NO","FM-15","ENHK ","V020","120,1,N,0015,1","99999,9,C,N","011265,1,N,1","-0060,1","-0070,1","99999,9","02,5,+00570,1,99,9","04,5,+01020,1,99,9",,,"04,99,1,99,9,99,9,99999,9,99,9,99,9",,"10051,1,99999,9",,,,,"MET060METAR ENHK 200420Z 12003KT 9999 FEW019 SCT034 M06/M07 Q1005;","P01 010203SCOCIG"
"01044099999","2008-02-20T04:50:00","4","70.486675","22.139744","6.4","HASVIK, NO","FM-15","ENHK ","V020","999,9,V,0015,1","99999,9,C,N","011265,1,N,1","-0040,1","-0060,1","99999,9","02,5,+00570,1,99,9","04,5,+00900,1,99,9",,,"04,99,1,99,9,99,9,99999,9,99,9,99,9",,"10051,1,99999,9",,,,,"MET060METAR ENHK 200450Z VRB03KT 9999 FEW019 SCT030 M04/M06 Q1005;","P01 009003SCOCIG"
"01044099999","2008-02-20T05:20:00","4","70.486675","22.139744","6.4","HASVIK, NO","FM-15","ENHK ","V020","080,1,N,0026,1","99999,9,C,N","011265,1,N,1","-0030,1","-0050,1","99999,9","02,5,+00570,1,99,9","04,5,+00930,1,99,9",,,"04,99,1,99,9,99,9,99999,9,99,9,99,9",,"10051,1,99999,9","85,5",,,,"MET066METAR ENHK 200520Z 08005KT 9999 -SHSN FEW019 SCT031 M03/M05 Q1005;","P01 009303SCOCIG"
"01044099999","2008-02-20T05:50:00","4","70.486675","22.139744","6.4","HASVIK, NO","FM-15","ENHK ","V020","080,1,N,0015,1","99999,9,C,N","011265,1,N,1","-0030,1","-0050,1","99999,9","02,5,+00390,1,99,9","04,5,+00960,1,99,9",,,"04,99,1,99,9,99,9,99999,9,99,9,99,9",,"10051,1,99999,9","16,1",,,,"MET065METAR ENHK 200550Z 08003KT 9999 VCSH FEW013 SCT032 M03/M05 Q1005;","P01 009603SCOCIG"
"01044099999","2008-02-20T06:20:00","4","70.486675","22.139744","6.4","HASVIK, NO","FM-15","ENHK ","V020","999,9,V,0010,1","99999,9,C,N","011265,1,N,1","-0040,1","-0060,1","99999,9","02,5,+00390,1,99,9","04,5,+00990,1,99,9",,,"04,99,1,99,9,99,9,99999,9,99,9,99,9",,"10051,1,99999,9","16,1",,,,"MET065METAR ENHK 200620Z VRB02KT 9999 VCSH FEW013 SCT033 M04/M06 Q1005;","P01 009903SCOCIG"
"01044099999","2008-02-20T09:50:00","4","70.486675","22.139744","6.4","HASVIK, NO","FM-15","ENHK ","V020","180,1,N,0031,1","01080,1,C,N","011265,1,N,1","-0030,1","-0040,1","99999,9","02,5,+00510,1,99,9","07,5,+01080,1,99,9",,,"07,99,1,99,9,99,9,99999,9,99,9,99,9",,"10041,1,99999,9",,,,,"MET060METAR ENHK 200950Z 18006KT 9999 FEW017 BKN036 M03/M04 Q1004;",
"01044099999","2008-02-20T10:20:00","4","70.486675","22.139744","6.4","HASVIK, NO","FM-15","ENHK ","V020","180,1,N,0031,1","01020,1,C,N","011265,1,N,1","-0020,1","-0050,1","99999,9","02,5,+00480,1,99,9","07,5,+01020,1,99,9",,,"07,99,1,99,9,99,9,99999,9,99,9,99,9",,"10041,1,99999,9",,,,,"MET060METAR ENHK 201020Z 18006KT 9999 FEW016 BKN034 M02/M05 Q1004;",
"01044099999","2008-02-20T11:20:00","4","70.486675","22.139744","6.4","HASVIK, NO","FM-15","ENHK ","V020","230,1,N,0051,1","00960,1,C,N","011265,1,N,1","-0010,1","-0060,1","99999,9","02,5,+00750,1,99,9","07,5,+00960,1,99,9",,,"07,99,1,99,9,99,9,99999,9,99,9,99,9",,"10031,1,99999,9",,,,,"MET068METAR ENHK 201120Z 23010KT 200V260 9999 FEW025 BKN032 M01/M06 Q1003;",
"01044099999","2008-02-20T11:50:00","4","70.486675","22.139744","6.4","HASVIK, NO","FM-15","ENHK ","V020","230,1,N,0057,1","01020,1,C,N","011265,1,N,1","-0010,1","-0060,1","99999,9","07,5,+01020,1,99,9",,,,"07,99,1,99,9,99,9,99999,9,99,9,99,9",,"10031,1,99999,9",,,,,"MET053METAR ENHK 201150Z 23011KT 9999 BKN034 M01/M06 Q1003;",
"01044099999","2008-02-20T12:50:00","4","70.486675","22.139744","6.4","HASVIK, NO","FM-15","ENHK ","V020","230,1,N,0057,1","01260,1,C,N","011265,1,N,1","-0010,1","-0070,1","99999,9","02,5,+00750,1,99,9","07,5,+01260,1,99,9",,,"07,99,1,99,9,99,9,99999,9,99,9,99,9",,"10020,1,99999,9",,,,,"MET060METAR ENHK 201250Z 23011KT 9999 FEW025 BKN042 M01/M07 Q1002;",
"01044099999","2008-02-20T13:50:00","4","70.486675","22.139744","6.4","HASVIK, NO","FM-15","ENHK ","V020","220,1,N,0036,1","02190,5,C,N","011265,1,N,1","-0010,1","-0070,1","99999,9","04,5,+01740,5,99,9","07,5,+02190,5,99,9",,,"07,99,1,99,9,99,9,99999,9,99,9,99,9",,"10020,1,99999,9",,,,,"MET068METAR ENHK 201350Z 22007KT 180V250 9999 SCT058 BKN073 M01/M07 Q1002;",
"01044099999","2008-02-20T14:20:00","4","70.486675","22.139744","6.4","HASVIK, NO","FM-15","ENHK ","V020","180,1,N,0041,1","00600,1,9,N","011265,1,N,1","-0010,1","-0070,1","99999,9","09,1,+00600,1,99,9",,,,"09,99,1,99,9,99,9,00025,1,99,9,99,9",,"10020,1,99999,9","85,5",,,,"MET066METAR ENHK 201420Z 18008KT 150V240 9999 -SHSN VV020 M01/M07 Q1002;",
"01044099999","2008-02-20T14:50:00","4","70.486675","22.139744","6.4","HASVIK, NO","FM-15","ENHK ","V020","170,1,N,0026,1","00750,1,9,N","011265,1,N,1","-0020,1","-0050,1","99999,9","09,1,+00750,1,99,9",,,,"09,99,1,99,9,99,9,00025,1,99,9,99,9",,"10020,1,99999,9","85,5",,,,"MET066METAR ENHK 201450Z 17005KT 130V190 9999 -SHSN VV025 M02/M05 Q1002;",
"01044099999","2008-02-20T15:20:00","4","70.486675","22.139744","6.4","HASVIK, NO","FM-15","ENHK ","V020","160,1,N,0021,1","00600,1,9,N","008000,1,N,1","-0020,1","-0050,1","99999,9","09,1,+00600,1,99,9",,,,"09,99,1,99,9,99,9,00025,1,99,9,99,9",,"10010,1,99999,9","71,1",,,,"MET064METAR ENHK 201520Z 16004KT 130V220 8000 -SN VV020 M02/M05 Q1001;",
"01044099999","2008-02-21T04:20:00","4","70.486675","22.139744","6.4","HASVIK, NO","FM-15","ENHK ","V020","130,1,N,0036,1","01080,1,C,N","011265,1,N,1","+0020,1","+0000,1","99999,9","02,5,+00750,1,99,9","07,5,+01080,1,99,9",,,"07,99,1,99,9,99,9,99999,9,99,9,99,9",,"09929,1,99999,9",,,,,"MET058METAR ENHK 210420Z 13007KT 9999 FEW025 BKN036 02/00 Q0993;",
"01044099999","2008-02-21T04:50:00","4","70.486675","22.139744","6.4","HASVIK, NO","FM-15","ENHK ","V020","080,1,N,0036,1","01080,1,C,N","011265,1,N,1","+0020,1","+0000,1","99999,9","02,5,+00720,1,99,9","07,5,+01080,1,99,9",,,"07,99,1,99,9,99,9,99999,9,99,9,99,9",,"09929,1,99999,9",,,,,"MET058METAR ENHK 210450Z 08007KT 9999 FEW024 BKN036 02/00 Q0993;",
"01044099999","2008-02-21T05:20:00","4","70.486675","22.139744","6.4","HASVIK, NO","FM-15","ENHK ","V020","090,1,N,0036,1","01050,1,C,N","011265,1,N,1","+0020,1","+0000,1","99999,9","02,5,+00780,1,99,9","07,5,+01050,1,99,9",,,"07,99,1,99,9,99,9,99999,9,99,9,99,9",,"09929,1,99999,9",,,,,"MET058METAR ENHK 210520Z 09007KT 9999 FEW026 BKN035 02/00 Q0993;",
"01044099999","2008-02-21T05:50:00","4","70.486675","22.139744","6.4","HASVIK, NO","FM-15","ENHK ","V020","120,1,N,0031,1","01140,1,C,N","011265,1,N,1","+0030,1","+0000,1","99999,9","02,5,+00870,1,99,9","07,5,+01140,1,99,9",,,"07,99,1,99,9,99,9,99999,9,99,9,99,9",,"09919,1,99999,9",,,,,"MET058METAR ENHK 210550Z 12006KT 9999 FEW029 BKN038 03/00 Q0992;",
"01044099999","2008-02-21T06:20:00","4","70.486675","22.139744","6.4","HASVIK, NO","FM-15","ENHK ","V020","110,1,N,0051,1","01200,1,C,N","011265,1,N,1","+0030,1","+0000,1","99999,9","07,5,+01200,1,99,9",,,,"07,99,1,99,9,99,9,99999,9,99,9,99,9",,"09919,1,99999,9",,,,,"MET051METAR ENHK 210620Z 11010KT 9999 BKN040 03/00 Q0992;",
"01044099999","2008-02-21T06:50:00","4","70.486675","22.139744","6.4","HASVIK, NO","FM-15","ENHK ","V020","110,1,N,0051,1","22000,1,9,N","011265,1,N,1","+0030,1","+0000,1","99999,9","02,5,+01320,1,99,9",,,,"02,99,1,99,9,99,9,99999,9,99,9,99,9",,"09909,1,99999,9",,,,,"MET052METAR ENHK 210650Z 11010KT 9999 FEW044 03/M00 Q0991;",
"01044099999","2008-02-21T07:20:00","4","70.486675","22.139744","6.4","HASVIK, NO","FM-15","ENHK ","V020","100,1,N,0036,1","99999,9,C,Y","009900,1,N,1","+0030,1","+0000,1","99999,9",,,,,,,"09909,1,99999,9",,,,,"MET046METAR ENHK 210720Z 10007KT CAVOK 03/M00 Q0991;",
"01044099999","2008-02-21T08:50:00","4","70.486675","22.139744","6.4","HASVIK, NO","FM-15","ENHK ","V020","100,1,N,0057,1","99999,9,C,Y","009900,1,N,1","+0030,1","-0010,1","99999,9",,,,,,,"09892,1,99999,9",,,,,"MET046METAR ENHK 210850Z 10011KT CAVOK 03/M01 Q0989;",
"01044099999","2008-02-21T09:20:00","4","70.486675","22.139744","6.4","HASVIK, NO","FM-15","ENHK ","V020","100,1,N,0077,1","99999,9,C,Y","009900,1,N,1","+0040,1","-0010,1","99999,9",,,,,,,"09882,1,99999,9",,,,,"MET046METAR ENHK 210920Z 10015KT CAVOK 04/M01 Q0988;",
"01044099999","2008-02-21T10:20:00","4","70.486675","22.139744","6.4","HASVIK, NO","FM-15","ENHK ","V020","100,1,N,0072,1","99999,9,C,Y","009900,1,N,1","+0030,1","-0010,1","99999,9",,,,,,,"09882,1,99999,9",,,,,"MET046METAR ENHK 211020Z 10014KT CAVOK 03/M01 Q0988;",
"01044099999","2008-02-21T10:50:00","4","70.486675","22.139744","6.4","HASVIK, NO","FM-15","ENHK ","V020","100,1,N,0072,1","99999,9,C,Y","009900,1,N,1","+0030,1","-0010,1","99999,9",,,,,,,"09871,1,99999,9",,,,,"MET046METAR ENHK 211050Z 10014KT CAVOK 03/M01 Q0987;",
"01044099999","2008-02-21T11:50:00","4","70.486675","22.139744","6.4","HASVIK, NO","FM-15","ENHK ","V020","130,1,N,0072,1","99999,9,C,Y","009900,1,N,1","+0040,1","-0010,1","99999,9",,,,,,,"09861,1,99999,9",,,,,"MET046METAR ENHK 211150Z 13014KT CAVOK 04/M01 Q0986;",
"01044099999","2008-02-21T12:50:00","4","70.486675","22.139744","6.4","HASVIK, NO","FM-15","ENHK ","V020","140,1,N,0072,1","02400,1,C,N","011265,1,N,1","+0050,1","-0020,1","99999,9","04,5,+01800,1,99,9","07,5,+02400,1,99,9",,,"07,99,1,99,9,99,9,99999,9,99,9,99,9",,"09841,1,99999,9",,,,,"MET059METAR ENHK 211250Z 14014KT 9999 SCT060 BKN080 05/M02 Q0984;",
"01044099999","2008-02-21T13:20:00","4","70.486675","22.139744","6.4","HASVIK, NO","FM-15","ENHK ","V020","110,1,N,0072,1","99999,9,C,N","011265,1,N,1","+0030,1","-0020,1","99999,9","02,5,+00930,1,99,9","04,5,+02100,1,99,9",,,"04,99,1,99,9,99,9,99999,9,99,9,99,9",,"09841,1,99999,9",,,,,"MET059METAR ENHK 211320Z 11014KT 9999 FEW031 SCT070 03/M02 Q0984;","P01 021003SCOCIG"
"01044099999","2008-02-21T13:50:00","4","70.486675","22.139744","6.4","HASVIK, NO","FM-15","ENHK ","V020","120,1,N,0093,1","99999,9,C,Y","009900,1,N,1","+0050,1","-0020,1","99999,9",,,,,,,"09831,1,99999,9",,,,,"MET046METAR ENHK 211350Z 12018KT CAVOK 05/M02 Q0983;",
"01044099999","2008-02-21T14:50:00","4","70.486675","22.139744","6.4","HASVIK, NO","FM-15","ENHK ","V020","110,1,N,0103,1","99999,9,C,Y","009900,1,N,1","+0030,1","-0020,1","99999,9",,,,,,,"09821,1,99999,9",,,,,"MET046METAR ENHK 211450Z 11020KT CAVOK 03/M02 Q0982;",
"01044099999","2008-02-22T04:20:00","4","70.486675","22.139744","6.4","HASVIK, NO","FM-15","ENHK ","V020","140,1,N,0113,1","22000,1,9,N","011265,1,N,1","+0020,1","-0040,1","99999,9","02,5,+00900,1,99,9",,,,"02,99,1,99,9,99,9,99999,9,99,9,99,9",,"09661,1,99999,9",,,,,"MET052METAR ENHK 220420Z 14022KT 9999 FEW030 02/M04 Q0966;",
"01044099999","2008-02-22T04:50:00","4","70.486675","22.139744","6.4","HASVIK, NO","FM-15","ENHK ","V020","140,1,N,0118,1","22000,1,9,N","011265,1,N,1","+0020,1","-0030,1","99999,9","02,5,+00900,1,99,9",,,,"02,99,1,99,9,99,9,99999,9,99,9,99,9",,"09661,1,99999,9",,,,"0170,1","MET055METAR ENHK 220450Z 14023G33KT 9999 FEW030 02/M03 Q0966;",
"01044099999","2008-02-22T05:20:00","4","70.486675","22.139744","6.4","HASVIK, NO","FM-15","ENHK ","V020","140,1,N,0159,1","22000,1,9,N","011265,1,N,1","+0020,1","-0030,1","99999,9","02,5,+00900,1,99,9",,,,"02,99,1,99,9,99,9,99999,9,99,9,99,9",,"09651,1,99999,9",,,,"0211,1","MET055METAR ENHK 220520Z 14031G41KT 9999 FEW030 02/M03 Q0965;",
"01044099999","2008-02-22T05:50:00","4","70.486675","22.139744","6.4","HASVIK, NO","FM-15","ENHK ","V020","140,1,N,0149,1","22000,1,9,N","011265,1,N,1","+0020,1","-0030,1","99999,9","02,5,+00840,1,99,9",,,,"02,99,1,99,9,99,9,99999,9,99,9,99,9",,"09651,1,99999,9",,,,"0201,1","MET055METAR ENHK 220550Z 14029G39KT 9999 FEW028 02/M03 Q0965;",
"01044099999","2008-02-22T07:50:00","4","70.486675","22.139744","6.4","HASVIK, NO","FM-15","ENHK ","V020","140,1,N,0134,1","99999,9,C,N","011265,1,N,1","+0020,1","-0030,1","99999,9","02,5,+00750,1,99,9","04,5,+01200,1,99,9",,,"04,99,1,99,9,99,9,99999,9,99,9,99,9",,"09651,1,99999,9",,,,,"MET059METAR ENHK 220750Z 14026KT 9999 FEW025 SCT040 02/M03 Q0965;","P01 012003SCOCIG"
"01044099999","2008-02-22T08:20:00","4","70.486675","22.139744","6.4","HASVIK, NO","FM-15","ENHK ","V020","140,1,N,0134,1","02250,5,C,N","011265,1,N,1","+0020,1","-0030,1","99999,9","04,5,+00960,1,99,9","07,5,+02250,5,99,9",,,"07,99,1,99,9,99,9,99999,9,99,9,99,9",,"09651,1,99999,9",,,,,"MET059METAR ENHK 220820Z 14026KT 9999 SCT032 BKN075 02/M03 Q0965;",
"01044099999","2008-02-22T08:50:00","4","70.486675","22.139744","6.4","HASVIK, NO","FM-15","ENHK ","V020","140,1,N,0129,1","01050,1,C,N","011265,1,N,1","+0020,1","-0030,1","99999,9","07,5,+01050,1,99,9","07,5,+02340,5,99,9",,,"07,99,1,99,9,99,9,99999,9,99,9,99,9",,"09661,1,99999,9",,,,,"MET059METAR ENHK 220850Z 14025KT 9999 BKN035 BKN078 02/M03 Q0966;",
"01044099999","2008-02-22T09:50:00","4","70.486675","22.139744","6.4","HASVIK, NO","FM-15","ENHK ","V020","140,1,N,0113,1","00840,1,C,N","011265,1,N,1","+0020,1","-0020,1","99999,9","07,5,+00840,1,99,9",,,,"07,99,1,99,9,99,9,99999,9,99,9,99,9",,"09661,1,99999,9",,,,,"MET052METAR ENHK 220950Z 14022KT 9999 BKN028 02/M02 Q0966;",
"01044099999","2008-02-22T10:20:00","4","70.486675","22.139744","6.4","HASVIK, NO","FM-15","ENHK ","V020","140,1,N,0103,1","00900,1,C,N","011265,1,N,1","+0020,1","-0020,1","99999,9","07,5,+00900,1,99,9",,,,"07,99,1,99,9,99,9,99999,9,99,9,99,9",,"09672,1,99999,9",,,,,"MET052METAR ENHK 221020Z 14020KT 9999 BKN030 02/M02 Q0967;",
"01044099999","2008-02-22T10:50:00","4","70.486675","22.139744","6.4","HASVIK, NO","FM-15","ENHK ","V020","140,1,N,0103,1","02250,5,C,N","011265,1,N,1","+0020,1","-0020,1","99999,9","04,5,+01050,1,99,9","07,5,+02250,5,99,9",,,"07,99,1,99,9,99,9,99999,9,99,9,99,9",,"09672,1,99999,9",,,,,"MET059METAR ENHK 221050Z 14020KT 9999 SCT035 BKN075 02/M02 Q0967;",
"01044099999","2008-02-22T11:50:00","4","70.486675","22.139744","6.4","HASVIK, NO","FM-15","ENHK ","V020","140,1,N,0093,1","01380,1,C,N","011265,1,N,1","+0020,1","-0020,1","99999,9","02,5,+00900,1,99,9","07,5,+01380,1,99,9",,,"07,99,1,99,9,99,9,99999,9,99,9,99,9",,"09672,1,99999,9",,,,,"MET059METAR ENHK 221150Z 14018KT 9999 FEW030 BKN046 02/M02 Q0967;",
"01044099999","2008-02-22T13:20:00","4","70.486675","22.139744","6.4","HASVIK, NO","FM-15","ENHK ","V020","130,1,N,0072,1","00960,1,C,N","011265,1,N,1","+0020,1","-0020,1","99999,9","02,5,+00600,1,99,9","04,5,+00960,1,99,9","07,5,+01500,1,99,9",,"07,99,1,99,9,99,9,99999,9,99,9,99,9",,"09682,1,99999,9","16,1",,,,"MET071METAR ENHK 221320Z 13014KT 9999 VCSH FEW020 SCT032 BKN050 02/M02 Q0968;",
"01044099999","2008-02-22T13:50:00","4","70.486675","22.139744","6.4","HASVIK, NO","FM-15","ENHK ","V020","130,1,N,0087,1","01500,1,C,N","011265,1,N,1","+0010,1","-0030,1","99999,9","02,5,+00600,1,99,9","07,5,+01500,1,99,9",,,"07,99,1,99,9,99,9,99999,9,99,9,99,9",,"99999,9,99999,9","16,1",,,,"MET064METAR ENHK 221350Z 13017KT 9999 VCSH FEW020 BKN050 01/M03 Q0986;","Q01+098613APOA  Q02 098603APOA  "
"01044099999","2008-02-22T14:20:00","4","70.486675","22.139744","6.4","HASVIK, NO","FM-15","ENHK ","V020","130,1,N,0093,1","00960,1,C,N","011265,1,N,1","+0010,1","-0030,1","99999,9","02,5,+00660,1,99,9","04,5,+00960,1,99,9","07,5,+01500,1,99,9",,"07,99,1,99,9,99,9,99999,9,99,9,99,9",,"09688,1,99999,9","16,1",,,,"MET079METAR ENHK 221420Z 13018KT 090V160 9999 VCSH FEW022 SCT032 BKN050 01/M03 Q0969;",
"01044099999","2008-02-22T14:50:00","4","70.486675","22.139744","6.4","HASVIK, NO","FM-15","ENHK ","V020","100,1,N,0093,1","00960,1,C,N","011265,1,N,1","+0000,1","-0020,1","99999,9","02,5,+00660,1,99,9","04,5,+00960,1,99,9","07,5,+01500,1,99,9",,"07,99,1,99,9,99,9,99999,9,99,9,99,9",,"09688,1,99999,9","16,1",,,,"MET071METAR ENHK 221450Z 10018KT 9999 VCSH FEW022 SCT032 BKN050 00/M02 Q0969;",
"01044099999","2008-02-22T15:20:00","4","70.486675","22.139744","6.4","HASVIK, NO","FM-15","ENHK ","V020","110,1,N,0108,1","00990,1,C,N","011265,1,N,1","+0000,1","-0030,1","99999,9","02,5,+00660,1,99,9","04,5,+00990,1,99,9","07,5,+01650,5,99,9",,"07,99,1,99,9,99,9,99999,9,99,9,99,9",,"09688,1,99999,9","16,1",,,,"MET071METAR ENHK 221520Z 11021KT 9999 VCSH FEW022 SCT033 BKN055 00/M03 Q0969;",
"01044099999","2008-02-24T12:20:00","4","70.486675","22.139744","6.4","HASVIK, NO","FM-15","ENHK ","V020","140,1,N,0118,1","22000,1,9,N","011265,1,N,1","-0030,1","-0090,1","99999,9",,,,,"00,99,1,99,9,99,9,99999,9,99,9,99,9",,"09821,1,99999,9","36,1",,,,"MET055METAR ENHK 241220Z 14023KT 9999 DRSN NSC M03/M09 Q0982;","Q01    003SCCGA1"
"01044099999","2008-02-24T12:50:00","4","70.486675","22.139744","6.4","HASVIK, NO","FM-15","ENHK ","V020","140,1,N,0129,1","22000,1,9,N","011265,1,N,1","-0030,1","-0090,1","99999,9",,,,,"00,99,1,99,9,99,9,99999,9,99,9,99,9",,"09810,1,99999,9","36,1",,,,"MET055METAR ENHK 241250Z 14025KT 9999 DRSN NSC M03/M09 Q0981;","Q01    003SCCGA1"
"01044099999","2008-02-24T13:50:00","4","70.486675","22.139744","6.4","HASVIK, NO","FM-15","ENHK ","V020","140,1,N,0139,1","22000,1,9,N","011265,1,N,1","-0030,1","-0090,1","99999,9",,,,,"00,99,1,99,9,99,9,99999,9,99,9,99,9",,"09800,1,99999,9","38,1",,,,"MET056METAR ENHK 241350Z 14027KT 9999 -BLSN NSC M03/M09 Q0980;","Q01    003SCCGA1"
"01044099999","2008-02-24T14:50:00","4","70.486675","22.139744","6.4","HASVIK, NO","FM-15","ENHK ","V020","140,1,N,0113,1","22000,1,9,N","011265,1,N,1","-0030,1","-0090,1","99999,9",,,,,"00,99,1,99,9,99,9,99999,9,99,9,99,9",,"09790,1,99999,9","36,1",,,,"MET063METAR ENHK 241450Z 14022KT 110V170 9999 DRSN NSC M03/M09 Q0979;","Q01    003SCCGA1"
"01044099999","2008-02-25T05:50:00","4","70.486675","22.139744","6.4","HASVIK, NO","FM-15","ENHK ","V020","140,1,N,0067,1","02250,5,C,N","011265,1,N,1","-0040,1","-0090,1","99999,9","02,5,+00690,1,99,9","07,5,+02250,5,99,9",,,"07,99,1,99,9,99,9,99999,9,99,9,99,9",,"09760,1,99999,9","16,1",,,,"MET065METAR ENHK 250550Z 14013KT 9999 VCSH FEW023 BKN075 M04/M09 Q0976;",
"01044099999","2008-02-25T06:20:00","4","70.486675","22.139744","6.4","HASVIK, NO","FM-15","ENHK ","V020","140,1,N,0051,1","02400,1,C,N","011265,1,N,1","-0040,1","-0090,1","99999,9","02,5,+00690,1,99,9","07,5,+02400,1,99,9",,,"07,99,1,99,9,99,9,99999,9,99,9,99,9",,"09760,1,99999,9","16,1",,,,"MET065METAR ENHK 250620Z 14010KT 9999 VCSH FEW023 BKN080 M04/M09 Q0976;",
"01044099999","2008-02-25T12:50:00","4","70.486675","22.139744","6.4","HASVIK, NO","FM-15","ENHK ","V020","100,1,N,0041,1","00960,1,C,N","011265,1,N,1","-0040,1","-0090,1","99999,9","02,5,+00540,1,99,9","07,5,+00960,1,99,9",,,"07,99,1,99,9,99,9,99999,9,99,9,99,9",,"09800,1,99999,9",,,,,"MET060METAR ENHK 251250Z 10008KT 9999 FEW018 BKN032 M04/M09 Q0980;",
"01044099999","2008-02-25T13:20:00","4","70.486675","22.139744","6.4","HASVIK, NO","FM-15","ENHK ","V020","100,1,N,0046,1","00870,1,C,N","011265,1,N,1","-0040,1","-0090,1","99999,9","02,5,+00540,1,99,9","07,5,+00870,1,99,9",,,"07,99,1,99,9,99,9,99999,9,99,9,99,9",,"09800,1,99999,9",,,,,"MET060METAR ENHK 251320Z 10009KT 9999 FEW018 BKN029 M04/M09 Q0980;",
"01044099999","2008-02-25T13:50:00","4","70.486675","22.139744","6.4","HASVIK, NO","FM-15","ENHK ","V020","100,1,N,0036,1","00870,1,C,N","011265,1,N,1","-0050,1","-0090,1","99999,9","02,5,+00450,1,99,9","07,5,+00870,1,99,9",,,"07,99,1,99,9,99,9,99999,9,99,9,99,9",,"09810,1,99999,9",,,,,"MET060METAR ENHK 251350Z 10007KT 9999 FEW015 BKN029 M05/M09 Q0981;",
"01044099999","2008-02-25T14:20:00","4","70.486675","22.139744","6.4","HASVIK, NO","FM-15","ENHK ","V020","100,1,N,0036,1","00750,1,C,N","011265,1,N,1","-0040,1","-0080,1","99999,9","02,5,+00450,1,99,9","07,5,+00750,1,99,9",,,"07,99,1,99,9,99,9,99999,9,99,9,99,9",,"09810,1,99999,9","71,1",,,,"MET064METAR ENHK 251420Z 10007KT 9999 -SN FEW015 BKN025 M04/M08 Q0981;",
"01044099999","2008-02-25T14:50:00","4","70.486675","22.139744","6.4","HASVIK, NO","FM-15","ENHK ","V020","100,1,N,0036,1","00660,1,C,N","011265,1,N,1","-0040,1","-0080,1","99999,9","07,5,+00660,1,99,9",,,,"07,99,1,99,9,99,9,99999,9,99,9,99,9",,"09810,1,99999,9","71,1",,,,"MET057METAR ENHK 251450Z 10007KT 9999 -SN BKN022 M04/M08 Q0981;",
"01044099999","2008-02-25T15:20:00","4","70.486675","22.139744","6.4","HASVIK, NO","FM-15","ENHK ","V020","100,1,N,0031,1","00540,1,9,N","006000,1,N,1","-0050,1","-0080,1","99999,9","09,1,+00540,1,99,9",,,,"09,99,1,99,9,99,9,00025,1,99,9,99,9",,"09821,1,99999,9","71,1",,,,"MET056METAR ENHK 251520Z 10006KT 6000 -SN VV018 M05/M08 Q0982;",
"01044099999","2008-02-26T04:20:00","4","70.486675","22.139744","6.4","HASVIK, NO","FM-15","ENHK ","V020","290,1,N,0098,1","00360,1,9,N","003000,1,N,1","+0010,1","-0010,1","99999,9","09,1,+00360,1,99,9",,,,"09,99,1,99,9,99,9,00025,1,99,9,99,9",,"09871,1,99999,9","86,5",,,,"MET064METAR ENHK 260420Z 29019KT 240V310 3000 SHSN VV012 01/M01 Q0987;",
"01044099999","2008-02-26T04:50:00","4","70.486675","22.139744","6.4","HASVIK, NO","FM-15","ENHK ","V020","330,1,N,0082,1","00300,1,9,N","001000,1,N,1","+0000,1","-0010,1","99999,9","09,1,+00300,1,99,9",,,,"09,99,1,99,9,99,9,00025,1,99,9,99,9",,"09871,1,99999,9","86,5",,,"0134,1","MET067METAR ENHK 260450Z 33016G26KT 300V350 1000 SHSN VV010 00/M01 Q0987;",
"01044099999","2008-02-26T05:20:00","4","70.486675","22.139744","6.4","HASVIK, NO","FM-15","ENHK ","V020","330,1,N,0098,1","00600,1,C,N","004000,1,N,1","+0010,1","-0010,1","99999,9","02,5,+00450,1,99,9","07,5,+00600,1,99,9",,,"07,99,1,99,9,99,9,99999,9,99,9,99,9",,"09871,1,99999,9","85,5",,,"0149,1","MET070METAR ENHK 260520Z 33019G29KT 4000NE -SHSN FEW015 BKN020 01/M01 Q0987;",
"01044099999","2008-02-26T05:50:00","4","70.486675","22.139744","6.4","HASVIK, NO","FM-15","ENHK ","V020","320,1,N,0139,1","00900,1,C,N","011265,1,N,1","+0010,1","-0020,1","99999,9","04,5,+00600,1,99,9","07,5,+00900,1,99,9",,,"07,99,1,99,9,99,9,99999,9,99,9,99,9",,"09871,1,99999,9","38,1",,,,"MET070METAR ENHK 260550Z 32027KT 9999 -BLSN SCT020 BKN030 01/M02 Q0987 RESN;",
"01044099999","2008-02-26T06:20:00","4","70.486675","22.139744","6.4","HASVIK, NO","FM-15","ENHK ","V020","340,1,N,0072,1","00750,1,C,N","011265,1,N,1","+0000,1","-0020,1","99999,9","02,5,+00360,1,99,9","04,5,+00750,1,99,9","07,5,+00960,1,99,9",,"07,99,1,99,9,99,9,99999,9,99,9,99,9",,"09882,1,99999,9","16,1",,,,"MET079METAR ENHK 260620Z 34014KT 310V010 9999 VCSH FEW012 SCT025 BKN032 00/M02 Q0988;",
"01044099999","2008-02-26T06:50:00","4","70.486675","22.139744","6.4","HASVIK, NO","FM-15","ENHK ","V020","300,1,N,0113,1","00750,1,C,N","011265,1,N,1","+0000,1","-0040,1","99999,9","02,5,+00450,1,99,9","04,5,+00750,1,99,9","07,5,+01290,1,99,9",,"07,99,1,99,9,99,9,99999,9,99,9,99,9",,"09882,1,99999,9","36,1",,,,"MET072METAR ENHK 260650Z 30022KT 9999 -DRSN FEW015 SCT025 BKN043 00/M04 Q0988;",
"01044099999","2008-02-26T07:50:00","4","70.486675","22.139744","6.4","HASVIK, NO","FM-15","ENHK ","V020","290,1,N,0093,1","99999,9,C,N","011265,1,N,1","+0000,1","-0060,1","99999,9","02,5,+00600,1,99,9","04,5,+01200,1,99,9",,,"04,99,1,99,9,99,9,99999,9,99,9,99,9",,"09892,1,99999,9","36,1",,,,"MET064METAR ENHK 260750Z 29018KT 9999 DRSN FEW020 SCT040 00/M06 Q0989;","P01 012003SCOCIG"
"01044099999","2008-02-26T08:50:00","4","70.486675","22.139744","6.4","HASVIK, NO","FM-15","ENHK ","V020","300,1,N,0072,1","01260,1,C,N","011265,1,N,1","+0000,1","-0060,1","99999,9","07,5,+01260,1,99,9",,,,"07,99,1,99,9,99,9,99999,9,99,9,99,9",,"09892,1,99999,9",,,,,"MET052METAR ENHK 260850Z 30014KT 9999 BKN042 00/M06 Q0989;",
"01044099999","2008-02-26T09:50:00","4","70.486675","22.139744","6.4","HASVIK, NO","FM-15","ENHK ","V020","280,1,N,0067,1","99999,9,C,N","011265,1,N,1","+0010,1","-0070,1","99999,9","04,5,+00630,1,99,9","04,5,+01500,1,99,9",,,"04,99,1,99,9,99,9,99999,9,99,9,99,9",,"09898,1,99999,9",,,,,"MET059METAR ENHK 260950Z 28013KT 9999 SCT021 SCT050 01/M07 Q0990;","P01 015003SCOCIG"
"01044099999","2008-02-26T13:20:00","4","70.486675","22.139744","6.4","HASVIK, NO","FM-15","ENHK ","V020","270,1,N,0062,1","01320,1,C,N","011265,1,N,1","+0000,1","-0030,1","99999,9","02,5,+00870,1,99,9","07,5,+01320,1,99,9",,,"07,99,1,99,9,99,9,99999,9,99,9,99,9",,"09909,1,99999,9","16,1",,,,"MET065METAR ENHK 261320Z 27012KT 9999 VCSH FEW029 BKN044 M00/M03 Q0991;",
"01044099999","2008-02-26T13:50:00","4","70.486675","22.139744","6.4","HASVIK, NO","FM-15","ENHK ","V020","290,1,N,0067,1","01290,1,C,N","011265,1,N,1","+0000,1","-0030,1","99999,9","04,5,+00810,1,99,9","07,5,+01290,1,99,9",,,"07,99,1,99,9,99,9,99999,9,99,9,99,9",,"09909,1,99999,9","85,5",,,,"MET065METAR ENHK 261350Z 29013KT 9999 -SHSN SCT027 BKN043 00/M03 Q0991;",
"01044099999","2008-02-26T14:20:00","4","70.486675","22.139744","6.4","HASVIK, NO","FM-15","ENHK ","V020","310,1,N,0046,1","01170,1,C,N","011265,1,N,1","+0000,1","-0030,1","99999,9","02,5,+00900,1,99,9","07,5,+01170,1,99,9",,,"07,99,1,99,9,99,9,99999,9,99,9,99,9",,"09909,1,99999,9","16,1",,,,"MET064METAR ENHK 261420Z 31009KT 9999 VCSH FEW030 BKN039 00/M03 Q0991;",
"01044099999","2008-02-26T14:50:00","4","70.486675","22.139744","6.4","HASVIK, NO","FM-15","ENHK ","V020","310,1,N,0062,1","99999,9,C,N","011265,1,N,1","+0010,1","-0050,1","99999,9","02,5,+00810,1,99,9","04,5,+01050,1,99,9",,,"04,99,1,99,9,99,9,99999,9,99,9,99,9",,"09898,1,99999,9","16,1",,,,"MET064METAR ENHK 261450Z 31012KT 9999 VCSH FEW027 SCT035 01/M05 Q0990;","P01 010503SCOCIG"
"01044099999","2008-02-26T15:20:00","4","70.486675","22.139744","6.4","HASVIK, NO","FM-15","ENHK ","V020","330,1,N,0036,1","99999,9,C,N","011265,1,N,1","+0000,1","-0050,1","99999,9","02,5,+00870,1,99,9","04,5,+01110,1,99,9",,,"04,99,1,99,9,99,9,99999,9,99,9,99,9",,"09909,1,99999,9",,,,,"MET060METAR ENHK 261520Z 33007KT 9999 FEW029 SCT037 M00/M05 Q0991;","P01 011103SCOCIG"
"01044099999","2008-02-27T04:20:00","4","70.486675","22.139744","6.4","HASVIK, NO","FM-15","ENHK ","V020","120,1,N,0098,1","22000,1,9,N","011265,1,N,1","-0010,1","-0060,1","99999,9",,,,,"00,99,1,99,9,99,9,99999,9,99,9,99,9",,"09882,1,99999,9",,,,,"MET050METAR ENHK 270420Z 12019KT 9999 NSC M01/M06 Q0988;","Q01    003SCCGA1"
"01044099999","2008-02-27T04:50:00","4","70.486675","22.139744","6.4","HASVIK, NO","FM-15","ENHK ","V020","120,1,N,0103,1","22000,1,9,N","011265,1,N,1","-0010,1","-0060,1","99999,9",,,,,"00,99,1,99,9,99,9,99999,9,99,9,99,9",,"09882,1,99999,9",,,,,"MET050METAR ENHK 270450Z 12020KT 9999 NSC M01/M06 Q0988;","Q01    003SCCGA1"
"01044099999","2008-02-27T05:20:00","4","70.486675","22.139744","6.4","HASVIK, NO","FM-15","ENHK ","V020","110,1,N,0103,1","22000,1,9,N","011265,1,N,1","-0010,1","-0070,1","99999,9",,,,,"00,99,1,99,9,99,9,99999,9,99,9,99,9",,"09882,1,99999,9","36,1",,,,"MET056METAR ENHK 270520Z 11020KT 9999 -DRSN NSC M01/M07 Q0988;","Q01    003SCCGA1"
"01044099999","2008-02-27T05:50:00","4","70.486675","22.139744","6.4","HASVIK, NO","FM-15","ENHK ","V020","110,1,N,0108,1","22000,1,9,N","011265,1,N,1","-0020,1","-0060,1","99999,9",,,,,"00,99,1,99,9,99,9,99999,9,99,9,99,9",,"09882,1,99999,9","36,1",,,,"MET055METAR ENHK 270550Z 11021KT 9999 DRSN NSC M02/M06 Q0988;","Q01    003SCCGA1"
"01044099999","2008-02-27T06:50:00","4","70.486675","22.139744","6.4","HASVIK, NO","FM-15","ENHK ","V020","110,1,N,0123,1","22000,1,9,N","011265,1,N,1","-0020,1","-0060,1","99999,9",,,,,"00,99,1,99,9,99,9,99999,9,99,9,99,9",,"09882,1,99999,9","36,1",,,,"MET055METAR ENHK 270650Z 11024KT 9999 DRSN NSC M02/M06 Q0988;","Q01    003SCCGA1"
"01044099999","2008-02-27T08:20:00","4","70.486675","22.139744","6.4","HASVIK, NO","FM-15","ENHK ","V020","110,1,N,0123,1","22000,1,9,N","011265,1,N,1","-0020,1","-0060,1","99999,9",,,,,"00,99,1,99,9,99,9,99999,9,99,9,99,9",,"09892,1,99999,9","36,1",,,,"MET055METAR ENHK 270820Z 11024KT 9999 DRSN NSC M02/M06 Q0989;","Q01    003SCCGA1"
"01044099999","2008-02-27T08:50:00","4","70.486675","22.139744","6.4","HASVIK, NO","FM-15","ENHK ","V020","110,1,N,0123,1","22000,1,9,N","011265,1,N,1","-0020,1","-0060,1","99999,9",,,,,"00,99,1,99,9,99,9,99999,9,99,9,99,9",,"09892,1,99999,9","36,1",,,,"MET055METAR ENHK 270850Z 11024KT 9999 DRSN NSC M02/M06 Q0989;","Q01    003SCCGA1"
"01044099999","2008-02-27T09:20:00","4","70.486675","22.139744","6.4","HASVIK, NO","FM-15","ENHK ","V020","110,1,N,0123,1","22000,1,9,N","011265,1,N,1","-0030,1","-0060,1","99999,9",,,,,"00,99,1,99,9,99,9,99999,9,99,9,99,9",,"09892,1,99999,9","36,1",,,,"MET055METAR ENHK 270920Z 11024KT 9999 DRSN NSC M03/M06 Q0989;","Q01    003SCCGA1"
"01044099999","2008-02-27T10:50:00","4","70.486675","22.139744","6.4","HASVIK, NO","FM-15","ENHK ","V020","110,1,N,0118,1","22000,1,9,N","011265,1,N,1","-0020,1","-0060,1","99999,9",,,,,"00,99,1,99,9,99,9,99999,9,99,9,99,9",,"09892,1,99999,9","36,1",,,,"MET055METAR ENHK 271050Z 11023KT 9999 DRSN NSC M02/M06 Q0989;","Q01    003SCCGA1"
"01044099999","2008-02-27T12:50:00","4","70.486675","22.139744","6.4","HASVIK, NO","FM-15","ENHK ","V020","110,1,N,0113,1","22000,1,9,N","011265,1,N,1","-0020,1","-0060,1","99999,9",,,,,"00,99,1,99,9,99,9,99999,9,99,9,99,9",,"09892,1,99999,9","36,1",,,,"MET055METAR ENHK 271250Z 11022KT 9999 DRSN NSC M02/M06 Q0989;","Q01    003SCCGA1"
"01044099999","2008-02-27T13:20:00","4","70.486675","22.139744","6.4","HASVIK, NO","FM-15","ENHK ","V020","110,1,N,0108,1","22000,1,9,N","011265,1,N,1","-0020,1","-0060,1","99999,9",,,,,"00,99,1,99,9,99,9,99999,9,99,9,99,9",,"09892,1,99999,9","36,1",,,,"MET055METAR ENHK 271320Z 11021KT 9999 DRSN NSC M02/M06 Q0989;","Q01    003SCCGA1"
"01044099999","2008-02-27T13:50:00","4","70.486675","22.139744","6.4","HASVIK, NO","FM-15","ENHK ","V020","110,1,N,0118,1","22000,1,9,N","011265,1,N,1","-0020,1","-0060,1","99999,9",,,,,"00,99,1,99,9,99,9,99999,9,99,9,99,9",,"09892,1,99999,9","36,1",,,,"MET055METAR ENHK 271350Z 11023KT 9999 DRSN NSC M02/M06 Q0989;","Q01    003SCCGA1"
"01044099999","2008-02-27T14:20:00","4","70.486675","22.139744","6.4","HASVIK, NO","FM-15","ENHK ","V020","120,1,N,0113,1","99999,9,C,Y","009900,1,N,1","-0020,1","-0060,1","99999,9",,,,,,,"09898,1,99999,9",,,,,"MET047METAR ENHK 271420Z 12022KT CAVOK M02/M06 Q0990;",
"01044099999","2008-02-27T14:50:00","4","70.486675","22.139744","6.4","HASVIK, NO","FM-15","ENHK ","V020","120,1,N,0103,1","99999,9,C,Y","009900,1,N,1","-0020,1","-0060,1","99999,9",,,,,,,"09898,1,99999,9",,,,,"MET047METAR ENHK 271450Z 12020KT CAVOK M02/M06 Q0990;",
"01044099999","2008-02-27T15:20:00","4","70.486675","22.139744","6.4","HASVIK, NO","FM-15","ENHK ","V020","120,1,N,0108,1","99999,9,C,Y","009900,1,N,1","-0020,1","-0060,1","99999,9",,,,,,,"09898,1,99999,9",,,,,"MET047METAR ENHK 271520Z 12021KT CAVOK M02/M06 Q0990;",
"01044099999","2008-02-28T04:20:00","4","70.486675","22.139744","6.4","HASVIK, NO","FM-15","ENHK ","V020","110,1,N,0108,1","22000,1,9,N","011265,1,N,1","-0050,1","-0080,1","99999,9","02,5,+00900,1,99,9",,,,"02,99,1,99,9,99,9,99999,9,99,9,99,9",,"09919,1,99999,9",,,,,"MET053METAR ENHK 280420Z 11021KT 9999 FEW030 M05/M08 Q0992;",
"01044099999","2008-02-28T04:50:00","4","70.486675","22.139744","6.4","HASVIK, NO","FM-15","ENHK ","V020","100,1,N,0108,1","22000,1,9,N","011265,1,N,1","-0060,1","-0090,1","99999,9","02,5,+00900,1,99,9",,,,"02,99,1,99,9,99,9,99999,9,99,9,99,9",,"09919,1,99999,9",,,,,"MET053METAR ENHK 280450Z 10021KT 9999 FEW030 M06/M09 Q0992;",
"01044099999","2008-02-28T05:50:00","4","70.486675","22.139744","6.4","HASVIK, NO","FM-15","ENHK ","V020","110,1,N,0113,1","22000,1,9,N","011265,1,N,1","-0060,1","-0090,1","99999,9","02,5,+00900,1,99,9",,,,"02,99,1,99,9,99,9,99999,9,99,9,99,9",,"09929,1,99999,9",,,,,"MET053METAR ENHK 280550Z 11022KT 9999 FEW030 M06/M09 Q0993;",
"01044099999","2008-02-28T06:20:00","4","70.486675","22.139744","6.4","HASVIK, NO","FM-15","ENHK ","V020","110,1,N,0113,1","22000,1,9,N","011265,1,N,1","-0050,1","-0080,1","99999,9","02,5,+00900,1,99,9",,,,"02,99,1,99,9,99,9,99999,9,99,9,99,9",,"09929,1,99999,9",,,,,"MET053METAR ENHK 280620Z 11022KT 9999 FEW030 M05/M08 Q0993;",
"01044099999","2008-02-28T07:50:00","4","70.486675","22.139744","6.4","HASVIK, NO","FM-15","ENHK ","V020","110,1,N,0113,1","22000,1,9,N","011265,1,N,1","-0050,1","-0090,1","99999,9","02,5,+00900,1,99,9",,,,"02,99,1,99,9,99,9,99999,9,99,9,99,9",,"09929,1,99999,9",,,,,"MET053METAR ENHK 280750Z 11022KT 9999 FEW030 M05/M09 Q0993;",
"01044099999","2008-02-28T08:20:00","4","70.486675","22.139744","6.4","HASVIK, NO","FM-15","ENHK ","V020","110,1,N,0108,1","22000,1,9,N","011265,1,N,1","-0060,1","-0100,1","99999,9","02,5,+00750,1,99,9",,,,"02,99,1,99,9,99,9,99999,9,99,9,99,9",,"09929,1,99999,9",,,,,"MET053METAR ENHK 280820Z 11021KT 9999 FEW025 M06/M10 Q0993;",
"01044099999","2008-02-28T08:50:00","4","70.486675","22.139744","6.4","HASVIK, NO","FM-15","ENHK ","V020","120,1,N,0093,1","22000,1,9,N","011265,1,N,1","-0060,1","-0100,1","99999,9","02,5,+00750,1,99,9",,,,"02,99,1,99,9,99,9,99999,9,99,9,99,9",,"09929,1,99999,9",,,,,"MET061METAR ENHK 280850Z 12018KT 080V160 9999 FEW025 M06/M10 Q0993;",
"01044099999","2008-02-28T09:50:00","4","70.486675","22.139744","6.4","HASVIK, NO","FM-15","ENHK ","V020","110,1,N,0108,1","22000,1,9,N","011265,1,N,1","-0050,1","-0100,1","99999,9","02,5,+00750,1,99,9",,,,"02,99,1,99,9,99,9,99999,9,99,9,99,9",,"09929,1,99999,9",,,,,"MET053METAR ENHK 280950Z 11021KT 9999 FEW025 M05/M10 Q0993;",
"01044099999","2008-02-28T10:50:00","4","70.486675","22.139744","6.4","HASVIK, NO","FM-15","ENHK ","V020","110,1,N,0098,1","22000,1,9,N","011265,1,N,1","-0050,1","-0090,1","99999,9","02,5,+00750,1,99,9",,,,"02,99,1,99,9,99,9,99999,9,99,9,99,9",,"09939,1,99999,9",,,,,"MET053METAR ENHK 281050Z 11019KT 9999 FEW025 M05/M09 Q0994;",
"01044099999","2008-02-28T12:50:00","4","70.486675","22.139744","6.4","HASVIK, NO","FM-15","ENHK ","V020","120,1,N,0098,1","22000,1,9,N","011265,1,N,1","-0050,1","-0100,1","99999,9","02,5,+00750,1,99,9",,,,"02,99,1,99,9,99,9,99999,9,99,9,99,9",,"09939,1,99999,9",,,,,"MET053METAR ENHK 281250Z 12019KT 9999 FEW025 M05/M10 Q0994;",
"01044099999","2008-02-28T13:50:00","4","70.486675","22.139744","6.4","HASVIK, NO","FM-15","ENHK ","V020","110,1,N,0108,1","22000,1,9,N","011265,1,N,1","-0050,1","-0100,1","99999,9","02,5,+00750,1,99,9",,,,"02,99,1,99,9,99,9,99999,9,99,9,99,9",,"09939,1,99999,9",,,,,"MET053METAR ENHK 281350Z 11021KT 9999 FEW025 M05/M10 Q0994;",
"01044099999","2008-02-29T04:20:00","4","70.486675","22.139744","6.4","HASVIK, NO","FM-15","ENHK ","V020","110,1,N,0123,1","22000,1,9,N","011265,1,N,1","-0050,1","-0090,1","99999,9","02,5,+00750,1,99,9",,,,"02,99,1,99,9,99,9,99999,9,99,9,99,9",,"09949,1,99999,9",,,,,"MET053METAR ENHK 290420Z 11024KT 9999 FEW025 M05/M09 Q0995;",
"01044099999","2008-02-29T04:50:00","4","70.486675","22.139744","6.4","HASVIK, NO","FM-15","ENHK ","V020","110,1,N,0123,1","22000,1,9,N","011265,1,N,1","-0050,1","-0090,1","99999,9","02,5,+00750,1,99,9",,,,"02,99,1,99,9,99,9,99999,9,99,9,99,9",,"09939,1,99999,9","36,1",,,,"MET059METAR ENHK 290450Z 11024KT 9999 -DRSN FEW025 M05/M09 Q0994;",
"01044099999","2008-02-29T05:50:00","4","70.486675","22.139744","6.4","HASVIK, NO","FM-15","ENHK ","V020","110,1,N,0139,1","22000,1,9,N","011265,1,N,1","-0040,1","-0080,1","99999,9","02,5,+00750,1,99,9",,,,"02,99,1,99,9,99,9,99999,9,99,9,99,9",,"09939,1,99999,9",,,,,"MET053METAR ENHK 290550Z 11027KT 9999 FEW025 M04/M08 Q0994;",
"01044099999","2008-02-29T06:20:00","4","70.486675","22.139744","6.4","HASVIK, NO","FM-15","ENHK ","V020","110,1,N,0134,1","22000,1,9,N","011265,1,N,1","-0050,1","-0090,1","99999,9",,,,,"00,99,1,99,9,99,9,99999,9,99,9,99,9",,"09939,1,99999,9",,,,,"MET050METAR ENHK 290620Z 11026KT 9999 NSC M05/M09 Q0994;","Q01    003SCCGA1"
"01044099999","2008-02-29T12:50:00","4","70.486675","22.139744","6.4","HASVIK, NO","FM-15","ENHK ","V020","110,1,N,0087,1","99999,9,C,Y","009900,1,N,1","-0040,1","-0090,1","99999,9",,,,,,,"09919,1,99999,9",,,,,"MET047METAR ENHK 291250Z 11017KT CAVOK M04/M09 Q0992;",
"01044099999","2008-02-29T13:20:00","4","70.486675","22.139744","6.4","HASVIK, NO","FM-15","ENHK ","V020","120,1,N,0087,1","99999,9,C,Y","009900,1,N,1","-0040,1","-0090,1","99999,9",,,,,,,"09909,1,99999,9",,,,,"MET047METAR ENHK 291320Z 12017KT CAVOK M04/M09 Q0991;",
"01044099999","2008-02-29T13:50:00","4","70.486675","22.139744","6.4","HASVIK, NO","FM-15","ENHK ","V020","110,1,N,0087,1","99999,9,C,Y","009900,1,N,1","-0040,1","-0090,1","99999,9",,,,,,,"09909,1,99999,9",,,,,"MET047METAR ENHK 291350Z 11017KT CAVOK M04/M09 Q0991;",
"01044099999","2008-02-29T14:20:00","4","70.486675","22.139744","6.4","HASVIK, NO","FM-15","ENHK ","V020","110,1,N,0087,1","99999,9,C,Y","009900,1,N,1","-0040,1","-0090,1","99999,9",,,,,,,"09909,1,99999,9",,,,,"MET047METAR ENHK 291420Z 11017KT CAVOK M04/M09 Q0991;",
"01044099999","2008-02-29T14:50:00","4","70.486675","22.139744","6.4","HASVIK, NO","FM-15","ENHK ","V020","110,1,N,0087,1","99999,9,C,Y","009900,1,N,1","-0040,1","-0090,1","99999,9",,,,,,,"09898,1,99999,9",,,,,"MET047METAR ENHK 291450Z 11017KT CAVOK M04/M09 Q0990;",
"01044099999","2008-02-29T19:20:00","4","70.486675","22.139744","6.4","HASVIK, NO","FM-15","ENHK ","V020","150,1,N,0077,1","99999,9,C,N","011265,1,N,1","-0040,1","-0090,1","99999,9","02,5,+00540,1,99,9","04,5,+00720,1,99,9",,,"04,99,1,99,9,99,9,99999,9,99,9,99,9",,"09892,1,99999,9",,,,,"MET060METAR ENHK 291920Z 15015KT 9999 FEW018 SCT024 M04/M09 Q0989;","P01 007203SCOCIG"
"01044099999","2008-02-29T19:50:00","4","70.486675","22.139744","6.4","HASVIK, NO","FM-15","ENHK ","V020","130,1,N,0087,1","99999,9,C,N","011265,1,N,1","-0040,1","-0090,1","99999,9","02,5,+00540,1,99,9","04,5,+00780,1,99,9",,,"04,99,1,99,9,99,9,99999,9,99,9,99,9",,"09892,1,99999,9",,,,,"MET060METAR ENHK 291950Z 13017KT 9999 FEW018 SCT026 M04/M09 Q0989;","P01 007803SCOCIG"
"01044099999","2008-02-29T20:20:00","4","70.486675","22.139744","6.4","HASVIK, NO","FM-15","ENHK ","V020","130,1,N,0103,1","22000,1,9,N","011265,1,N,1","-0040,1","-0070,1","99999,9","02,5,+00750,1,99,9",,,,"02,99,1,99,9,99,9,99999,9,99,9,99,9",,"09892,1,99999,9",,,,,"MET053METAR ENHK 292020Z 13020KT 9999 FEW025 M04/M07 Q0989;",
"01044099999","2008-03-02T12:50:00","4","70.486675","22.139744","6.4","HASVIK, NO","FM-15","ENHK ","V020","100,1,N,0041,1","99999,9,C,N","011265,1,N,1","-0070,1","-0110,1","99999,9","02,5,+00600,1,99,9","04,5,+01170,1,99,9",,,"04,99,1,99,9,99,9,99999,9,99,9,99,9",,"09871,1,99999,9",,,,,"MET060METAR ENHK 021250Z 10008KT 9999 FEW020 SCT039 M07/M11 Q0987;","P01 011703SCOCIG"
"01044099999","2008-03-02T13:20:00","4","70.486675","22.139744","6.4","HASVIK, NO","FM-15","ENHK ","V020","090,1,N,0046,1","99999,9,C,N","011265,1,N,1","-0070,1","-0100,1","99999,9","02,5,+00570,1,99,9","04,5,+01290,1,99,9",,,"04,99,1,99,9,99,9,99999,9,99,9,99,9",,"09861,1,99999,9",,,,,"MET060METAR ENHK 021320Z 09009KT 9999 FEW019 SCT043 M07/M10 Q0986;","P01 012903SCOCIG"
"01044099999","2008-03-02T13:50:00","4","70.486675","22.139744","6.4","HASVIK, NO","FM-15","ENHK ","V020","090,1,N,0041,1","99999,9,C,N","011265,1,N,1","-0070,1","-0100,1","99999,9","02,5,+00570,1,99,9","04,5,+01320,1,99,9",,,"04,99,1,99,9,99,9,99999,9,99,9,99,9",,"09861,1,99999,9",,,,,"MET060METAR ENHK 021350Z 09008KT 9999 FEW019 SCT044 M07/M10 Q0986;","P01 013203SCOCIG"
"01044099999","2008-03-02T14:20:00","4","70.486675","22.139744","6.4","HASVIK, NO","FM-15","ENHK ","V020","090,1,N,0036,1","99999,9,C,N","011265,1,N,1","-0060,1","-0100,1","99999,9","02,5,+00600,1,99,9","04,5,+01410,1,99,9",,,"04,99,1,99,9,99,9,99999,9,99,9,99,9",,"09871,1,99999,9",,,,,"MET060METAR ENHK 021420Z 09007KT 9999 FEW020 SCT047 M06/M10 Q0987;","P01 014103SCOCIG"
"01044099999","2008-03-03T04:20:00","4","70.486675","22.139744","6.4","HASVIK, NO","FM-15","ENHK ","V020","110,1,N,0062,1","99999,9,C,Y","009900,1,N,1","-0030,1","-0080,1","99999,9",,,,,,,"09882,1,99999,9",,,,,"MET047METAR ENHK 030420Z 11012KT CAVOK M03/M08 Q0988;",
"01044099999","2008-03-03T04:50:00","4","70.486675","22.139744","6.4","HASVIK, NO","FM-15","ENHK ","V020","110,1,N,0057,1","99999,9,C,Y","009900,1,N,1","-0030,1","-0080,1","99999,9",,,,,,,"09882,1,99999,9",,,,,"MET047METAR ENHK 030450Z 11011KT CAVOK M03/M08 Q0988;",
"01044099999","2008-03-03T05:50:00","4","70.486675","22.139744","6.4","HASVIK, NO","FM-15","ENHK ","V020","110,1,N,0057,1","99999,9,C,Y","009900,1,N,1","-0030,1","-0080,1","99999,9",,,,,,,"09882,1,99999,9",,,,,"MET047METAR ENHK 030550Z 11011KT CAVOK M03/M08 Q0988;",
"01044099999","2008-03-03T06:50:00","4","70.486675","22.139744","6.4","HASVIK, NO","FM-15","ENHK ","V020","110,1,N,0062,1","99999,9,C,Y","009900,1,N,1","-0030,1","-0070,1","99999,9",,,,,,,"09882,1,99999,9",,,,,"MET047METAR ENHK 030650Z 11012KT CAVOK M03/M07 Q0988;",
"01044099999","2008-03-03T13:50:00","4","70.486675","22.139744","6.4","HASVIK, NO","FM-15","ENHK ","V020","100,1,N,0041,1","99999,9,C,Y","009900,1,N,1","-0030,1","-0070,1","99999,9",,,,,,,"09892,1,99999,9",,,,,"MET047METAR ENHK 031350Z 10008KT CAVOK M03/M07 Q0989;",
"01044099999","2008-03-03T14:20:00","4","70.486675","22.139744","6.4","HASVIK, NO","FM-15","ENHK ","V020","100,1,N,0041,1","99999,9,C,Y","009900,1,N,1","-0030,1","-0070,1","99999,9",,,,,,,"09892,1,99999,9",,,,,"MET047METAR ENHK 031420Z 10008KT CAVOK M03/M07 Q0989;",
"01044099999","2008-03-03T14:50:00","4","70.486675","22.139744","6.4","HASVIK, NO","FM-15","ENHK ","V020","100,1,N,0036,1","99999,9,C,Y","009900,1,N,1","-0030,1","-0070,1","99999,9",,,,,,,"09892,1,99999,9",,,,,"MET047METAR ENHK 031450Z 10007KT CAVOK M03/M07 Q0989;",
"01044099999","2008-03-03T20:50:00","4","70.486675","22.139744","6.4","HASVIK, NO","FM-15","ENHK ","V020","120,1,N,0046,1","00450,1,9,N","005000,1,N,1","-0040,1","-0060,1","99999,9","09,1,+00450,1,99,9",,,,"09,99,1,99,9,99,9,00025,1,99,9,99,9",,"09898,1,99999,9","85,5",,,,"MET058METAR ENHK 032050Z 12009KT 5000 -SHSN VV015 M04/M06 Q0990;",
"01044099999","2008-03-03T21:20:00","4","70.486675","22.139744","6.4","HASVIK, NO","FM-15","ENHK ","V020","120,1,N,0041,1","22000,1,9,N","007000,1,N,1","-0040,1","-0050,1","99999,9","04,5,+00420,1,99,9",,,,"04,99,1,99,9,99,9,99999,9,99,9,99,9",,"09909,1,99999,9","85,5",,,,"MET059METAR ENHK 032120Z 12008KT 7000 -SHSN SCT014 M04/M05 Q0991;",
"01044099999","2008-03-04T04:20:00","4","70.486675","22.139744","6.4","HASVIK, NO","FM-15","ENHK ","V020","120,1,N,0041,1","22000,1,9,N","011265,1,N,1","-0040,1","-0060,1","99999,9","04,5,+00360,1,99,9",,,,"04,99,1,99,9,99,9,99999,9,99,9,99,9",,"09919,1,99999,9",,,,,"MET053METAR ENHK 040420Z 12008KT 9999 SCT012 M04/M06 Q0992;",
"01044099999","2008-03-04T04:50:00","4","70.486675","22.139744","6.4","HASVIK, NO","FM-15","ENHK ","V020","110,1,N,0036,1","22000,1,9,N","008000,1,N,1","-0040,1","-0060,1","99999,9","04,5,+00420,1,99,9",,,,"04,99,1,99,9,99,9,99999,9,99,9,99,9",,"09929,1,99999,9","85,5",,,,"MET059METAR ENHK 040450Z 11007KT 8000 -SHSN SCT014 M04/M06 Q0993;",
"01044099999","2008-03-04T05:20:00","4","70.486675","22.139744","6.4","HASVIK, NO","FM-15","ENHK ","V020","130,1,N,0041,1","00330,1,9,N","003500,1,N,1","-0040,1","-0050,1","99999,9","09,1,+00330,1,99,9",,,,"09,99,1,99,9,99,9,00025,1,99,9,99,9",,"09929,1,99999,9","71,1",,,,"MET056METAR ENHK 040520Z 13008KT 3500 -SN VV011 M04/M05 Q0993;",
"01044099999","2008-03-04T05:50:00","4","70.486675","22.139744","6.4","HASVIK, NO","FM-15","ENHK ","V020","120,1,N,0041,1","99999,9,C,N","007000,1,N,1","-0040,1","-0060,1","99999,9","02,5,+00510,1,99,9","04,5,+01110,1,99,9",,,"04,99,1,99,9,99,9,99999,9,99,9,99,9",,"09929,1,99999,9","85,5",,,,"MET066METAR ENHK 040550Z 12008KT 7000 -SHSN FEW017 SCT037 M04/M06 Q0993;","P01 011103SCOCIG"
"01044099999","2008-03-04T06:20:00","4","70.486675","22.139744","6.4","HASVIK, NO","FM-15","ENHK ","V020","100,1,N,0046,1","99999,9,C,N","011265,1,N,1","-0040,1","-0060,1","99999,9","02,5,+00540,1,99,9","04,5,+01140,1,99,9",,,"04,99,1,99,9,99,9,99999,9,99,9,99,9",,"09939,1,99999,9",,,,,"MET060METAR ENHK 040620Z 10009KT 9999 FEW018 SCT038 M04/M06 Q0994;","P01 011403SCOCIG"
"01044099999","2008-03-04T13:50:00","4","70.486675","22.139744","6.4","HASVIK, NO","FM-15","ENHK ","V020","090,1,N,0026,1","99999,9,C,N","011265,1,N,1","-0030,1","-0060,1","99999,9","02,5,+00900,1,99,9","04,5,+06000,1,99,9",,,"04,99,1,99,9,99,9,99999,9,99,9,99,9",,"09980,1,99999,9",,,,,"MET060METAR ENHK 041350Z 09005KT 9999 FEW030 SCT200 M03/M06 Q0998;","P01 060003SCOCIG"
"01044099999","2008-03-04T14:20:00","4","70.486675","22.139744","6.4","HASVIK, NO","FM-15","ENHK ","V020","999,9,V,0010,1","99999,9,C,N","011265,1,N,1","-0040,1","-0070,1","99999,9","02,5,+00900,1,99,9","04,5,+06000,1,99,9",,,"04,99,1,99,9,99,9,99999,9,99,9,99,9",,"09980,1,99999,9",,,,,"MET060METAR ENHK 041420Z VRB02KT 9999 FEW030 SCT200 M04/M07 Q0998;","P01 060003SCOCIG"
"01044099999","2008-03-04T14:50:00","4","70.486675","22.139744","6.4","HASVIK, NO","FM-15","ENHK ","V020","110,1,N,0015,1","22000,1,9,N","011265,1,N,1","-0040,1","-0070,1","99999,9","02,5,+00900,1,99,9",,,,"02,99,1,99,9,99,9,99999,9,99,9,99,9",,"09980,1,99999,9",,,,,"MET061METAR ENHK 041450Z 11003KT 050V190 9999 FEW030 M04/M07 Q0998;",
"01044099999","2008-03-05T04:20:00","4","70.486675","22.139744","6.4","HASVIK, NO","FM-15","ENHK ","V020","180,1,N,0021,1","99999,9,C,Y","009900,1,N,1","-0020,1","-0050,1","99999,9",,,,,,,"10000,1,99999,9",,,,,"MET047METAR ENHK 050420Z 18004KT CAVOK M02/M05 Q1000;",
"01044099999","2008-03-05T04:50:00","4","70.486675","22.139744","6.4","HASVIK, NO","FM-15","ENHK ","V020","999,9,V,0010,1","99999,9,C,Y","009900,1,N,1","-0020,1","-0060,1","99999,9",,,,,,,"10000,1,99999,9",,,,,"MET047METAR ENHK 050450Z VRB02KT CAVOK M02/M06 Q1000;",
"01044099999","2008-03-05T05:20:00","4","70.486675","22.139744","6.4","HASVIK, NO","FM-15","ENHK ","V020","180,1,N,0015,1","22000,1,9,N","011265,1,N,1","-0020,1","-0050,1","99999,9","02,5,+01110,1,99,9",,,,"02,99,1,99,9,99,9,99999,9,99,9,99,9",,"10000,1,99999,9",,,,,"MET053METAR ENHK 050520Z 18003KT 9999 FEW037 M02/M05 Q1000;",
"01044099999","2008-03-05T05:50:00","4","70.486675","22.139744","6.4","HASVIK, NO","FM-15","ENHK ","V020","170,1,N,0031,1","22000,1,9,N","011265,1,N,1","-0020,1","-0050,1","99999,9","02,5,+01110,1,99,9",,,,"02,99,1,99,9,99,9,99999,9,99,9,99,9",,"10000,1,99999,9",,,,,"MET053METAR ENHK 050550Z 17006KT 9999 FEW037 M02/M05 Q1000;",
"01044099999","2008-03-05T06:20:00","4","70.486675","22.139744","6.4","HASVIK, NO","FM-15","ENHK ","V020","180,1,N,0031,1","02610,5,C,N","011265,1,N,1","-0020,1","-0050,1","99999,9","02,5,+01140,1,99,9","07,5,+02610,5,99,9",,,"07,99,1,99,9,99,9,99999,9,99,9,99,9",,"10000,1,99999,9",,,,,"MET060METAR ENHK 050620Z 18006KT 9999 FEW038 BKN087 M02/M05 Q1000;",
"01044099999","2008-03-05T13:20:00","4","70.486675","22.139744","6.4","HASVIK, NO","FM-15","ENHK ","V020","180,1,N,0026,1","99999,9,C,N","011265,1,N,1","+0000,1","-0050,1","99999,9","02,5,+01110,1,99,9","04,5,+02700,1,99,9",,,"04,99,1,99,9,99,9,99999,9,99,9,99,9",,"09959,1,99999,9",,,,,"MET068METAR ENHK 051320Z 18005KT 150V220 9999 FEW037 SCT090 M00/M05 Q0996;","P01 027003SCOCIG"
"01044099999","2008-03-05T14:20:00","4","70.486675","22.139744","6.4","HASVIK, NO","FM-15","ENHK ","V020","180,1,N,0031,1","99999,9,C,N","011265,1,N,1","+0000,1","-0060,1","99999,9","02,5,+01050,1,99,9","04,5,+02400,1,99,9",,,"04,99,1,99,9,99,9,99999,9,99,9,99,9",,"09959,1,99999,9",,,,,"MET060METAR ENHK 051420Z 18006KT 9999 FEW035 SCT080 M00/M06 Q0996;","P01 024003SCOCIG"
"01044099999","2008-03-06T04:20:00","4","70.486675","22.139744","6.4","HASVIK, NO","FM-15","ENHK ","V020","090,1,N,0077,1","99999,9,C,Y","009900,1,N,1","-0020,1","-0080,1","99999,9",,,,,,,"09871,1,99999,9",,,,,"MET047METAR ENHK 060420Z 09015KT CAVOK M02/M08 Q0987;",
"01044099999","2008-03-06T04:50:00","4","70.486675","22.139744","6.4","HASVIK, NO","FM-15","ENHK ","V020","090,1,N,0077,1","99999,9,C,Y","009900,1,N,1","-0030,1","-0080,1","99999,9",,,,,,,"09871,1,99999,9",,,,,"MET047METAR ENHK 060450Z 09015KT CAVOK M03/M08 Q0987;",
"01044099999","2008-03-06T05:20:00","4","70.486675","22.139744","6.4","HASVIK, NO","FM-15","ENHK ","V020","100,1,N,0067,1","99999,9,C,Y","009900,1,N,1","-0030,1","-0090,1","99999,9",,,,,,,"09871,1,99999,9",,,,,"MET047METAR ENHK 060520Z 10013KT CAVOK M03/M09 Q0987;",
"01044099999","2008-03-06T05:50:00","4","70.486675","22.139744","6.4","HASVIK, NO","FM-15","ENHK ","V020","110,1,N,0082,1","99999,9,C,Y","009900,1,N,1","-0020,1","-0080,1","99999,9",,,,,,,"09871,1,99999,9",,,,,"MET047METAR ENHK 060550Z 11016KT CAVOK M02/M08 Q0987;",
"01044099999","2008-03-06T06:20:00","4","70.486675","22.139744","6.4","HASVIK, NO","FM-15","ENHK ","V020","110,1,N,0082,1","99999,9,C,Y","009900,1,N,1","-0020,1","-0080,1","99999,9",,,,,,,"09871,1,99999,9",,,,,"MET047METAR ENHK 060620Z 11016KT CAVOK M02/M08 Q0987;",
"01044099999","2008-03-06T06:50:00","4","70.486675","22.139744","6.4","HASVIK, NO","FM-15","ENHK ","V020","110,1,N,0087,1","99999,9,C,Y","009900,1,N,1","-0020,1","-0080,1","99999,9",,,,,,,"09871,1,99999,9",,,,,"MET047METAR ENHK 060650Z 11017KT CAVOK M02/M08 Q0987;",
"01044099999","2008-03-06T07:20:00","4","70.486675","22.139744","6.4","HASVIK, NO","FM-15","ENHK ","V020","110,1,N,0087,1","99999,9,C,Y","009900,1,N,1","-0020,1","-0080,1","99999,9",,,,,,,"09871,1,99999,9",,,,,"MET047METAR ENHK 060720Z 11017KT CAVOK M02/M08 Q0987;",
"01044099999","2008-03-06T08:20:00","4","70.486675","22.139744","6.4","HASVIK, NO","FM-15","ENHK ","V020","110,1,N,0087,1","99999,9,C,Y","009900,1,N,1","-0020,1","-0080,1","99999,9",,,,,,,"09871,1,99999,9",,,,,"MET047METAR ENHK 060820Z 11017KT CAVOK M02/M08 Q0987;",
"01044099999","2008-03-06T10:20:00","4","70.486675","22.139744","6.4","HASVIK, NO","FM-15","ENHK ","V020","110,1,N,0093,1","99999,9,C,Y","009900,1,N,1","-0020,1","-0080,1","99999,9",,,,,,,"09871,1,99999,9",,,,,"MET047METAR ENHK 061020Z 11018KT CAVOK M02/M08 Q0987;",
"01044099999","2008-03-06T11:20:00","4","70.486675","22.139744","6.4","HASVIK, NO","FM-15","ENHK ","V020","110,1,N,0093,1","99999,9,C,Y","009900,1,N,1","-0020,1","-0080,1","99999,9",,,,,,,"09882,1,99999,9",,,,,"MET047METAR ENHK 061120Z 11018KT CAVOK M02/M08 Q0988;",
"01044099999","2008-03-06T11:50:00","4","70.486675","22.139744","6.4","HASVIK, NO","FM-15","ENHK ","V020","120,1,N,0087,1","99999,9,C,Y","009900,1,N,1","-0010,1","-0090,1","99999,9",,,,,,,"09882,1,99999,9",,,,,"MET047METAR ENHK 061150Z 12017KT CAVOK M01/M09 Q0988;",
"01044099999","2008-03-06T12:50:00","4","70.486675","22.139744","6.4","HASVIK, NO","FM-15","ENHK ","V020","110,1,N,0093,1","99999,9,C,Y","009900,1,N,1","-0020,1","-0090,1","99999,9",,,,,,,"09882,1,99999,9",,,,,"MET047METAR ENHK 061250Z 11018KT CAVOK M02/M09 Q0988;",
"01044099999","2008-03-06T13:20:00","4","70.486675","22.139744","6.4","HASVIK, NO","FM-15","ENHK ","V020","100,1,N,0082,1","99999,9,C,Y","009900,1,N,1","-0020,1","-0100,1","99999,9",,,,,,,"09892,1,99999,9",,,,,"MET047METAR ENHK 061320Z 10016KT CAVOK M02/M10 Q0989;",
"01044099999","2008-03-06T13:50:00","4","70.486675","22.139744","6.4","HASVIK, NO","FM-15","ENHK ","V020","110,1,N,0082,1","99999,9,C,Y","009900,1,N,1","-0020,1","-0090,1","99999,9",,,,,,,"09892,1,99999,9",,,,,"MET047METAR ENHK 061350Z 11016KT CAVOK M02/M09 Q0989;",
"01044099999","2008-03-06T14:20:00","4","70.486675","22.139744","6.4","HASVIK, NO","FM-15","ENHK ","V020","110,1,N,0077,1","99999,9,C,Y","009900,1,N,1","-0020,1","-0090,1","99999,9",,,,,,,"09892,1,99999,9",,,,,"MET047METAR ENHK 061420Z 11015KT CAVOK M02/M09 Q0989;",
"01044099999","2008-03-07T04:20:00","4","70.486675","22.139744","6.4","HASVIK, NO","FM-15","ENHK ","V020","999,9,V,0005,1","99999,9,C,Y","009900,1,N,1","-0070,1","-0110,1","99999,9",,,,,,,"09990,1,99999,9",,,,,"MET047METAR ENHK 070420Z VRB01KT CAVOK M07/M11 Q0999;",
"01044099999","2008-03-07T04:50:00","4","70.486675","22.139744","6.4","HASVIK, NO","FM-15","ENHK ","V020","999,9,V,0005,1","99999,9,C,Y","009900,1,N,1","-0090,1","-0130,1","99999,9",,,,,,,"09990,1,99999,9",,,,,"MET047METAR ENHK 070450Z VRB01KT CAVOK M09/M13 Q0999;",
"01044099999","2008-03-07T05:20:00","4","70.486675","22.139744","6.4","HASVIK, NO","FM-15","ENHK ","V020","150,1,N,0005,1","99999,9,C,Y","009900,1,N,1","-0080,1","-0110,1","99999,9",,,,,,,"10000,1,99999,9",,,,,"MET047METAR ENHK 070520Z 15001KT CAVOK M08/M11 Q1000;",
"01044099999","2008-03-07T05:50:00","4","70.486675","22.139744","6.4","HASVIK, NO","FM-15","ENHK ","V020","999,9,V,0005,1","99999,9,C,Y","009900,1,N,1","-0080,1","-0110,1","99999,9",,,,,,,"10000,1,99999,9",,,,,"MET047METAR ENHK 070550Z VRB01KT CAVOK M08/M11 Q1000;",
"01044099999","2008-03-07T06:20:00","4","70.486675","22.139744","6.4","HASVIK, NO","FM-15","ENHK ","V020","999,9,V,0005,1","99999,9,C,Y","009900,1,N,1","-0080,1","-0110,1","99999,9",,,,,,,"10000,1,99999,9",,,,,"MET047METAR ENHK 070620Z VRB01KT CAVOK M08/M11 Q1000;",
"01044099999","2008-03-07T06:50:00","4","70.486675","22.139744","6.4","HASVIK, NO","FM-15","ENHK ","V020","999,9,V,0005,1","99999,9,C,Y","009900,1,N,1","-0080,1","-0100,1","99999,9",,,,,,,"10010,1,99999,9",,,,,"MET047METAR ENHK 070650Z VRB01KT CAVOK M08/M10 Q1001;",
"01044099999","2008-03-07T13:50:00","4","70.486675","22.139744","6.4","HASVIK, NO","FM-15","ENHK ","V020","999,9,V,0010,1","22000,1,9,N","011265,1,N,1","-0010,1","-0070,1","99999,9",,,,,"00,99,1,99,9,99,9,99999,9,99,9,99,9",,"10051,1,99999,9",,,,,"MET050METAR ENHK 071350Z VRB02KT 9999 NSC M01/M07 Q1005;","Q01    003SCCGA1"
"01044099999","2008-03-07T14:50:00","4","70.486675","22.139744","6.4","HASVIK, NO","FM-15","ENHK ","V020","270,1,N,0041,1","99999,9,C,N","011265,1,N,1","-0010,1","-0050,1","99999,9","02,5,+01200,1,99,9","04,5,+02400,1,99,9",,,"04,99,1,99,9,99,9,99999,9,99,9,99,9",,"10051,1,99999,9",,,,,"MET060METAR ENHK 071450Z 27008KT 9999 FEW040 SCT080 M01/M05 Q1005;","P01 024003SCOCIG"
"01044099999","2008-03-09T12:20:00","4","70.486675","22.139744","6.4","HASVIK, NO","FM-15","ENHK ","V020","130,1,N,0139,1","99999,9,C,N","011265,1,N,1","+0000,1","-0040,1","99999,9","02,5,+00900,1,99,9","04,5,+03000,1,99,9",,,"04,99,1,99,9,99,9,99999,9,99,9,99,9",,"09949,1,99999,9","36,1",,,"0195,1","MET068METAR ENHK 091220Z 13027G38KT 9999 -DRSN FEW030 SCT100 00/M04 Q0995;","P01 030003SCOCIG"
"01044099999","2008-03-09T12:50:00","4","70.486675","22.139744","6.4","HASVIK, NO","FM-15","ENHK ","V020","110,1,N,0144,1","99999,9,C,N","011265,1,N,1","-0020,1","-0050,1","99999,9","02,5,+01050,1,99,9","04,5,+02100,1,99,9",,,"04,99,1,99,9,99,9,99999,9,99,9,99,9",,"09949,1,99999,9","36,1",,,,"MET066METAR ENHK 091250Z 11028KT 9999 -DRSN FEW035 SCT070 M02/M05 Q0995;","P01 021003SCOCIG"
"01044099999","2008-03-09T13:20:00","4","70.486675","22.139744","6.4","HASVIK, NO","FM-15","ENHK ","V020","140,1,N,0118,1","02250,5,C,N","011265,1,N,1","+0000,1","-0060,1","99999,9","02,5,+00900,1,99,9","07,5,+02250,5,99,9",,,"07,99,1,99,9,99,9,99999,9,99,9,99,9",,"09949,1,99999,9","36,1",,,"0170,1","MET069METAR ENHK 091320Z 14023G33KT 9999 -DRSN FEW030 BKN075 M00/M06 Q0995;",
"01044099999","2008-03-09T13:50:00","4","70.486675","22.139744","6.4","HASVIK, NO","FM-15","ENHK ","V020","140,1,N,0113,1","02250,5,C,N","011265,1,N,1","-0010,1","-0060,1","99999,9","02,5,+00900,1,99,9","07,5,+02250,5,99,9",,,"07,99,1,99,9,99,9,99999,9,99,9,99,9",,"09939,1,99999,9",,,,,"MET068METAR ENHK 091350Z 14022KT 100V160 9999 FEW030 BKN075 M01/M06 Q0994;",
"01044099999","2008-03-10T04:20:00","4","70.486675","22.139744","6.4","HASVIK, NO","FM-15","ENHK ","V020","120,1,N,0087,1","22000,1,9,N","011265,1,N,1","+0000,1","-0040,1","99999,9","04,5,+00900,1,99,9",,,,"04,99,1,99,9,99,9,99999,9,99,9,99,9",,"09892,1,99999,9",,,,,"MET060METAR ENHK 100420Z 12017KT 070V170 9999 SCT030 00/M04 Q0989;",
"01044099999","2008-03-10T04:50:00","4","70.486675","22.139744","6.4","HASVIK, NO","FM-15","ENHK ","V020","130,1,N,0077,1","01140,1,C,N","011265,1,N,1","+0000,1","-0050,1","99999,9","02,5,+00870,1,99,9","07,5,+01140,1,99,9",,,"07,99,1,99,9,99,9,99999,9,99,9,99,9",,"09892,1,99999,9",,,,,"MET059METAR ENHK 100450Z 13015KT 9999 FEW029 BKN038 00/M05 Q0989;",
"01044099999","2008-03-10T05:20:00","4","70.486675","22.139744","6.4","HASVIK, NO","FM-15","ENHK ","V020","110,1,N,0072,1","99999,9,C,N","011265,1,N,1","+0000,1","-0040,1","99999,9","02,5,+00840,1,99,9","04,5,+01110,1,99,9",,,"04,99,1,99,9,99,9,99999,9,99,9,99,9",,"09892,1,99999,9",,,,,"MET059METAR ENHK 100520Z 11014KT 9999 FEW028 SCT037 00/M04 Q0989;","P01 011103SCOCIG"
"01044099999","2008-03-10T05:50:00","4","70.486675","22.139744","6.4","HASVIK, NO","FM-15","ENHK ","V020","130,1,N,0062,1","99999,9,C,N","011265,1,N,1","+0000,1","-0040,1","99999,9","02,5,+00780,1,99,9","04,5,+01080,1,99,9",,,"04,99,1,99,9,99,9,99999,9,99,9,99,9",,"09892,1,99999,9",,,,,"MET059METAR ENHK 100550Z 13012KT 9999 FEW026 SCT036 00/M04 Q0989;","P01 010803SCOCIG"
"01044099999","2008-03-10T06:20:00","4","70.486675","22.139744","6.4","HASVIK, NO","FM-15","ENHK ","V020","140,1,N,0057,1","01050,1,C,N","011265,1,N,1","+0000,1","-0040,1","99999,9","02,5,+00690,1,99,9","04,5,+01050,1,99,9","07,5,+02220,5,99,9",,"07,99,1,99,9,99,9,99999,9,99,9,99,9",,"09892,1,99999,9","16,1",,,,"MET071METAR ENHK 100620Z 14011KT 9999 VCSH FEW023 SCT035 BKN074 00/M04 Q0989;",
"01044099999","2008-03-10T12:50:00","4","70.486675","22.139744","6.4","HASVIK, NO","FM-15","ENHK ","V020","120,1,N,0057,1","99999,9,C,N","011265,1,N,1","+0020,1","-0020,1","99999,9","02,5,+01020,1,99,9","04,5,+01710,5,99,9",,,"04,99,1,99,9,99,9,99999,9,99,9,99,9",,"09909,1,99999,9",,,,,"MET059METAR ENHK 101250Z 12011KT 9999 FEW034 SCT057 02/M02 Q0991;","P01 017103SCOCIG"
"01044099999","2008-03-10T13:20:00","4","70.486675","22.139744","6.4","HASVIK, NO","FM-15","ENHK ","V020","110,1,N,0036,1","99999,9,C,N","011265,1,N,1","+0020,1","-0020,1","99999,9","02,5,+01110,1,99,9","04,5,+01800,1,99,9",,,"04,99,1,99,9,99,9,99999,9,99,9,99,9",,"09898,1,99999,9",,,,,"MET059METAR ENHK 101320Z 11007KT 9999 FEW037 SCT060 02/M02 Q0990;","P01 018003SCOCIG"
"01044099999","2008-03-10T13:50:00","4","70.486675","22.139744","6.4","HASVIK, NO","FM-15","ENHK ","V020","130,1,N,0051,1","01650,5,C,N","011265,1,N,1","+0030,1","-0020,1","99999,9","02,5,+01020,1,99,9","07,5,+01650,5,99,9",,,"07,99,1,99,9,99,9,99999,9,99,9,99,9",,"09909,1,99999,9",,,,,"MET059METAR ENHK 101350Z 13010KT 9999 FEW034 BKN055 03/M02 Q0991;",
"01044099999","2008-03-10T14:20:00","4","70.486675","22.139744","6.4","HASVIK, NO","FM-15","ENHK ","V020","120,1,N,0062,1","99999,9,C,N","011265,1,N,1","+0030,1","-0010,1","99999,9","02,5,+01050,1,99,9","04,5,+01680,5,99,9",,,"04,99,1,99,9,99,9,99999,9,99,9,99,9",,"09909,1,99999,9",,,,,"MET059METAR ENHK 101420Z 12012KT 9999 FEW035 SCT056 03/M01 Q0991;","P01 016803SCOCIG"
"01044099999","2008-03-10T14:50:00","4","70.486675","22.139744","6.4","HASVIK, NO","FM-15","ENHK ","V020","110,1,N,0046,1","99999,9,C,N","011265,1,N,1","+0020,1","-0010,1","99999,9","02,5,+01050,1,99,9","04,5,+01680,5,99,9",,,"04,99,1,99,9,99,9,99999,9,99,9,99,9",,"09909,1,99999,9",,,,,"MET059METAR ENHK 101450Z 11009KT 9999 FEW035 SCT056 02/M01 Q0991;","P01 016803SCOCIG"
"01044099999","2008-03-11T04:20:00","4","70.486675","22.139744","6.4","HASVIK, NO","FM-15","ENHK ","V020","999,9,V,0005,1","99999,9,C,Y","009900,1,N,1","+0010,1","-0020,1","99999,9",,,,,,,"09919,1,99999,9",,,,,"MET046METAR ENHK 110420Z VRB01KT CAVOK 01/M02 Q0992;",
"01044099999","2008-03-11T04:50:00","4","70.486675","22.139744","6.4","HASVIK, NO","FM-15","ENHK ","V020","190,1,N,0036,1","99999,9,C,Y","009900,1,N,1","+0020,1","-0010,1","99999,9",,,,,,,"09919,1,99999,9",,,,,"MET046METAR ENHK 110450Z 19007KT CAVOK 02/M01 Q0992;",
"01044099999","2008-03-11T05:50:00","4","70.486675","22.139744","6.4","HASVIK, NO","FM-15","ENHK ","V020","180,1,N,0026,1","02400,1,C,N","011265,1,N,1","+0020,1","-0020,1","99999,9","02,5,+00600,1,99,9","07,5,+02400,1,99,9",,,"07,99,1,99,9,99,9,99999,9,99,9,99,9",,"09919,1,99999,9",,,,,"MET059METAR ENHK 110550Z 18005KT 9999 FEW020 BKN080 02/M02 Q0992;",
"01044099999","2008-03-11T06:50:00","4","70.486675","22.139744","6.4","HASVIK, NO","FM-15","ENHK ","V020","180,1,N,0026,1","02250,5,C,N","011265,1,N,1","+0020,1","-0020,1","99999,9","02,5,+01290,1,99,9","07,5,+02250,5,99,9",,,"07,99,1,99,9,99,9,99999,9,99,9,99,9",,"09929,1,99999,9",,,,,"MET059METAR ENHK 110650Z 18005KT 9999 FEW043 BKN075 02/M02 Q0993;",
"01044099999","2008-03-11T13:20:00","4","70.486675","22.139744","6.4","HASVIK, NO","FM-15","ENHK ","V020","999,9,V,0005,1","00750,1,C,N","011265,1,N,1","+0030,1","-0010,1","99999,9","02,5,+00510,1,99,9","04,5,+00750,1,99,9","07,5,+01890,5,99,9",,"07,99,1,99,9,99,9,99999,9,99,9,99,9",,"09959,1,99999,9",,,,,"MET066METAR ENHK 111320Z VRB01KT 9999 FEW017 SCT025 BKN063 03/M01 Q0996;",
"01044099999","2008-03-11T13:50:00","4","70.486675","22.139744","6.4","HASVIK, NO","FM-15","ENHK ","V020","999,9,V,0005,1","00810,1,C,N","011265,1,N,1","+0030,1","-0010,1","99999,9","02,5,+00570,1,99,9","04,5,+00810,1,99,9","07,5,+01950,5,99,9",,"07,99,1,99,9,99,9,99999,9,99,9,99,9",,"09959,1,99999,9",,,,,"MET066METAR ENHK 111350Z VRB01KT 9999 FEW019 SCT027 BKN065 03/M01 Q0996;",
"01044099999","2008-03-11T14:20:00","4","70.486675","22.139744","6.4","HASVIK, NO","FM-15","ENHK ","V020","999,9,V,0005,1","00870,1,C,N","011265,1,N,1","+0040,1","+0000,1","99999,9","02,5,+00570,1,99,9","04,5,+00870,1,99,9","07,5,+01980,5,99,9",,"07,99,1,99,9,99,9,99999,9,99,9,99,9",,"09959,1,99999,9",,,,,"MET065METAR ENHK 111420Z VRB01KT 9999 FEW019 SCT029 BKN066 04/00 Q0996;",
"01044099999","2008-03-11T14:50:00","4","70.486675","22.139744","6.4","HASVIK, NO","FM-15","ENHK ","V020","999,9,V,0005,1","02010,5,C,N","011265,1,N,1","+0030,1","-0010,1","99999,9","04,5,+00930,1,99,9","07,5,+02010,5,99,9",,,"07,99,1,99,9,99,9,99999,9,99,9,99,9",,"09959,1,99999,9",,,,,"MET059METAR ENHK 111450Z VRB01KT 9999 SCT031 BKN067 03/M01 Q0996;",
"01044099999","2008-03-11T15:20:00","4","70.486675","22.139744","6.4","HASVIK, NO","FM-15","ENHK ","V020","999,9,V,0005,1","01980,5,C,N","011265,1,N,1","+0020,1","-0010,1","99999,9","04,5,+00870,1,99,9","07,5,+01980,5,99,9",,,"07,99,1,99,9,99,9,99999,9,99,9,99,9",,"09970,1,99999,9",,,,,"MET059METAR ENHK 111520Z VRB01KT 9999 SCT029 BKN066 02/M01 Q0997;",
"01044099999","2008-03-12T04:20:00","4","70.486675","22.139744","6.4","HASVIK, NO","FM-15","ENHK ","V020","100,1,N,0082,1","22000,1,9,N","011265,1,N,1","+0020,1","-0010,1","99999,9","02,5,+00600,1,99,9",,,,"02,99,1,99,9,99,9,99999,9,99,9,99,9",,"09959,1,99999,9",,,,,"MET052METAR ENHK 120420Z 10016KT 9999 FEW020 02/M01 Q0996;",
"01044099999","2008-03-12T04:50:00","4","70.486675","22.139744","6.4","HASVIK, NO","FM-15","ENHK ","V020","100,1,N,0087,1","22000,1,9,N","011265,1,N,1","+0020,1","-0010,1","99999,9","02,5,+00600,1,99,9",,,,"02,99,1,99,9,99,9,99999,9,99,9,99,9",,"09959,1,99999,9",,,,,"MET060METAR ENHK 120450Z 10017KT 070V150 9999 FEW020 02/M01 Q0996;",
"01044099999","2008-03-12T05:50:00","4","70.486675","22.139744","6.4","HASVIK, NO","FM-15","ENHK ","V020","110,1,N,0082,1","22000,1,9,N","011265,1,N,1","+0020,1","-0010,1","99999,9","02,5,+00600,1,99,9",,,,"02,99,1,99,9,99,9,99999,9,99,9,99,9",,"09959,1,99999,9",,,,,"MET052METAR ENHK 120550Z 11016KT 9999 FEW020 02/M01 Q0996;",
"01044099999","2008-03-12T06:50:00","4","70.486675","22.139744","6.4","HASVIK, NO","FM-15","ENHK ","V020","100,1,N,0077,1","22000,1,9,N","011265,1,N,1","+0020,1","-0020,1","99999,9","02,5,+00600,1,99,9",,,,"02,99,1,99,9,99,9,99999,9,99,9,99,9",,"09959,1,99999,9",,,,,"MET052METAR ENHK 120650Z 10015KT 9999 FEW020 02/M02 Q0996;",
"01044099999","2008-03-12T12:50:00","4","70.486675","22.139744","6.4","HASVIK, NO","FM-15","ENHK ","V020","120,1,N,0113,1","99999,9,C,Y","009900,1,N,1","+0020,1","-0010,1","99999,9",,,,,,,"09949,1,99999,9",,,,,"MET046METAR ENHK 121250Z 12022KT CAVOK 02/M01 Q0995;",
"01044099999","2008-03-12T13:20:00","4","70.486675","22.139744","6.4","HASVIK, NO","FM-15","ENHK ","V020","110,1,N,0113,1","99999,9,C,Y","009900,1,N,1","+0020,1","-0010,1","99999,9",,,,,,,"09939,1,99999,9",,,,,"MET046METAR ENHK 121320Z 11022KT CAVOK 02/M01 Q0994;",
"01044099999","2008-03-12T13:50:00","4","70.486675","22.139744","6.4","HASVIK, NO","FM-15","ENHK ","V020","120,1,N,0103,1","99999,9,C,Y","009900,1,N,1","+0030,1","-0010,1","99999,9",,,,,,,"09939,1,99999,9",,,,,"MET046METAR ENHK 121350Z 12020KT CAVOK 03/M01 Q0994;",
"01044099999","2008-03-12T14:20:00","4","70.486675","22.139744","6.4","HASVIK, NO","FM-15","ENHK ","V020","120,1,N,0108,1","99999,9,C,Y","009900,1,N,1","+0030,1","-0020,1","99999,9",,,,,,,"09939,1,99999,9",,,,,"MET046METAR ENHK 121420Z 12021KT CAVOK 03/M02 Q0994;",
"01044099999","2008-03-12T14:50:00","4","70.486675","22.139744","6.4","HASVIK, NO","FM-15","ENHK ","V020","120,1,N,0108,1","99999,9,C,Y","009900,1,N,1","+0030,1","-0020,1","99999,9",,,,,,,"09939,1,99999,9",,,,,"MET046METAR ENHK 121450Z 12021KT CAVOK 03/M02 Q0994;",
"01044099999","2008-03-13T04:50:00","4","70.486675","22.139744","6.4","HASVIK, NO","FM-15","ENHK ","V020","110,1,N,0077,1","99999,9,C,N","011265,1,N,1","+0020,1","-0020,1","99999,9","02,5,+00600,1,99,9","04,5,+02550,5,99,9",,,"04,99,1,99,9,99,9,99999,9,99,9,99,9",,"09959,1,99999,9",,,,,"MET059METAR ENHK 130450Z 11015KT 9999 FEW020 SCT085 02/M02 Q0996;","P01 025503SCOCIG"
"01044099999","2008-03-13T05:20:00","4","70.486675","22.139744","6.4","HASVIK, NO","FM-15","ENHK ","V020","120,1,N,0077,1","02520,5,C,N","011265,1,N,1","+0020,1","-0020,1","99999,9","02,5,+00600,1,99,9","07,5,+02520,5,99,9",,,"07,99,1,99,9,99,9,99999,9,99,9,99,9",,"09959,1,99999,9",,,,,"MET059METAR ENHK 130520Z 12015KT 9999 FEW020 BKN084 02/M02 Q0996;",
"01044099999","2008-03-13T05:50:00","4","70.486675","22.139744","6.4","HASVIK, NO","FM-15","ENHK ","V020","120,1,N,0082,1","02550,5,C,N","011265,1,N,1","+0020,1","-0010,1","99999,9","02,5,+00600,1,99,9","07,5,+02550,5,99,9",,,"07,99,1,99,9,99,9,99999,9,99,9,99,9",,"09959,1,99999,9",,,,,"MET059METAR ENHK 130550Z 12016KT 9999 FEW020 BKN085 02/M01 Q0996;",
"01044099999","2008-03-13T06:50:00","4","70.486675","22.139744","6.4","HASVIK, NO","FM-15","ENHK ","V020","120,1,N,0082,1","02400,1,C,N","011265,1,N,1","+0030,1","-0010,1","99999,9","02,5,+00600,1,99,9","07,5,+02400,1,99,9",,,"07,99,1,99,9,99,9,99999,9,99,9,99,9",,"09970,1,99999,9",,,,,"MET059METAR ENHK 130650Z 12016KT 9999 FEW020 BKN080 03/M01 Q0997;",
"01044099999","2008-03-13T07:50:00","4","70.486675","22.139744","6.4","HASVIK, NO","FM-15","ENHK ","V020","120,1,N,0077,1","02610,5,C,N","011265,1,N,1","+0030,1","-0010,1","99999,9","02,5,+00600,1,99,9","07,5,+02610,5,99,9",,,"07,99,1,99,9,99,9,99999,9,99,9,99,9",,"09970,1,99999,9",,,,,"MET059METAR ENHK 130750Z 12015KT 9999 FEW020 BKN087 03/M01 Q0997;",
"01044099999","2008-03-13T08:50:00","4","70.486675","22.139744","6.4","HASVIK, NO","FM-15","ENHK ","V020","120,1,N,0072,1","99999,9,C,N","011265,1,N,1","+0030,1","-0010,1","99999,9","02,5,+00600,1,99,9","04,5,+02400,1,99,9",,,"04,99,1,99,9,99,9,99999,9,99,9,99,9",,"09980,1,99999,9",,,,,"MET059METAR ENHK 130850Z 12014KT 9999 FEW020 SCT080 03/M01 Q0998;","P01 024003SCOCIG"
"01044099999","2008-03-13T09:50:00","4","70.486675","22.139744","6.4","HASVIK, NO","FM-15","ENHK ","V020","120,1,N,0067,1","99999,9,C,N","011265,1,N,1","+0040,1","-0010,1","99999,9","02,5,+00600,1,99,9","04,5,+05400,1,99,9",,,"04,99,1,99,9,99,9,99999,9,99,9,99,9",,"09980,1,99999,9",,,,,"MET059METAR ENHK 130950Z 12013KT 9999 FEW020 SCT180 04/M01 Q0998;","P01 054003SCOCIG"
"01044099999","2008-03-13T11:20:00","4","70.486675","22.139744","6.4","HASVIK, NO","FM-15","ENHK ","V020","140,1,N,0077,1","02370,5,C,N","011265,1,N,1","+0040,1","-0010,1","99999,9","02,5,+00600,1,99,9","07,5,+02370,5,99,9",,,"07,99,1,99,9,99,9,99999,9,99,9,99,9",,"09980,1,99999,9",,,,,"MET059METAR ENHK 131120Z 14015KT 9999 FEW020 BKN079 04/M01 Q0998;",
"01044099999","2008-03-13T12:20:00","4","70.486675","22.139744","6.4","HASVIK, NO","FM-15","ENHK ","V020","120,1,N,0077,1","02430,5,C,N","011265,1,N,1","+0030,1","-0010,1","99999,9","02,5,+00600,1,99,9","07,5,+02430,5,99,9",,,"07,99,1,99,9,99,9,99999,9,99,9,99,9",,"09980,1,99999,9",,,,,"MET059METAR ENHK 131220Z 12015KT 9999 FEW020 BKN081 03/M01 Q0998;",
"01044099999","2008-03-13T12:50:00","4","70.486675","22.139744","6.4","HASVIK, NO","FM-15","ENHK ","V020","140,1,N,0077,1","99999,9,C,N","011265,1,N,1","+0040,1","-0020,1","99999,9","02,5,+00600,1,99,9","04,5,+02460,5,99,9",,,"04,99,1,99,9,99,9,99999,9,99,9,99,9",,"09980,1,99999,9",,,,,"MET059METAR ENHK 131250Z 14015KT 9999 FEW020 SCT082 04/M02 Q0998;","P01 024603SCOCIG"
"01044099999","2008-03-13T13:20:00","4","70.486675","22.139744","6.4","HASVIK, NO","FM-15","ENHK ","V020","140,1,N,0067,1","99999,9,C,N","011265,1,N,1","+0040,1","-0020,1","99999,9","02,5,+00630,1,99,9","04,5,+02430,5,99,9",,,"04,99,1,99,9,99,9,99999,9,99,9,99,9",,"09980,1,99999,9",,,,,"MET059METAR ENHK 131320Z 14013KT 9999 FEW021 SCT081 04/M02 Q0998;","P01 024303SCOCIG"
"01044099999","2008-03-13T13:50:00","4","70.486675","22.139744","6.4","HASVIK, NO","FM-15","ENHK ","V020","140,1,N,0062,1","99999,9,C,N","011265,1,N,1","+0040,1","-0010,1","99999,9","02,5,+00600,1,99,9","04,5,+02460,5,99,9",,,"04,99,1,99,9,99,9,99999,9,99,9,99,9",,"09980,1,99999,9",,,,,"MET059METAR ENHK 131350Z 14012KT 9999 FEW020 SCT082 04/M01 Q0998;","P01 024603SCOCIG"
"01044099999","2008-03-13T14:20:00","4","70.486675","22.139744","6.4","HASVIK, NO","FM-15","ENHK ","V020","140,1,N,0062,1","99999,9,C,N","011265,1,N,1","+0040,1","-0020,1","99999,9","02,5,+00600,1,99,9","04,5,+02460,5,99,9",,,"04,99,1,99,9,99,9,99999,9,99,9,99,9",,"09980,1,99999,9",,,,,"MET059METAR ENHK 131420Z 14012KT 9999 FEW020 SCT082 04/M02 Q0998;","P01 024603SCOCIG"
"01044099999","2008-03-13T14:50:00","4","70.486675","22.139744","6.4","HASVIK, NO","FM-15","ENHK ","V020","140,1,N,0062,1","99999,9,C,N","011265,1,N,1","+0040,1","-0010,1","99999,9","02,5,+00600,1,99,9","04,5,+02430,5,99,9",,,"04,99,1,99,9,99,9,99999,9,99,9,99,9",,"09990,1,99999,9",,,,,"MET059METAR ENHK 131450Z 14012KT 9999 FEW020 SCT081 04/M01 Q0999;","P01 024303SCOCIG"
"01044099999","2008-03-14T04:20:00","4","70.486675","22.139744","6.4","HASVIK, NO","FM-15","ENHK ","V020","120,1,N,0026,1","01830,5,C,N","011265,1,N,1","+0030,1","-0010,1","99999,9","02,5,+00570,1,99,9","07,5,+01830,5,99,9",,,"07,99,1,99,9,99,9,99999,9,99,9,99,9",,"10000,1,99999,9",,,,,"MET059METAR ENHK 140420Z 12005KT 9999 FEW019 BKN061 03/M01 Q1000;",
"01044099999","2008-03-14T04:50:00","4","70.486675","22.139744","6.4","HASVIK, NO","FM-15","ENHK ","V020","100,1,N,0041,1","01860,5,C,N","011265,1,N,1","+0030,1","-0010,1","99999,9","02,5,+00570,1,99,9","07,5,+01860,5,99,9",,,"07,99,1,99,9,99,9,99999,9,99,9,99,9",,"10000,1,99999,9",,,,,"MET059METAR ENHK 140450Z 10008KT 9999 FEW019 BKN062 03/M01 Q1000;",
"01044099999","2008-03-14T05:20:00","4","70.486675","22.139744","6.4","HASVIK, NO","FM-15","ENHK ","V020","110,1,N,0036,1","99999,9,C,Y","009900,1,N,1","+0030,1","-0010,1","99999,9",,,,,,,"10000,1,99999,9",,,,,"MET046METAR ENHK 140520Z 11007KT CAVOK 03/M01 Q1000;",
"01044099999","2008-03-14T05:50:00","4","70.486675","22.139744","6.4","HASVIK, NO","FM-15","ENHK ","V020","110,1,N,0026,1","99999,9,C,Y","009900,1,N,1","+0030,1","-0010,1","99999,9",,,,,,,"10000,1,99999,9",,,,,"MET046METAR ENHK 140550Z 11005KT CAVOK 03/M01 Q1000;",
"01044099999","2008-03-14T06:20:00","4","70.486675","22.139744","6.4","HASVIK, NO","FM-15","ENHK ","V020","100,1,N,0036,1","99999,9,C,Y","009900,1,N,1","+0030,1","-0010,1","99999,9",,,,,,,"10000,1,99999,9",,,,,"MET046METAR ENHK 140620Z 10007KT CAVOK 03/M01 Q1000;",
"01044099999","2008-03-14T13:50:00","4","70.486675","22.139744","6.4","HASVIK, NO","FM-15","ENHK ","V020","120,1,N,0021,1","99999,9,C,N","011265,1,N,1","+0030,1","-0010,1","99999,9","02,5,+01200,1,99,9","04,5,+02400,1,99,9",,,"04,99,1,99,9,99,9,99999,9,99,9,99,9",,"10010,1,99999,9",,,,,"MET067METAR ENHK 141350Z 12004KT 060V160 9999 FEW040 SCT080 03/M01 Q1001;","P01 024003SCOCIG"
"01044099999","2008-03-14T14:50:00","4","70.486675","22.139744","6.4","HASVIK, NO","FM-15","ENHK ","V020","110,1,N,0021,1","02250,5,C,N","011265,1,N,1","+0030,1","-0020,1","99999,9","02,5,+01200,1,99,9","07,5,+02250,5,99,9",,,"07,99,1,99,9,99,9,99999,9,99,9,99,9",,"10010,1,99999,9",,,,,"MET067METAR ENHK 141450Z 11004KT 070V160 9999 FEW040 BKN075 03/M02 Q1001;",
"01044099999","2008-03-16T12:50:00","4","70.486675","22.139744","6.4","HASVIK, NO","FM-15","ENHK ","V020","110,1,N,0098,1","99999,9,C,N","011265,1,N,1","+0010,1","-0030,1","99999,9","02,5,+00750,1,99,9","04,5,+01200,1,99,9",,,"04,99,1,99,9,99,9,99999,9,99,9,99,9",,"10000,1,99999,9",,,,,"MET059METAR ENHK 161250Z 11019KT 9999 FEW025 SCT040 01/M03 Q1000;","P01 012003SCOCIG"
"01044099999","2008-03-16T14:20:00","4","70.486675","22.139744","6.4","HASVIK, NO","FM-15","ENHK ","V020","120,1,N,0098,1","01200,1,C,N","011265,1,N,1","+0010,1","-0030,1","99999,9","02,5,+00750,1,99,9","07,5,+01200,1,99,9",,,"07,99,1,99,9,99,9,99999,9,99,9,99,9",,"10000,1,99999,9",,,,,"MET059METAR ENHK 161420Z 12019KT 9999 FEW025 BKN040 01/M03 Q1000;",
"01044099999","2008-03-17T04:20:00","4","70.486675","22.139744","6.4","HASVIK, NO","FM-15","ENHK ","V020","110,1,N,0087,1","02100,1,C,N","011265,1,N,1","-0010,1","-0090,1","99999,9","02,5,+00900,1,99,9","07,5,+02100,1,99,9",,,"07,99,1,99,9,99,9,99999,9,99,9,99,9",,"10051,1,99999,9",,,,,"MET060METAR ENHK 170420Z 11017KT 9999 FEW030 BKN070 M01/M09 Q1005;",
"01044099999","2008-03-17T05:50:00","4","70.486675","22.139744","6.4","HASVIK, NO","FM-15","ENHK ","V020","120,1,N,0077,1","99999,9,C,Y","009900,1,N,1","+0000,1","-0090,1","99999,9",,,,,,,"10061,1,99999,9",,,,,"MET047METAR ENHK 170550Z 12015KT CAVOK M00/M09 Q1006;",
"01044099999","2008-03-17T06:50:00","4","70.486675","22.139744","6.4","HASVIK, NO","FM-15","ENHK ","V020","120,1,N,0077,1","99999,9,C,Y","009900,1,N,1","+0000,1","-0060,1","99999,9",,,,,,,"10061,1,99999,9",,,,,"MET055METAR ENHK 170650Z 12015KT 090V150 CAVOK M00/M06 Q1006;",
"01044099999","2008-03-17T13:50:00","4","70.486675","22.139744","6.4","HASVIK, NO","FM-15","ENHK ","V020","130,1,N,0046,1","99999,9,C,Y","009900,1,N,1","+0000,1","-0080,1","99999,9",,,,,,,"10081,1,99999,9",,,,,"MET046METAR ENHK 171350Z 13009KT CAVOK 00/M08 Q1008;",
"01044099999","2008-03-17T14:50:00","4","70.486675","22.139744","6.4","HASVIK, NO","FM-15","ENHK ","V020","110,1,N,0036,1","99999,9,C,Y","009900,1,N,1","+0000,1","-0080,1","99999,9",,,,,,,"10081,1,99999,9",,,,,"MET047METAR ENHK 171450Z 11007KT CAVOK M00/M08 Q1008;",
"01044099999","2008-03-17T15:20:00","4","70.486675","22.139744","6.4","HASVIK, NO","FM-15","ENHK ","V020","100,1,N,0036,1","99999,9,C,Y","009900,1,N,1","-0010,1","-0070,1","99999,9",,,,,,,"10081,1,99999,9",,,,,"MET047METAR ENHK 171520Z 10007KT CAVOK M01/M07 Q1008;",
"01044099999","2008-03-18T04:20:00","4","70.486675","22.139744","6.4","HASVIK, NO","FM-15","ENHK ","V020","150,1,N,0036,1","01080,1,C,N","011265,1,N,1","-0020,1","-0070,1","99999,9","02,5,+00570,1,99,9","07,5,+01080,1,99,9",,,"07,99,1,99,9,99,9,99999,9,99,9,99,9",,"10061,1,99999,9","16,1",,,,"MET065METAR ENHK 180420Z 15007KT 9999 VCSH FEW019 BKN036 M02/M07 Q1006;",
"01044099999","2008-03-18T04:50:00","4","70.486675","22.139744","6.4","HASVIK, NO","FM-15","ENHK ","V020","150,1,N,0031,1","22000,1,9,N","011265,1,N,1","-0020,1","-0060,1","99999,9","04,5,+00870,1,99,9",,,,"04,99,1,99,9,99,9,99999,9,99,9,99,9",,"10061,1,99999,9","16,1",,,,"MET058METAR ENHK 180450Z 15006KT 9999 VCSH SCT029 M02/M06 Q1006;",
"01044099999","2008-03-18T05:20:00","4","70.486675","22.139744","6.4","HASVIK, NO","FM-15","ENHK ","V020","150,1,N,0041,1","01650,5,C,N","011265,1,N,1","-0020,1","-0070,1","99999,9","04,5,+00780,1,99,9","07,5,+01650,5,99,9",,,"07,99,1,99,9,99,9,99999,9,99,9,99,9",,"10061,1,99999,9","85,5",,,,"MET066METAR ENHK 180520Z 15008KT 9999 -SHSN SCT026 BKN055 M02/M07 Q1006;",
"01044099999","2008-03-18T05:50:00","4","70.486675","22.139744","6.4","HASVIK, NO","FM-15","ENHK ","V020","160,1,N,0046,1","01470,1,C,N","011265,1,N,1","-0020,1","-0060,1","99999,9","02,5,+00690,1,99,9","07,5,+01470,1,99,9",,,"07,99,1,99,9,99,9,99999,9,99,9,99,9",,"10061,1,99999,9","85,5",,,,"MET066METAR ENHK 180550Z 16009KT 9999 -SHSN FEW023 BKN049 M02/M06 Q1006;",
"01044099999","2008-03-18T06:20:00","4","70.486675","22.139744","6.4","HASVIK, NO","FM-15","ENHK ","V020","120,1,N,0051,1","01410,1,C,N","011265,1,N,1","-0020,1","-0060,1","99999,9","02,5,+00660,1,99,9","07,5,+01410,1,99,9",,,"07,99,1,99,9,99,9,99999,9,99,9,99,9",,"10061,1,99999,9","85,5",,,,"MET066METAR ENHK 180620Z 12010KT 9999 -SHSN FEW022 BKN047 M02/M06 Q1006;",
"01044099999","2008-03-18T13:50:00","4","70.486675","22.139744","6.4","HASVIK, NO","FM-15","ENHK ","V020","100,1,N,0026,1","01200,1,C,N","011265,1,N,1","-0020,1","-0050,1","99999,9","02,5,+00600,1,99,9","04,5,+01200,1,99,9","07,5,+04500,1,99,9",,"07,99,1,99,9,99,9,99999,9,99,9,99,9",,"10061,1,99999,9","85,5",,,,"MET073METAR ENHK 181350Z 10005KT 9999 -SHSN FEW020 SCT040 BKN150 M02/M05 Q1006;",
"01044099999","2008-03-19T04:20:00","4","70.486675","22.139744","6.4","HASVIK, NO","FM-15","ENHK ","V020","350,1,N,0021,1","01320,1,C,N","011265,1,N,1","-0030,1","-0090,1","99999,9","02,5,+00810,1,99,9","07,5,+01320,1,99,9",,,"07,99,1,99,9,99,9,99999,9,99,9,99,9",,"10081,1,99999,9","16,1",,,,"MET073METAR ENHK 190420Z 35004KT 290V030 9999 VCSH FEW027 BKN044 M03/M09 Q1008;",
"01044099999","2008-03-19T04:50:00","4","70.486675","22.139744","6.4","HASVIK, NO","FM-15","ENHK ","V020","350,1,N,0031,1","01050,1,C,N","011265,1,N,1","-0040,1","-0110,1","99999,9","02,5,+00690,1,99,9","07,5,+01050,1,99,9",,,"07,99,1,99,9,99,9,99999,9,99,9,99,9",,"10081,1,99999,9","16,1",,,,"MET065METAR ENHK 190450Z 35006KT 9999 VCSH FEW023 BKN035 M04/M11 Q1008;",
"01044099999","2008-03-19T05:20:00","4","70.486675","22.139744","6.4","HASVIK, NO","FM-15","ENHK ","V020","330,1,N,0067,1","99999,9,C,N","011265,1,N,1","-0040,1","-0080,1","99999,9","02,5,+00570,1,99,9","04,5,+00870,1,99,9",,,"04,99,1,99,9,99,9,99999,9,99,9,99,9",,"10081,1,99999,9","16,1",,,,"MET071METAR ENHK 190520Z 33013KT 9999 4000W VCSH FEW019 SCT029 M04/M08 Q1008;","P01 008703SCOCIG"
"01044099999","2008-03-19T05:50:00","4","70.486675","22.139744","6.4","HASVIK, NO","FM-15","ENHK ","V020","999,9,V,0005,1","99999,9,C,N","011265,1,N,1","-0050,1","-0080,1","99999,9","02,5,+00600,1,99,9","04,5,+00900,1,99,9",,,"04,99,1,99,9,99,9,99999,9,99,9,99,9",,"10081,1,99999,9","16,1",,,,"MET065METAR ENHK 190550Z VRB01KT 9999 VCSH FEW020 SCT030 M05/M08 Q1008;","P01 009003SCOCIG"
"01044099999","2008-03-19T06:20:00","4","70.486675","22.139744","6.4","HASVIK, NO","FM-15","ENHK ","V020","999,9,V,0010,1","99999,9,C,N","011265,1,N,1","-0030,1","-0080,1","99999,9","02,5,+00570,1,99,9","04,5,+00870,1,99,9",,,"04,99,1,99,9,99,9,99999,9,99,9,99,9",,"10081,1,99999,9","16,1",,,,"MET065METAR ENHK 190620Z VRB02KT 9999 VCSH FEW019 SCT029 M03/M08 Q1008;","P01 008703SCOCIG"
"01044099999","2008-03-19T13:20:00","4","70.486675","22.139744","6.4","HASVIK, NO","FM-15","ENHK ","V020","360,1,N,0026,1","00450,1,C,N","003000,1,N,1","-0040,1","-0050,1","99999,9","02,5,+00210,1,99,9","07,5,+00450,1,99,9",,,"07,99,1,99,9,99,9,99999,9,99,9,99,9",,"10091,1,99999,9","86,5",,,,"MET080METAR ENHK 191320Z 36005KT 300V050 3000E 9999W SHSN FEW007 BKN015 M04/M05 Q1009;",
"01044099999","2008-03-19T13:50:00","4","70.486675","22.139744","6.4","HASVIK, NO","FM-15","ENHK ","V020","330,1,N,0087,1","00660,1,C,N","011265,1,N,1","-0030,1","-0050,1","99999,9","02,5,+00360,1,99,9","04,5,+00660,1,99,9","07,5,+01050,1,99,9",,"07,99,1,99,9,99,9,99999,9,99,9,99,9",,"10091,1,99999,9","16,1","36,1",,,"MET083METAR ENHK 191350Z 33017KT 9999 VCSH -DRSN FEW012 SCT022 BKN035 M03/M05 Q1009 RESN;",
"01044099999","2008-03-19T14:50:00","4","70.486675","22.139744","6.4","HASVIK, NO","FM-15","ENHK ","V020","330,1,N,0041,1","00480,1,C,N","008000,1,N,1","-0040,1","-0050,1","99999,9","02,5,+00300,1,99,9","04,5,+00480,1,99,9","07,5,+00930,1,99,9",,"07,99,1,99,9,99,9,99999,9,99,9,99,9",,"10091,1,99999,9","16,1",,,,"MET100METAR ENHK 191450Z 33008KT 280V350 8000 VCSH FEW010 SCT016 BKN031 M04/M05 Q1009 RESN/VIS IN SH/1500;",
"01044099999","2008-03-19T15:20:00","4","70.486675","22.139744","6.4","HASVIK, NO","FM-15","ENHK ","V020","999,9,V,0010,1","00600,1,9,N","007000,1,N,1","-0040,1","-0060,1","99999,9","09,1,+00600,1,99,9",,,,"09,99,1,99,9,99,9,00025,1,99,9,99,9",,"10091,1,99999,9","71,1",,,,"MET056METAR ENHK 191520Z VRB02KT 7000 -SN VV020 M04/M06 Q1009;",
"01044099999","2008-03-23T12:50:00","4","70.486675","22.139744","6.4","HASVIK, NO","FM-15","ENHK ","V020","150,1,N,0093,1","22000,1,9,N","011265,1,N,1","-0040,1","-0110,1","99999,9","02,5,+00960,1,99,9",,,,"02,99,1,99,9,99,9,99999,9,99,9,99,9",,"09949,1,99999,9",,,,,"MET053METAR ENHK 231250Z 15018KT 9999 FEW032 M04/M11 Q0995;",
"01044099999","2008-03-23T13:20:00","4","70.486675","22.139744","6.4","HASVIK, NO","FM-15","ENHK ","V020","150,1,N,0077,1","22000,1,9,N","011265,1,N,1","-0040,1","-0120,1","99999,9","02,5,+00960,1,99,9",,,,"02,99,1,99,9,99,9,99999,9,99,9,99,9",,"09949,1,99999,9",,,,,"MET053METAR ENHK 231320Z 15015KT 9999 FEW032 M04/M12 Q0995;",
"01044099999","2008-03-23T13:50:00","4","70.486675","22.139744","6.4","HASVIK, NO","FM-15","ENHK ","V020","150,1,N,0093,1","22000,1,9,N","011265,1,N,1","-0040,1","-0110,1","99999,9","02,5,+00990,1,99,9",,,,"02,99,1,99,9,99,9,99999,9,99,9,99,9",,"09939,1,99999,9",,,,,"MET053METAR ENHK 231350Z 15018KT 9999 FEW033 M04/M11 Q0994;",
"01044099999","2008-03-23T14:20:00","4","70.486675","22.139744","6.4","HASVIK, NO","FM-15","ENHK ","V020","150,1,N,0077,1","22000,1,9,N","011265,1,N,1","-0040,1","-0120,1","99999,9","02,5,+00960,1,99,9",,,,"02,99,1,99,9,99,9,99999,9,99,9,99,9",,"09949,1,99999,9",,,,,"MET053METAR ENHK 231420Z 15015KT 9999 FEW032 M04/M12 Q0995;",
"01044099999","2008-03-24T12:50:00","4","70.486675","22.139744","6.4","HASVIK, NO","FM-15","ENHK ","V020","999,9,V,0005,1","01470,1,C,N","011265,1,N,1","-0020,1","-0070,1","99999,9","02,5,+00690,1,99,9","07,5,+01470,1,99,9",,,"07,99,1,99,9,99,9,99999,9,99,9,99,9",,"09882,1,99999,9","16,1",,,,"MET065METAR ENHK 241250Z VRB01KT 9999 VCSH FEW023 BKN049 M02/M07 Q0988;",
"01044099999","2008-03-24T13:20:00","4","70.486675","22.139744","6.4","HASVIK, NO","FM-15","ENHK ","V020","999,9,V,0005,1","01350,1,C,N","011265,1,N,1","-0020,1","-0060,1","99999,9","02,5,+00690,1,99,9","07,5,+01350,1,99,9",,,"07,99,1,99,9,99,9,99999,9,99,9,99,9",,"09882,1,99999,9","16,1",,,,"MET065METAR ENHK 241320Z VRB01KT 9999 VCSH FEW023 BKN045 M02/M06 Q0988;",
"01044099999","2008-03-24T13:50:00","4","70.486675","22.139744","6.4","HASVIK, NO","FM-15","ENHK ","V020","060,1,N,0026,1","01080,1,C,N","011265,1,N,1","-0020,1","-0060,1","99999,9","02,5,+00630,1,99,9","07,5,+01080,1,99,9",,,"07,99,1,99,9,99,9,99999,9,99,9,99,9",,"09882,1,99999,9","16,1",,,,"MET065METAR ENHK 241350Z 06005KT 9999 VCSH FEW021 BKN036 M02/M06 Q0988;",
"01044099999","2008-03-24T14:20:00","4","70.486675","22.139744","6.4","HASVIK, NO","FM-15","ENHK ","V020","060,1,N,0015,1","01110,1,C,N","011265,1,N,1","-0020,1","-0060,1","99999,9","02,5,+00660,1,99,9","07,5,+01110,1,99,9",,,"07,99,1,99,9,99,9,99999,9,99,9,99,9",,"09882,1,99999,9","16,1",,,,"MET073METAR ENHK 241420Z 06003KT 020V110 9999 VCSH FEW022 BKN037 M02/M06 Q0988;",
"01044099999","2008-03-25T04:20:00","4","70.486675","22.139744","6.4","HASVIK, NO","FM-15","ENHK ","V020","060,1,N,0026,1","99999,9,C,N","011265,1,N,1","+0000,1","-0030,1","99999,9","02,5,+00360,1,99,9","04,5,+01350,1,99,9",,,"04,99,1,99,9,99,9,99999,9,99,9,99,9",,"09882,1,99999,9","16,1",,,,"MET073METAR ENHK 250420Z 06005KT 340V110 9999 VCSH FEW012 SCT045 M00/M03 Q0988;","P01 013503SCOCIG"
"01044099999","2008-03-25T04:50:00","4","70.486675","22.139744","6.4","HASVIK, NO","FM-15","ENHK ","V020","060,1,N,0057,1","99999,9,C,N","011265,1,N,1","+0010,1","-0030,1","99999,9","02,5,+00390,1,99,9","04,5,+01500,1,99,9",,,"04,99,1,99,9,99,9,99999,9,99,9,99,9",,"09882,1,99999,9","16,1",,,,"MET072METAR ENHK 250450Z 06011KT 010V120 9999 VCSH FEW013 SCT050 01/M03 Q0988;","P01 015003SCOCIG"
"01044099999","2008-03-25T05:50:00","4","70.486675","22.139744","6.4","HASVIK, NO","FM-15","ENHK ","V020","350,1,N,0026,1","01110,1,C,N","011265,1,N,1","+0000,1","-0040,1","99999,9","02,5,+00450,1,99,9","07,5,+01110,1,99,9",,,"07,99,1,99,9,99,9,99999,9,99,9,99,9",,"09892,1,99999,9","16,1",,,,"MET072METAR ENHK 250550Z 35005KT 310V020 9999 VCSH FEW015 BKN037 00/M04 Q0989;",
"01044099999","2008-03-25T06:50:00","4","70.486675","22.139744","6.4","HASVIK, NO","FM-15","ENHK ","V020","350,1,N,0026,1","00750,1,C,N","011265,1,N,1","+0000,1","-0030,1","99999,9","02,5,+00450,1,99,9","04,5,+00750,1,99,9","07,5,+01260,1,99,9",,"07,99,1,99,9,99,9,99999,9,99,9,99,9",,"09892,1,99999,9","16,1",,,,"MET080METAR ENHK 250650Z 35005KT 330V030 9999 VCSH FEW015 SCT025 BKN042 M00/M03 Q0989;",
"01044099999","2008-03-25T12:20:00","4","70.486675","22.139744","6.4","HASVIK, NO","FM-15","ENHK ","V020","360,1,N,0021,1","00480,1,9,N","002000,1,N,1","+0010,1","-0020,1","99999,9","09,1,+00480,1,99,9",,,,"09,99,1,99,9,99,9,00025,1,99,9,99,9",,"09929,1,99999,9","86,5",,,,"MET064METAR ENHK 251220Z 36004KT 340V040 2000 SHSN VV016 01/M02 Q0993;",
"01044099999","2008-03-25T12:50:00","4","70.486675","22.139744","6.4","HASVIK, NO","FM-15","ENHK ","V020","010,1,N,0051,1","00720,1,C,N","011265,1,N,1","+0010,1","-0040,1","99999,9","02,5,+00300,1,99,9","04,5,+00720,1,99,9","07,5,+01140,1,99,9",,"07,99,1,99,9,99,9,99999,9,99,9,99,9",,"09939,1,99999,9","16,1",,,,"MET084METAR ENHK 251250Z 01010KT 350V060 9999 VCSH FEW010 SCT024 BKN038 01/M04 Q0994 RESN;",
"01044099999","2008-03-25T13:20:00","4","70.486675","22.139744","6.4","HASVIK, NO","FM-15","ENHK ","V020","330,1,N,0031,1","01050,1,C,N","011265,1,N,1","+0000,1","-0030,1","99999,9","02,5,+00300,1,99,9","04,5,+01050,1,99,9","07,5,+01680,5,99,9",,"07,99,1,99,9,99,9,99999,9,99,9,99,9",,"09939,1,99999,9",,,,,"MET066METAR ENHK 251320Z 33006KT 9999 FEW010 SCT035 BKN056 00/M03 Q0994;",
"01044099999","2008-03-25T13:50:00","4","70.486675","22.139744","6.4","HASVIK, NO","FM-15","ENHK ","V020","999,9,N,0021,1","00900,1,C,N","011265,1,N,1","+0000,1","-0030,1","99999,9","02,5,+00300,1,99,9","04,5,+00900,1,99,9","07,5,+02100,1,99,9",,"07,99,1,99,9,99,9,99999,9,99,9,99,9",,"09939,1,99999,9",,,,,"MET075METAR ENHK 251350Z 33404KT 280V030 9999 FEW010 SCT030 BKN070 M00/M03 Q0994;",
"01044099999","2008-03-25T14:50:00","4","70.486675","22.139744","6.4","HASVIK, NO","FM-15","ENHK ","V020","330,1,N,0051,1","00600,1,C,N","003000,1,N,1","+0000,1","-0020,1","99999,9","02,5,+00300,1,99,9","04,5,+00600,1,99,9","07,5,+01500,1,99,9",,"07,99,1,99,9,99,9,99999,9,99,9,99,9",,"09949,1,99999,9","85,5",,,,"MET073METAR ENHK 251450Z 33010KT 3000E -SHSN FEW010 SCT020 BKN050 00/M02 Q0995;",
"01044099999","2008-03-25T15:50:00","4","70.486675","22.139744","6.4","HASVIK, NO","FM-15","ENHK ","V020","020,1,N,0031,1","00750,1,C,N","011265,1,N,1","+0010,1","-0030,1","99999,9","02,5,+00300,1,99,9","04,5,+00750,1,99,9","07,5,+01500,1,99,9",,"07,99,1,99,9,99,9,99999,9,99,9,99,9",,"09949,1,99999,9","16,1",,,,"MET084METAR ENHK 251550Z 02006KT 310V090 9999 VCSH FEW010 SCT025 BKN050 01/M03 Q0995 RESN;",
"01044099999","2008-03-26T04:20:00","4","70.486675","22.139744","6.4","HASVIK, NO","FM-15","ENHK ","V020","320,1,N,0046,1","01560,5,C,N","011265,1,N,1","+0000,1","-0060,1","99999,9","04,5,+00900,1,99,9","07,5,+01560,5,99,9",,,"07,99,1,99,9,99,9,99999,9,99,9,99,9",,"10020,1,99999,9",,,,,"MET060METAR ENHK 260420Z 32009KT 9999 SCT030 BKN052 M00/M06 Q1002;",
"01044099999","2008-03-26T04:50:00","4","70.486675","22.139744","6.4","HASVIK, NO","FM-15","ENHK ","V020","320,1,N,0046,1","22000,1,9,N","011265,1,N,1","-0010,1","-0070,1","99999,9","04,5,+00900,1,99,9",,,,"04,99,1,99,9,99,9,99999,9,99,9,99,9",,"10020,1,99999,9",,,,,"MET053METAR ENHK 260450Z 32009KT 9999 SCT030 M01/M07 Q1002;",
"01044099999","2008-03-26T05:50:00","4","70.486675","22.139744","6.4","HASVIK, NO","FM-15","ENHK ","V020","340,1,N,0015,1","22000,1,9,N","011265,1,N,1","-0010,1","-0070,1","99999,9","04,5,+00900,1,99,9",,,,"04,99,1,99,9,99,9,99999,9,99,9,99,9",,"10020,1,99999,9",,,,,"MET052METAR ENHK 260550Z 34003KT 9999 SCT030 M01/M7 Q1002;",
"01044099999","2008-03-26T08:50:00","4","70.486675","22.139744","6.4","HASVIK, NO","FM-15","ENHK ","V020","300,1,N,0036,1","00960,1,C,N","011265,1,N,1","+0000,1","-0070,1","99999,9","02,5,+00600,1,99,9","04,5,+00960,1,99,9","07,5,+01260,1,99,9",,"07,99,1,99,9,99,9,99999,9,99,9,99,9",,"10020,1,99999,9",,,,,"MET074METAR ENHK 260850Z 30007KT 270V330 9999 FEW020 SCT032 BKN042 00/M07 Q1002;",
"01044099999","2008-03-26T13:20:00","4","70.486675","22.139744","6.4","HASVIK, NO","FM-15","ENHK ","V020","999,9,V,0005,1","99999,9,C,N","011265,1,N,1","+0020,1","-0050,1","99999,9","02,5,+00690,1,99,9","04,5,+01530,5,99,9",,,"04,99,1,99,9,99,9,99999,9,99,9,99,9",,"10010,1,99999,9",,,,,"MET059METAR ENHK 261320Z VRB01KT 9999 FEW023 SCT051 02/M05 Q1001;","P01 015303SCOCIG"
"01044099999","2008-03-26T14:20:00","4","70.486675","22.139744","6.4","HASVIK, NO","FM-15","ENHK ","V020","130,1,N,0021,1","22000,1,9,N","011265,1,N,1","+0010,1","-0050,1","99999,9","04,5,+00720,1,99,9",,,,"04,99,1,99,9,99,9,99999,9,99,9,99,9",,"10010,1,99999,9","16,1",,,,"MET065METAR ENHK 261420Z 13004KT 090V200 9999 VCSH SCT024 01/M05 Q1001;",
"01044099999","2008-03-26T14:50:00","4","70.486675","22.139744","6.4","HASVIK, NO","FM-15","ENHK ","V020","080,1,N,0026,1","22000,1,9,N","011265,1,N,1","+0000,1","-0040,1","99999,9","04,5,+00720,1,99,9",,,,"04,99,1,99,9,99,9,99999,9,99,9,99,9",,"10010,1,99999,9","16,1",,,,"MET058METAR ENHK 261450Z 08005KT 9999 VCSH SCT024 M00/M04 Q1001;",
"01044099999","2008-03-27T04:20:00","4","70.486675","22.139744","6.4","HASVIK, NO","FM-15","ENHK ","V020","260,1,N,0041,1","00600,1,C,N","006000,1,N,1","-0020,1","-0040,1","99999,9","04,5,+00270,1,99,9","07,5,+00600,1,99,9",,,"07,99,1,99,9,99,9,99999,9,99,9,99,9",,"09949,1,99999,9","71,1",,,,"MET064METAR ENHK 270420Z 26008KT 6000 -SN SCT009 BKN020 M02/M04 Q0995;",
"01044099999","2008-03-27T04:50:00","4","70.486675","22.139744","6.4","HASVIK, NO","FM-15","ENHK ","V020","260,1,N,0041,1","00720,1,C,N","011265,1,N,1","-0020,1","-0030,1","99999,9","04,5,+00240,1,99,9","07,5,+00720,1,99,9",,,"07,99,1,99,9,99,9,99999,9,99,9,99,9",,"09949,1,99999,9","16,1",,,,"MET070METAR ENHK 270450Z 26008KT 9999 VCSH SCT008 BKN024 M02/M03 Q0995 RESN;",
"01044099999","2008-03-27T05:20:00","4","70.486675","22.139744","6.4","HASVIK, NO","FM-15","ENHK ","V020","250,1,N,0031,1","00750,1,C,N","011265,1,N,1","-0020,1","-0040,1","99999,9","02,5,+00240,1,99,9","04,5,+00750,1,99,9","07,5,+01800,1,99,9",,"07,99,1,99,9,99,9,99999,9,99,9,99,9",,"09949,1,99999,9","16,1",,,,"MET072METAR ENHK 270520Z 25006KT 9999 VCSH FEW008 SCT025 BKN060 M02/M04 Q0995;",
"01044099999","2008-03-27T05:50:00","4","70.486675","22.139744","6.4","HASVIK, NO","FM-15","ENHK ","V020","230,1,N,0031,1","00720,1,C,N","011265,1,N,1","-0010,1","-0050,1","99999,9","02,5,+00300,1,99,9","04,5,+00720,1,99,9","07,5,+02040,5,99,9",,"07,99,1,99,9,99,9,99999,9,99,9,99,9",,"09939,1,99999,9","16,1",,,,"MET080METAR ENHK 270550Z 23006KT 200V260 9999 VCSH FEW010 SCT024 BKN068 M01/M05 Q0994;",
"01044099999","2008-03-27T06:20:00","4","70.486675","22.139744","6.4","HASVIK, NO","FM-15","ENHK ","V020","240,1,N,0036,1","00900,1,C,N","011265,1,N,1","-0010,1","-0050,1","99999,9","02,5,+00450,1,99,9","07,5,+00900,1,99,9",,,"07,99,1,99,9,99,9,99999,9,99,9,99,9",,"09939,1,99999,9","16,1",,,,"MET065METAR ENHK 270620Z 24007KT 9999 VCSH FEW015 BKN030 M01/M05 Q0994;",
"01044099999","2008-03-27T06:50:00","4","70.486675","22.139744","6.4","HASVIK, NO","FM-15","ENHK ","V020","260,1,N,0041,1","00750,1,C,N","003000,1,N,1","-0010,1","-0050,1","99999,9","02,5,+00450,1,99,9","04,5,+00750,1,99,9","07,5,+01200,1,99,9",,"07,99,1,99,9,99,9,99999,9,99,9,99,9",,"09939,1,99999,9","85,5",,,,"MET082METAR ENHK 270650Z 26008KT 220V290 3000E -SHSN FEW015 SCT025 BKN040 M01/M05 Q0994;",
"01044099999","2008-03-27T07:50:00","4","70.486675","22.139744","6.4","HASVIK, NO","FM-15","ENHK ","V020","250,1,N,0046,1","00840,1,C,N","008000,1,N,1","-0010,1","-0050,1","99999,9","02,5,+00450,1,99,9","04,5,+00840,1,99,9","07,5,+01800,1,99,9",,"07,99,1,99,9,99,9,99999,9,99,9,99,9",,"09939,1,99999,9","16,1",,,,"MET080METAR ENHK 270750Z 25009KT 210V280 8000 VCSH FEW015 SCT028 BKN060 M01/M05 Q0994;",
"01044099999","2008-03-27T13:20:00","4","70.486675","22.139744","6.4","HASVIK, NO","FM-15","ENHK ","V020","290,1,N,0067,1","00870,1,C,N","007000,1,N,1","-0020,1","-0050,1","99999,9","02,5,+00480,1,99,9","07,5,+00870,1,99,9",,,"07,99,1,99,9,99,9,99999,9,99,9,99,9",,"09929,1,99999,9","86,5",,,,"MET065METAR ENHK 271320Z 29013KT 7000 SHSN FEW016 BKN029 M02/M05 Q0993;",
"01044099999","2008-03-27T13:50:00","4","70.486675","22.139744","6.4","HASVIK, NO","FM-15","ENHK ","V020","310,1,N,0087,1","99999,9,C,N","011265,1,N,1","-0020,1","-0060,1","99999,9","02,5,+00450,1,99,9","04,5,+00960,1,99,9",,,"04,99,1,99,9,99,9,99999,9,99,9,99,9",,"09929,1,99999,9","16,1",,,,"MET065METAR ENHK 271350Z 31017KT 9999 VCSH FEW015 SCT032 M02/M06 Q0993;","P01 009603SCOCIG"
"01044099999","2008-03-27T14:20:00","4","70.486675","22.139744","6.4","HASVIK, NO","FM-15","ENHK ","V020","280,1,N,0067,1","00990,1,C,N","011265,1,N,1","-0010,1","-0060,1","99999,9","02,5,+00480,1,99,9","07,5,+00990,1,99,9",,,"07,99,1,99,9,99,9,99999,9,99,9,99,9",,"09929,1,99999,9","16,1",,,"0118,1","MET068METAR ENHK 271420Z 28013G23KT 9999 VCSH FEW016 BKN033 M01/M06 Q0993;",
"01044099999","2008-03-27T15:20:00","4","70.486675","22.139744","6.4","HASVIK, NO","FM-15","ENHK ","V020","290,1,N,0067,1","99999,9,C,N","011265,1,N,1","-0020,1","-0070,1","99999,9","02,5,+00480,1,99,9","04,5,+00870,1,99,9",,,"04,99,1,99,9,99,9,99999,9,99,9,99,9",,"09929,1,99999,9","16,1",,,,"MET065METAR ENHK 271520Z 29013KT 9999 VCSH FEW016 SCT029 M02/M07 Q0993;","P01 008703SCOCIG"
"01044099999","2008-03-28T04:20:00","4","70.486675","22.139744","6.4","HASVIK, NO","FM-15","ENHK ","V020","270,1,N,0093,1","00870,1,C,N","008000,1,N,1","-0040,1","-0050,1","99999,9","02,5,+00480,1,99,9","07,5,+00870,1,99,9",,,"07,99,1,99,9,99,9,99999,9,99,9,99,9",,"09949,1,99999,9","16,1",,,,"MET065METAR ENHK 280420Z 27018KT 8000 VCSH FEW016 BKN029 M04/M05 Q0995;",
"01044099999","2008-03-28T04:50:00","4","70.486675","22.139744","6.4","HASVIK, NO","FM-15","ENHK ","V020","270,1,N,0087,1","00150,1,9,N","001500,1,N,1","-0040,1","-0050,1","99999,9","09,1,+00150,1,99,9",,,,"09,99,1,99,9,99,9,00025,1,99,9,99,9",,"09959,1,99999,9","38,1",,,,"MET061METAR ENHK 280450Z 27017KT 1500 SHSNBLSN VV005 M04/M05 Q0996;",
"01044099999","2008-03-28T05:20:00","4","70.486675","22.139744","6.4","HASVIK, NO","FM-15","ENHK ","V020","280,1,N,0072,1","99999,9,C,N","011265,1,N,1","-0030,1","-0040,1","99999,9","02,5,+00480,1,99,9","04,5,+00720,1,99,9",,,"04,99,1,99,9,99,9,99999,9,99,9,99,9",,"09949,1,99999,9","16,1",,,,"MET071METAR ENHK 280520Z 28014KT 9999 4000E VCSH FEW016 SCT024 M03/M04 Q0995;","P01 007203SCOCIG"
"01044099999","2008-03-28T06:20:00","4","70.486675","22.139744","6.4","HASVIK, NO","FM-15","ENHK ","V020","290,1,N,0113,1","99999,9,C,N","011265,1,N,1","-0030,1","-0040,1","99999,9","02,5,+00480,1,99,9","04,5,+00750,1,99,9",,,"04,99,1,99,9,99,9,99999,9,99,9,99,9",,"09959,1,99999,9","16,1",,,,"MET070METAR ENHK 280620Z 29022KT 9999 VCSH FEW016 SCT025 M03/M04 Q0996 RESN;","P01 007503SCOCIG"
"01044099999","2008-03-28T12:50:00","4","70.486675","22.139744","6.4","HASVIK, NO","FM-15","ENHK ","V020","260,1,N,0103,1","00900,1,C,N","004000,1,N,1","-0020,1","-0040,1","99999,9","04,5,+00300,1,99,9","07,5,+00900,1,99,9",,,"07,99,1,99,9,99,9,99999,9,99,9,99,9",,"09980,1,99999,9","38,1","86,5",,,"MET078METAR ENHK 281250Z 26020KT 230V300 4000 BLSN SHSN SCT010 BKN030 M02/M04 Q0998;",
"01044099999","2008-03-28T13:20:00","4","70.486675","22.139744","6.4","HASVIK, NO","FM-15","ENHK ","V020","260,1,N,0082,1","00720,1,C,N","011265,1,N,1","-0010,1","-0050,1","99999,9","02,5,+00540,1,99,9","04,5,+00720,1,99,9","07,5,+01050,1,99,9",,"07,99,1,99,9,99,9,99999,9,99,9,99,9",,"09990,1,99999,9","16,1",,,,"MET085METAR ENHK 281320Z 26016KT 220V290 9999 VCSH FEW018 SCT024 BKN035 M01/M05 Q0999 RESN;",
"01044099999","2008-03-28T13:50:00","4","70.486675","22.139744","6.4","HASVIK, NO","FM-15","ENHK ","V020","250,1,N,0087,1","00780,1,C,N","006000,1,N,1","-0010,1","-0060,1","99999,9","02,5,+00450,1,99,9","07,5,+00780,1,99,9",,,"07,99,1,99,9,99,9,99999,9,99,9,99,9",,"09990,1,99999,9","16,1",,,"0144,1","MET077METAR ENHK 281350Z 25017G28KT 210V290 6000W VCSH FEW015 BKN026 M01/M06 Q0999;",
"01044099999","2008-03-28T14:20:00","4","70.486675","22.139744","6.4","HASVIK, NO","FM-15","ENHK ","V020","240,1,N,0072,1","00510,1,9,N","003000,1,N,1","-0010,1","-0060,1","99999,9","09,1,+00510,1,99,9",,,,"09,99,1,99,9,99,9,00025,1,99,9,99,9",,"09990,1,99999,9","86,5",,,,"MET066METAR ENHK 281420Z 24014KT 210V270 3000W SHSN VV017 M01/M06 Q0999;",
"01044099999","2008-03-29T18:20:00","4","70.486675","22.139744","6.4","HASVIK, NO","FM-15","ENHK ","V020","170,1,N,0041,1","22000,1,9,N","011265,1,N,1","-0010,1","-0070,1","99999,9","02,5,+01500,1,99,9",,,,"02,99,1,99,9,99,9,99999,9,99,9,99,9",,"10071,1,99999,9",,,,,"MET053METAR ENHK 291820Z 17008KT 9999 FEW050 M01/M07 Q1007;",
"01044099999","2008-03-30T10:50:00","4","70.486675","22.139744","6.4","HASVIK, NO","FM-15","ENHK ","V020","100,1,N,0051,1","00960,1,C,N","011265,1,N,1","-0010,1","-0040,1","99999,9","02,5,+00660,1,99,9","07,5,+00960,1,99,9",,,"07,99,1,99,9,99,9,99999,9,99,9,99,9",,"10071,1,99999,9","16,1",,,,"MET065METAR ENHK 301050Z 10010KT 9999 VCSH FEW022 BKN032 M01/M04 Q1007;",
"01044099999","2008-03-30T12:50:00","4","70.486675","22.139744","6.4","HASVIK, NO","FM-15","ENHK ","V020","090,1,N,0026,1","00780,1,C,N","011265,1,N,1","+0000,1","-0030,1","99999,9","02,5,+00540,1,99,9","04,5,+00780,1,99,9","07,5,+01200,1,99,9",,"07,99,1,99,9,99,9,99999,9,99,9,99,9",,"10071,1,99999,9","71,1",,,,"MET071METAR ENHK 301250Z 09005KT 9999 -SN FEW018 SCT026 BKN040 M00/M03 Q1007;",
"01044099999","2008-03-30T14:20:00","4","70.486675","22.139744","6.4","HASVIK, NO","FM-15","ENHK ","V020","999,9,9,9999,9","00510,5,9,N","008000,5,N,1","+0000,1","-0020,1","99999,9","02,5,+00300,5,99,9","04,5,+00510,5,99,9","07,5,+00780,5,99,9",,,,"10060,1,99999,9",,,,,"MET070METAR ENHK 301420Z VBB01KT 8000 -SN FEW010 SCT017 BKN026 00/M02 Q1006;",
"01044099999","2008-03-31T03:20:00","4","70.486675","22.139744","6.4","HASVIK, NO","FM-15","ENHK ","V020","999,9,V,0005,1","99999,9,C,N","011265,1,N,1","+0010,1","-0020,1","99999,9","02,5,+00360,1,99,9","04,5,+00660,1,99,9",,,"04,99,1,99,9,99,9,99999,9,99,9,99,9",,"10091,1,99999,9",,,,,"MET059METAR ENHK 310320Z VRB01KT 9999 FEW012 SCT022 01/M02 Q1009;","P01 006603SCOCIG"
"01044099999","2008-03-31T03:50:00","4","70.486675","22.139744","6.4","HASVIK, NO","FM-15","ENHK ","V020","999,9,V,0010,1","99999,9,C,N","011265,1,N,1","-0010,1","-0030,1","99999,9","02,5,+00390,1,99,9","04,5,+00660,1,99,9",,,"04,99,1,99,9,99,9,99999,9,99,9,99,9",,"10091,1,99999,9",,,,,"MET060METAR ENHK 310350Z VRB02KT 9999 FEW013 SCT022 M01/M03 Q1009;","P01 006603SCOCIG"
"01044099999","2008-03-31T04:20:00","4","70.486675","22.139744","6.4","HASVIK, NO","FM-15","ENHK ","V020","999,9,V,0010,1","99999,9,C,N","011265,1,N,1","-0020,1","-0040,1","99999,9","02,5,+00360,1,99,9","04,5,+00690,1,99,9",,,"04,99,1,99,9,99,9,99999,9,99,9,99,9",,"10081,1,99999,9",,,,,"MET060METAR ENHK 310420Z VRB02KT 9999 FEW012 SCT023 M02/M04 Q1008;","P01 006903SCOCIG"
"01044099999","2008-03-31T04:50:00","4","70.486675","22.139744","6.4","HASVIK, NO","FM-15","ENHK ","V020","999,9,V,0010,1","99999,9,C,N","011265,1,N,1","+0000,1","-0020,1","99999,9","02,5,+00390,1,99,9","04,5,+00630,1,99,9",,,"04,99,1,99,9,99,9,99999,9,99,9,99,9",,"10081,1,99999,9",,,,,"MET060METAR ENHK 310450Z VRB02KT 9999 FEW013 SCT021 M00/M02 Q1008;","P01 006303SCOCIG"
"01044099999","2008-03-31T05:20:00","4","70.486675","22.139744","6.4","HASVIK, NO","FM-15","ENHK ","V020","100,1,N,0021,1","99999,9,C,N","011265,1,N,1","+0000,1","-0020,1","99999,9","02,5,+00420,1,99,9","04,5,+00750,1,99,9",,,"04,99,1,99,9,99,9,99999,9,99,9,99,9",,"10081,1,99999,9",,,,,"MET059METAR ENHK 310520Z 10004KT 9999 FEW014 SCT025 00/M02 Q1008;","P01 007503SCOCIG"
"01044099999","2008-03-31T05:50:00","4","70.486675","22.139744","6.4","HASVIK, NO","FM-15","ENHK ","V020","090,1,N,0026,1","02010,5,C,N","011265,1,N,1","+0000,1","-0020,1","99999,9","02,5,+00480,1,99,9","07,5,+02010,5,99,9",,,"07,99,1,99,9,99,9,99999,9,99,9,99,9",,"10081,1,99999,9",,,,,"MET059METAR ENHK 310550Z 09005KT 9999 FEW016 BKN067 00/M02 Q1008;",
"01044099999","2008-03-31T11:50:00","4","70.486675","22.139744","6.4","HASVIK, NO","FM-15","ENHK ","V020","999,9,V,0010,1","00300,1,9,N","002000,1,N,1","+0010,1","-0010,1","99999,9","09,1,+00300,1,99,9",,,,"09,99,1,99,9,99,9,00025,1,99,9,99,9",,"10041,1,99999,9","73,1",,,,"MET054METAR ENHK 311150Z VRB02KT 2000 SN VV010 01/M01 Q1004;",
"01044099999","2008-03-31T13:50:00","4","70.486675","22.139744","6.4","HASVIK, NO","FM-15","ENHK ","V020","999,9,V,0010,1","00360,1,9,N","002500,1,N,1","+0000,1","+0000,1","99999,9","09,1,+00360,1,99,9",,,,"09,99,1,99,9,99,9,00025,1,99,9,99,9",,"10041,1,99999,9","73,1",,,,"MET054METAR ENHK 311350Z VRB02KT 2500 SN VV012 00/M00 Q1004;",
"01044099999","2008-04-01T03:20:00","4","70.486675","22.139744","6.4","HASVIK, NO","FM-15","ENHK ","V020","999,9,V,0005,1","01590,5,C,N","011265,1,N,1","-0020,1","-0040,1","99999,9","04,5,+00750,1,99,9","07,5,+01590,5,99,9",,,"07,99,1,99,9,99,9,99999,9,99,9,99,9",,"10102,1,99999,9",,,,,"MET060METAR ENHK 010320Z VRB01KT 9999 SCT025 BKN053 M02/M04 Q1010;",
"01044099999","2008-04-01T03:50:00","4","70.486675","22.139744","6.4","HASVIK, NO","FM-15","ENHK ","V020","110,1,N,0041,1","00870,1,C,N","011265,1,N,1","-0010,1","-0040,1","99999,9","02,5,+00600,1,99,9","04,5,+00870,1,99,9","07,5,+01500,1,99,9",,"07,99,1,99,9,99,9,99999,9,99,9,99,9",,"10102,1,99999,9",,,,,"MET067METAR ENHK 010350Z 11008KT 9999 FEW020 SCT029 BKN050 M01/M04 Q1010;",
"01044099999","2008-04-01T04:20:00","4","70.486675","22.139744","6.4","HASVIK, NO","FM-15","ENHK ","V020","100,1,N,0046,1","00900,1,C,N","011265,1,N,1","-0010,1","-0040,1","99999,9","02,5,+00600,1,99,9","07,5,+00900,1,99,9",,,"07,99,1,99,9,99,9,99999,9,99,9,99,9",,"10102,1,99999,9",,,,,"MET060METAR ENHK 010420Z 10009KT 9999 FEW020 BKN030 M01/M04 Q1010;",
"01044099999","2008-04-01T04:50:00","4","70.486675","22.139744","6.4","HASVIK, NO","FM-15","ENHK ","V020","100,1,N,0046,1","00540,1,9,N","004000,1,N,1","-0010,1","-0040,1","99999,9","09,1,+00540,1,99,9",,,,"09,99,1,99,9,99,9,00025,1,99,9,99,9",,"10102,1,99999,9","71,1",,,,"MET056METAR ENHK 010450Z 10009KT 4000 -SN VV018 M01/M04 Q1010;",
"01044099999","2008-04-01T07:50:00","4","70.486675","22.139744","6.4","HASVIK, NO","FM-15","ENHK ","V020","110,1,N,0062,1","00750,1,C,N","009000,1,N,1","+0000,1","-0030,1","99999,9","02,5,+00450,1,99,9","04,5,+00750,1,99,9","07,5,+01500,1,99,9",,"07,99,1,99,9,99,9,99999,9,99,9,99,9",,"10102,1,99999,9","71,1",,,,"MET070METAR ENHK 010750Z 11012KT 9000 -SN FEW015 SCT025 BKN050 00/M03 Q1010;",
"01044099999","2008-04-01T09:20:00","4","70.486675","22.139744","6.4","HASVIK, NO","FM-15","ENHK ","V020","110,1,N,0062,1","00720,1,C,N","011265,1,N,1","+0000,1","-0030,1","99999,9","02,5,+00360,1,99,9","04,5,+00720,1,99,9","07,5,+01290,1,99,9",,"07,99,1,99,9,99,9,99999,9,99,9,99,9",,"10102,1,99999,9","71,1",,,,"MET070METAR ENHK 010920Z 11012KT 9999 -SN FEW012 SCT024 BKN043 00/M03 Q1010;",
"01044099999","2008-04-01T10:20:00","4","70.486675","22.139744","6.4","HASVIK, NO","FM-15","ENHK ","V020","110,1,N,0057,1","01500,1,C,N","011265,1,N,1","+0000,1","-0030,1","99999,9","04,5,+00750,1,99,9","07,5,+01500,1,99,9",,,"07,99,1,99,9,99,9,99999,9,99,9,99,9",,"10102,1,99999,9","71,1",,,,"MET063METAR ENHK 011020Z 11011KT 9999 -SN SCT025 BKN050 00/M03 Q1010;",
"01044099999","2008-04-01T11:20:00","4","70.486675","22.139744","6.4","HASVIK, NO","FM-15","ENHK ","V020","110,1,N,0057,1","00750,1,C,N","011265,1,N,1","+0010,1","-0030,1","99999,9","02,5,+00420,1,99,9","04,5,+00750,1,99,9","07,5,+01380,1,99,9",,"07,99,1,99,9,99,9,99999,9,99,9,99,9",,"10102,1,99999,9","16,1",,,,"MET071METAR ENHK 011120Z 11011KT 9999 VCSH FEW014 SCT025 BKN046 01/M03 Q1010;",
"01044099999","2008-04-01T11:50:00","4","70.486675","22.139744","6.4","HASVIK, NO","FM-15","ENHK ","V020","110,1,N,0057,1","00810,1,C,N","011265,1,N,1","+0010,1","-0030,1","99999,9","02,5,+00510,1,99,9","07,5,+00810,1,99,9",,,"07,99,1,99,9,99,9,99999,9,99,9,99,9",,"10102,1,99999,9","16,1",,,,"MET064METAR ENHK 011150Z 11011KT 9999 VCSH FEW017 BKN027 01/M03 Q1010;",
"01044099999","2008-04-01T12:20:00","4","70.486675","22.139744","6.4","HASVIK, NO","FM-15","ENHK ","V020","110,1,N,0057,1","01380,1,C,N","011265,1,N,1","+0000,1","-0020,1","99999,9","04,5,+00750,1,99,9","07,5,+01380,1,99,9",,,"07,99,1,99,9,99,9,99999,9,99,9,99,9",,"10102,1,99999,9","16,1",,,,"MET064METAR ENHK 011220Z 11011KT 9999 VCSH SCT025 BKN046 00/M02 Q1010;",
"01044099999","2008-04-01T12:50:00","4","70.486675","22.139744","6.4","HASVIK, NO","FM-15","ENHK ","V020","110,1,N,0062,1","00750,1,C,N","008000,1,N,1","+0000,1","-0020,1","99999,9","02,5,+00510,1,99,9","04,5,+00750,1,99,9","07,5,+01560,5,99,9",,"07,99,1,99,9,99,9,99999,9,99,9,99,9",,"10102,1,99999,9","16,1",,,,"MET071METAR ENHK 011250Z 11012KT 8000 VCSH FEW017 SCT025 BKN052 00/M02 Q1010;",
"01044099999","2008-04-01T13:20:00","4","70.486675","22.139744","6.4","HASVIK, NO","FM-15","ENHK ","V020","110,1,N,0062,1","00870,1,C,N","011265,1,N,1","+0010,1","-0020,1","99999,9","02,5,+00510,1,99,9","07,5,+00870,1,99,9",,,"07,99,1,99,9,99,9,99999,9,99,9,99,9",,"10102,1,99999,9","16,1",,,,"MET064METAR ENHK 011320Z 11012KT 9999 VCSH FEW017 BKN029 01/M02 Q1010;",
"01044099999","2008-04-01T13:50:00","4","70.486675","22.139744","6.4","HASVIK, NO","FM-15","ENHK ","V020","110,1,N,0062,1","00900,1,C,N","011265,1,N,1","+0010,1","-0020,1","99999,9","02,5,+00540,1,99,9","07,5,+00900,1,99,9",,,"07,99,1,99,9,99,9,99999,9,99,9,99,9",,"10102,1,99999,9","85,5",,,,"MET065METAR ENHK 011350Z 11012KT 9999 -SHSN FEW018 BKN030 01/M02 Q1010;",
"01044099999","2008-04-01T14:20:00","4","70.486675","22.139744","6.4","HASVIK, NO","FM-15","ENHK ","V020","100,1,N,0057,1","00810,1,C,N","007000,1,N,1","+0010,1","-0020,1","99999,9","02,5,+00510,1,99,9","07,5,+00810,1,99,9",,,"07,99,1,99,9,99,9,99999,9,99,9,99,9",,"10102,1,99999,9","85,5",,,,"MET065METAR ENHK 011420Z 10011KT 7000 -SHSN FEW017 BKN027 01/M02 Q1010;",
"01044099999","2008-04-02T03:20:00","4","70.486675","22.139744","6.4","HASVIK, NO","FM-15","ENHK ","V020","030,1,N,0108,1","01410,1,C,N","009000,1,N,1","+0000,1","-0030,1","99999,9","04,5,+00750,1,99,9","07,5,+01410,1,99,9",,,"07,99,1,99,9,99,9,99999,9,99,9,99,9",,"10149,1,99999,9","38,1",,,"0175,1","MET076METAR ENHK 020320Z 03021G34KT 340V080 9000 BLSN SCT025 BKN047 M00/M03 Q1015;",
"01044099999","2008-04-02T03:50:00","4","70.486675","22.139744","6.4","HASVIK, NO","FM-15","ENHK ","V020","030,1,N,0093,1","00600,1,9,N","004000,1,N,1","-0010,1","-0030,1","99999,9","09,1,+00600,1,99,9",,,,"09,99,1,99,9,99,9,00025,1,99,9,99,9",,"10149,1,99999,9","38,1","86,5",,"0165,1","MET073METAR ENHK 020350Z 03018G32KT 350V070 4000 SHSN BLSN VV020 M01/M03 Q1015;",
"01044099999","2008-04-02T04:20:00","4","70.486675","22.139744","6.4","HASVIK, NO","FM-15","ENHK ","V020","030,1,N,0113,1","00600,1,9,N","003000,1,N,1","-0010,1","-0030,1","99999,9","09,1,+00600,1,99,9",,,,"09,99,1,99,9,99,9,00025,1,99,9,99,9",,"10159,1,99999,9","38,1","86,5",,"0180,1","MET073METAR ENHK 020420Z 03022G35KT 340V070 3000 SHSN BLSN VV020 M01/M03 Q1016;",
"01044099999","2008-04-02T04:50:00","4","70.486675","22.139744","6.4","HASVIK, NO","FM-15","ENHK ","V020","030,1,N,0087,1","00600,1,9,N","003000,1,N,1","-0010,1","-0030,1","99999,9","09,1,+00600,1,99,9",,,,"09,99,1,99,9,99,9,00025,1,99,9,99,9",,"10169,1,99999,9","38,1","86,5",,"0139,1","MET073METAR ENHK 020450Z 03017G27KT 340V070 3000 SHSN BLSN VV020 M01/M03 Q1017;",
"01044099999","2008-04-02T05:20:00","4","70.486675","22.139744","6.4","HASVIK, NO","FM-15","ENHK ","V020","040,1,N,0082,1","00900,1,C,N","006000,1,N,1","-0010,1","-0030,1","99999,9","04,5,+00420,1,99,9","07,5,+00900,1,99,9",,,"07,99,1,99,9,99,9,99999,9,99,9,99,9",,"10169,1,99999,9","38,1","71,1",,"0139,1","MET081METAR ENHK 020520Z 04016G27KT 340V090 6000 -SN -BLSN SCT014 BKN030 M01/M03 Q1017;",
"01044099999","2008-04-02T05:50:00","4","70.486675","22.139744","6.4","HASVIK, NO","FM-15","ENHK ","V020","030,1,N,0072,1","00750,1,C,N","008000,1,N,1","+0000,1","-0040,1","99999,9","02,5,+00450,1,99,9","04,5,+00750,1,99,9","07,5,+01200,1,99,9",,"07,99,1,99,9,99,9,99999,9,99,9,99,9",,"10180,1,99999,9","38,1","71,1",,"0123,1","MET088METAR ENHK 020550Z 03014G24KT 340V080 8000 -SN -BLSN FEW015 SCT025 BKN040 M00/M04 Q1018;",
"01044099999","2008-04-02T11:50:00","4","70.486675","22.139744","6.4","HASVIK, NO","FM-15","ENHK ","V020","030,1,N,0067,1","01200,1,C,N","011265,1,N,1","-0010,1","-0060,1","99999,9","04,5,+00600,1,99,9","07,5,+01200,1,99,9",,,"07,99,1,99,9,99,9,99999,9,99,9,99,9",,"10251,1,99999,9",,,,,"MET068METAR ENHK 021150Z 03013KT 350V070 9999 SCT020 BKN040 M01/M06 Q1025;",
"01044099999","2008-04-02T12:20:00","4","70.486675","22.139744","6.4","HASVIK, NO","FM-15","ENHK ","V020","050,1,N,0062,1","00870,1,C,N","011265,1,N,1","-0010,1","-0060,1","99999,9","02,5,+00600,1,99,9","04,5,+00870,1,99,9","07,5,+01500,1,99,9",,"07,99,1,99,9,99,9,99999,9,99,9,99,9",,"10251,1,99999,9","16,1",,,"0118,1","MET083METAR ENHK 021220Z 05012G23KT 360V090 9999 VCSH FEW020 SCT029 BKN050 M01/M06 Q1025;",
"01044099999","2008-04-02T12:50:00","4","70.486675","22.139744","6.4","HASVIK, NO","FM-15","ENHK ","V020","050,1,N,0046,1","01500,1,C,N","011265,1,N,1","+0000,1","-0070,1","99999,9","04,5,+00750,1,99,9","07,5,+01500,1,99,9",,,"07,99,1,99,9,99,9,99999,9,99,9,99,9",,"10251,1,99999,9",,,,"0098,1","MET071METAR ENHK 021250Z 05009G19KT 350V120 9999 SCT025 BKN050 M00/M07 Q1025;",
"01044099999","2008-04-02T13:20:00","4","70.486675","22.139744","6.4","HASVIK, NO","FM-15","ENHK ","V020","040,1,N,0036,1","01050,1,C,N","011265,1,N,1","-0010,1","-0070,1","99999,9","02,5,+00600,1,99,9","04,5,+01050,1,99,9","07,5,+01500,1,99,9",,"07,99,1,99,9,99,9,99999,9,99,9,99,9",,"10261,1,99999,9",,,,"0087,1","MET078METAR ENHK 021320Z 04007G17KT 330V080 9999 FEW020 SCT035 BKN050 M01/M07 Q1026;",
"01044099999","2008-04-02T13:50:00","4","70.486675","22.139744","6.4","HASVIK, NO","FM-15","ENHK ","V020","060,1,N,0036,1","01500,1,C,N","011265,1,N,1","-0010,1","-0070,1","99999,9","02,5,+00900,1,99,9","07,5,+01500,1,99,9",,,"07,99,1,99,9,99,9,99999,9,99,9,99,9",,"10261,1,99999,9",,,,,"MET068METAR ENHK 021350Z 06007KT 010V090 9999 FEW030 BKN050 M01/M07 Q1026;",
"01044099999","2008-04-03T03:20:00","4","70.486675","22.139744","6.4","HASVIK, NO","FM-15","ENHK ","V020","100,1,N,0051,1","99999,9,C,Y","009900,1,N,1","-0030,1","-0070,1","99999,9",,,,,,,"10312,1,99999,9",,,,,"MET047METAR ENHK 030320Z 10010KT CAVOK M03/M07 Q1031;",
"01044099999","2008-04-03T03:50:00","4","70.486675","22.139744","6.4","HASVIK, NO","FM-15","ENHK ","V020","100,1,N,0046,1","99999,9,C,Y","009900,1,N,1","-0030,1","-0070,1","99999,9",,,,,,,"10312,1,99999,9",,,,,"MET047METAR ENHK 030350Z 10009KT CAVOK M03/M07 Q1031;",
"01044099999","2008-04-03T04:20:00","4","70.486675","22.139744","6.4","HASVIK, NO","FM-15","ENHK ","V020","100,1,N,0051,1","99999,9,C,Y","009900,1,N,1","-0030,1","-0070,1","99999,9",,,,,,,"10312,1,99999,9",,,,,"MET047METAR ENHK 030420Z 10010KT CAVOK M03/M07 Q1031;",
"01044099999","2008-04-03T04:50:00","4","70.486675","22.139744","6.4","HASVIK, NO","FM-15","ENHK ","V020","110,1,N,0051,1","99999,9,C,Y","009900,1,N,1","-0030,1","-0070,1","99999,9",,,,,,,"10312,1,99999,9",,,,,"MET047METAR ENHK 030450Z 11010KT CAVOK M03/M07 Q1031;",
"01044099999","2008-04-03T05:20:00","4","70.486675","22.139744","6.4","HASVIK, NO","FM-15","ENHK ","V020","110,1,N,0062,1","22000,1,9,N","011265,1,N,1","-0030,1","-0070,1","99999,9","02,5,+00750,1,99,9",,,,"02,99,1,99,9,99,9,99999,9,99,9,99,9",,"10312,1,99999,9",,,,,"MET053METAR ENHK 030520Z 11012KT 9999 FEW025 M03/M07 Q1031;",
"01044099999","2008-04-03T05:50:00","4","70.486675","22.139744","6.4","HASVIK, NO","FM-15","ENHK ","V020","110,1,N,0082,1","22000,1,9,N","011265,1,N,1","-0020,1","-0070,1","99999,9","02,5,+00750,1,99,9",,,,"02,99,1,99,9,99,9,99999,9,99,9,99,9",,"10312,1,99999,9",,,,,"MET053METAR ENHK 030550Z 11016KT 9999 FEW025 M02/M07 Q1031;",
"01044099999","2008-04-03T06:20:00","4","70.486675","22.139744","6.4","HASVIK, NO","FM-15","ENHK ","V020","100,1,N,0067,1","99999,9,C,Y","009900,1,N,1","-0020,1","-0070,1","99999,9",,,,,,,"10312,1,99999,9",,,,,"MET047METAR ENHK 030620Z 10013KT CAVOK M02/M07 Q1031;",
"01044099999","2008-04-03T06:50:00","4","70.486675","22.139744","6.4","HASVIK, NO","FM-15","ENHK ","V020","120,1,N,0077,1","99999,9,C,Y","009900,1,N,1","-0020,1","-0070,1","99999,9",,,,,,,"10312,1,99999,9",,,,,"MET047METAR ENHK 030650Z 12015KT CAVOK M02/M07 Q1031;",
"01044099999","2008-04-03T08:20:00","4","70.486675","22.139744","6.4","HASVIK, NO","FM-15","ENHK ","V020","090,1,N,0067,1","99999,9,C,Y","009900,1,N,1","-0020,1","-0070,1","99999,9",,,,,,,"10301,1,99999,9",,,,,"MET047METAR ENHK 030820Z 09013KT CAVOK M02/M07 Q1030;",
"01044099999","2008-04-03T10:50:00","4","70.486675","22.139744","6.4","HASVIK, NO","FM-15","ENHK ","V020","110,1,N,0062,1","22000,1,9,N","011265,1,N,1","-0010,1","-0090,1","99999,9",,,,,"00,99,1,99,9,99,9,99999,9,99,9,99,9",,"10301,1,99999,9",,,,,"MET050METAR ENHK 031050Z 11012KT 9999 SKC M01/M09 Q1030;","Q01    003SCCGA1"
"01044099999","2008-04-03T11:50:00","4","70.486675","22.139744","6.4","HASVIK, NO","FM-15","ENHK ","V020","110,1,N,0067,1","22000,1,9,N","011265,1,N,1","-0010,1","-0090,1","99999,9",,,,,"00,99,1,99,9,99,9,99999,9,99,9,99,9",,"10291,1,99999,9",,,,,"MET050METAR ENHK 031150Z 11013KT 9999 SKC M01/M09 Q1029;","Q01    003SCCGA1"
"01044099999","2008-04-03T12:50:00","4","70.486675","22.139744","6.4","HASVIK, NO","FM-15","ENHK ","V020","110,1,N,0082,1","22000,1,9,N","011265,1,N,1","-0010,1","-0080,1","99999,9",,,,,"00,99,1,99,9,99,9,99999,9,99,9,99,9",,"10291,1,99999,9",,,,,"MET050METAR ENHK 031250Z 11016KT 9999 SKC M01/M08 Q1029;","Q01    003SCCGA1"
"01044099999","2008-04-03T13:50:00","4","70.486675","22.139744","6.4","HASVIK, NO","FM-15","ENHK ","V020","120,1,N,0077,1","22000,1,9,N","011265,1,N,1","-0010,1","-0080,1","99999,9",,,,,"00,99,1,99,9,99,9,99999,9,99,9,99,9",,"10281,1,99999,9",,,,,"MET050METAR ENHK 031350Z 12015KT 9999 SKC M01/M08 Q1028;","Q01    003SCCGA1"
"01044099999","2008-04-03T14:50:00","4","70.486675","22.139744","6.4","HASVIK, NO","FM-15","ENHK ","V020","120,1,N,0082,1","22000,1,9,N","011265,1,N,1","-0010,1","-0070,1","99999,9",,,,,"00,99,1,99,9,99,9,99999,9,99,9,99,9",,"10271,1,99999,9",,,,,"MET050METAR ENHK 031450Z 12016KT 9999 NSC M01/M07 Q1027;","Q01    003SCCGA1"
"01044099999","2008-04-04T03:20:00","4","70.486675","22.139744","6.4","HASVIK, NO","FM-15","ENHK ","V020","100,1,N,0051,1","99999,9,C,N","011265,1,N,1","-0020,1","-0070,1","99999,9","02,5,+00900,1,99,9","04,5,+02700,1,99,9",,,"04,99,1,99,9,99,9,99999,9,99,9,99,9",,"10180,1,99999,9",,,,,"MET060METAR ENHK 040320Z 10010KT 9999 FEW030 SCT090 M02/M07 Q1018;","P01 027003SCOCIG"
"01044099999","2008-04-04T03:50:00","4","70.486675","22.139744","6.4","HASVIK, NO","FM-15","ENHK ","V020","100,1,N,0051,1","99999,9,C,N","011265,1,N,1","-0030,1","-0070,1","99999,9","02,5,+00900,1,99,9","04,5,+02700,1,99,9",,,"04,99,1,99,9,99,9,99999,9,99,9,99,9",,"10180,1,99999,9",,,,,"MET060METAR ENHK 040350Z 10010KT 9999 FEW030 SCT090 M03/M07 Q1018;","P01 027003SCOCIG"
"01044099999","2008-04-04T04:50:00","4","70.486675","22.139744","6.4","HASVIK, NO","FM-15","ENHK ","V020","090,1,N,0046,1","99999,9,C,N","011265,1,N,1","-0030,1","-0070,1","99999,9","02,5,+01200,1,99,9","04,5,+02100,1,99,9",,,"04,99,1,99,9,99,9,99999,9,99,9,99,9",,"10180,1,99999,9",,,,,"MET060METAR ENHK 040450Z 09009KT 9999 FEW040 SCT070 M03/M07 Q1018;","P01 021003SCOCIG"
"01044099999","2008-04-04T05:50:00","4","70.486675","22.139744","6.4","HASVIK, NO","FM-15","ENHK ","V020","090,1,N,0041,1","99999,9,C,N","011265,1,N,1","-0020,1","-0060,1","99999,9","02,5,+01050,1,99,9","04,5,+02700,1,99,9",,,"04,99,1,99,9,99,9,99999,9,99,9,99,9",,"10169,1,99999,9",,,,,"MET060METAR ENHK 040550Z 09008KT 9999 FEW035 SCT090 M02/M06 Q1017;","P01 027003SCOCIG"
"01044099999","2008-04-04T07:20:00","4","70.486675","22.139744","6.4","HASVIK, NO","FM-15","ENHK ","V020","100,1,N,0041,1","99999,9,C,N","011265,1,N,1","-0010,1","-0060,1","99999,9","02,5,+01050,1,99,9","04,5,+02700,1,99,9",,,"04,99,1,99,9,99,9,99999,9,99,9,99,9",,"10159,1,99999,9",,,,,"MET060METAR ENHK 040720Z 10008KT 9999 FEW035 SCT090 M01/M06 Q1016;","P01 027003SCOCIG"
"01044099999","2008-04-04T07:50:00","4","70.486675","22.139744","6.4","HASVIK, NO","FM-15","ENHK ","V020","100,1,N,0036,1","99999,9,C,N","011265,1,N,1","-0010,1","-0060,1","99999,9","02,5,+01050,1,99,9","04,5,+02700,1,99,9",,,"04,99,1,99,9,99,9,99999,9,99,9,99,9",,"10159,1,99999,9",,,,,"MET060METAR ENHK 040750Z 10007KT 9999 FEW035 SCT090 M01/M06 Q1016;","P01 027003SCOCIG"
"01044099999","2008-04-04T08:50:00","4","70.486675","22.139744","6.4","HASVIK, NO","FM-15","ENHK ","V020","100,1,N,0041,1","02700,1,C,N","011265,1,N,1","-0010,1","-0060,1","99999,9","02,5,+01020,1,99,9","07,5,+02700,1,99,9",,,"07,99,1,99,9,99,9,99999,9,99,9,99,9",,"10149,1,99999,9",,,,,"MET060METAR ENHK 040850Z 10008KT 9999 FEW034 BKN090 M01/M06 Q1015;",
"01044099999","2008-04-04T10:50:00","4","70.486675","22.139744","6.4","HASVIK, NO","FM-15","ENHK ","V020","100,1,N,0046,1","02670,5,C,N","011265,1,N,1","-0010,1","-0050,1","99999,9","02,5,+01080,1,99,9","07,5,+02670,5,99,9",,,"07,99,1,99,9,99,9,99999,9,99,9,99,9",,"10139,1,99999,9",,,,,"MET060METAR ENHK 041050Z 10009KT 9999 FEW036 BKN089 M01/M05 Q1014;",
"01044099999","2008-04-04T11:20:00","4","70.486675","22.139744","6.4","HASVIK, NO","FM-15","ENHK ","V020","090,1,N,0046,1","99999,9,C,N","011265,1,N,1","-0010,1","-0050,1","99999,9","02,5,+01080,1,99,9","04,5,+01770,5,99,9",,,"04,99,1,99,9,99,9,99999,9,99,9,99,9",,"10139,1,99999,9",,,,,"MET060METAR ENHK 041120Z 09009KT 9999 FEW036 SCT059 M01/M05 Q1014;","P01 017703SCOCIG"
"01044099999","2008-04-04T11:50:00","4","70.486675","22.139744","6.4","HASVIK, NO","FM-15","ENHK ","V020","100,1,N,0046,1","99999,9,C,N","011265,1,N,1","-0010,1","-0050,1","99999,9","02,5,+01080,1,99,9","04,5,+01710,5,99,9",,,"04,99,1,99,9,99,9,99999,9,99,9,99,9",,"10139,1,99999,9",,,,,"MET060METAR ENHK 041150Z 10009KT 9999 FEW036 SCT057 M01/M05 Q1014;","P01 017103SCOCIG"
"01044099999","2008-04-04T12:20:00","4","70.486675","22.139744","6.4","HASVIK, NO","FM-15","ENHK ","V020","100,1,N,0036,1","99999,9,C,N","011265,1,N,1","-0010,1","-0050,1","99999,9","02,5,+01020,1,99,9","04,5,+01650,5,99,9",,,"04,99,1,99,9,99,9,99999,9,99,9,99,9",,"10139,1,99999,9",,,,,"MET060METAR ENHK 041220Z 10007KT 9999 FEW034 SCT055 M01/M05 Q1014;","P01 016503SCOCIG"
"01044099999","2008-04-04T12:50:00","4","70.486675","22.139744","6.4","HASVIK, NO","FM-15","ENHK ","V020","100,1,N,0051,1","99999,9,C,N","011265,1,N,1","-0010,1","-0050,1","99999,9","02,5,+00960,1,99,9","04,5,+01410,1,99,9",,,"04,99,1,99,9,99,9,99999,9,99,9,99,9",,"10129,1,99999,9","16,1",,,,"MET065METAR ENHK 041250Z 10010KT 9999 VCSH FEW032 SCT047 M01/M05 Q1013;","P01 014103SCOCIG"
"01044099999","2008-04-04T13:20:00","4","70.486675","22.139744","6.4","HASVIK, NO","FM-15","ENHK ","V020","110,1,N,0041,1","99999,9,C,N","011265,1,N,1","-0010,1","-0050,1","99999,9","02,5,+00900,1,99,9","04,5,+01410,1,99,9",,,"04,99,1,99,9,99,9,99999,9,99,9,99,9",,"10129,1,99999,9","16,1",,,,"MET065METAR ENHK 041320Z 11008KT 9999 VCSH FEW030 SCT047 M01/M05 Q1013;","P01 014103SCOCIG"
"01044099999","2008-04-04T13:50:00","4","70.486675","22.139744","6.4","HASVIK, NO","FM-15","ENHK ","V020","120,1,N,0051,1","99999,9,C,N","011265,1,N,1","+0000,1","-0050,1","99999,9","02,5,+00930,1,99,9","04,5,+01470,1,99,9",,,"04,99,1,99,9,99,9,99999,9,99,9,99,9",,"10119,1,99999,9",,,,,"MET060METAR ENHK 041350Z 12010KT 9999 FEW031 SCT049 M00/M05 Q1012;","P01 014703SCOCIG"
"01044099999","2008-04-06T11:50:00","4","70.486675","22.139744","6.4","HASVIK, NO","FM-15","ENHK ","V020","100,1,N,0098,1","22000,1,9,N","011265,1,N,1","-0010,1","-0080,1","99999,9","02,5,+00960,1,99,9",,,,"02,99,1,99,9,99,9,99999,9,99,9,99,9",,"10230,1,99999,9",,,,,"MET053METAR ENHK 061150Z 10019KT 9999 FEW032 M01/M08 Q1023;",
"01044099999","2008-04-06T12:20:00","4","70.486675","22.139744","6.4","HASVIK, NO","FM-15","ENHK ","V020","100,1,N,0087,1","22000,1,9,N","011265,1,N,1","-0020,1","-0080,1","99999,9","02,5,+00990,1,99,9",,,,"02,99,1,99,9,99,9,99999,9,99,9,99,9",,"10240,1,99999,9","16,1",,,,"MET058METAR ENHK 061220Z 10017KT 9999 VCSH FEW033 M02/M08 Q1024;",
"01044099999","2008-04-06T12:50:00","4","70.486675","22.139744","6.4","HASVIK, NO","FM-15","ENHK ","V020","100,1,N,0093,1","22000,1,9,N","011265,1,N,1","-0020,1","-0070,1","99999,9","04,5,+01020,1,99,9",,,,"04,99,1,99,9,99,9,99999,9,99,9,99,9",,"10240,1,99999,9",,,,,"MET053METAR ENHK 061250Z 10018KT 9999 SCT034 M02/M07 Q1024;",
"01044099999","2008-04-06T13:20:00","4","70.486675","22.139744","6.4","HASVIK, NO","FM-15","ENHK ","V020","100,1,N,0082,1","22000,1,9,N","011265,1,N,1","-0020,1","-0080,1","99999,9","04,5,+01020,1,99,9",,,,"04,99,1,99,9,99,9,99999,9,99,9,99,9",,"10240,1,99999,9",,,,,"MET053METAR ENHK 061320Z 10016KT 9999 SCT034 M02/M08 Q1024;",
"01044099999","2008-04-07T03:20:00","4","70.486675","22.139744","6.4","HASVIK, NO","FM-15","ENHK ","V020","140,1,N,0087,1","99999,9,C,Y","009900,1,N,1","-0020,1","-0080,1","99999,9",,,,,,,"10281,1,99999,9",,,,,"MET047METAR ENHK 070320Z 14017KT CAVOK M02/M08 Q1028;",
"01044099999","2008-04-07T04:50:00","4","70.486675","22.139744","6.4","HASVIK, NO","FM-15","ENHK ","V020","140,1,N,0098,1","99999,9,C,Y","009900,1,N,1","-0020,1","-0090,1","99999,9",,,,,,,"10281,1,99999,9",,,,,"MET047METAR ENHK 070450Z 14019KT CAVOK M02/M09 Q1028;",
"01044099999","2008-04-07T05:50:00","4","70.486675","22.139744","6.4","HASVIK, NO","FM-15","ENHK ","V020","120,1,N,0108,1","99999,9,C,Y","009900,1,N,1","-0030,1","-0080,1","99999,9",,,,,,,"10271,1,99999,9",,,,,"MET047METAR ENHK 070550Z 12021KT CAVOK M03/M08 Q1027;",
"01044099999","2008-04-07T12:20:00","4","70.486675","22.139744","6.4","HASVIK, NO","FM-15","ENHK ","V020","130,1,N,0108,1","99999,9,C,Y","009900,1,N,1","-0020,1","-0080,1","99999,9",,,,,,,"10251,1,99999,9",,,,,"MET047METAR ENHK 071220Z 13021KT CAVOK M02/M08 Q1025;",
"01044099999","2008-04-07T13:20:00","4","70.486675","22.139744","6.4","HASVIK, NO","FM-15","ENHK ","V020","130,1,N,0087,1","99999,9,C,Y","009900,1,N,1","-0010,1","-0080,1","99999,9",,,,,,,"10251,1,99999,9",,,,,"MET047METAR ENHK 071320Z 13017KT CAVOK M01/M08 Q1025;",
"01044099999","2008-04-07T13:50:00","4","70.486675","22.139744","6.4","HASVIK, NO","FM-15","ENHK ","V020","130,1,N,0087,1","99999,9,C,Y","009900,1,N,1","-0010,1","-0080,1","99999,9",,,,,,,"10251,1,99999,9",,,,,"MET055METAR ENHK 071350Z 13017KT 100V170 CAVOK M01/M08 Q1025;",
"01044099999","2008-04-08T03:20:00","4","70.486675","22.139744","6.4","HASVIK, NO","FM-15","ENHK ","V020","110,1,N,0077,1","99999,9,C,Y","009900,1,N,1","-0020,1","-0090,1","99999,9",,,,,,,"10169,1,99999,9",,,,,"MET047METAR ENHK 080320Z 11015KT CAVOK M02/M09 Q1017;",
"01044099999","2008-04-08T03:50:00","4","70.486675","22.139744","6.4","HASVIK, NO","FM-15","ENHK ","V020","120,1,N,0087,1","99999,9,C,Y","009900,1,N,1","-0020,1","-0090,1","99999,9",,,,,,,"10169,1,99999,9",,,,,"MET047METAR ENHK 080350Z 12017KT CAVOK M02/M09 Q1017;",
"01044099999","2008-04-08T04:50:00","4","70.486675","22.139744","6.4","HASVIK, NO","FM-15","ENHK ","V020","120,1,N,0087,1","99999,9,C,Y","009900,1,N,1","-0020,1","-0100,1","99999,9",,,,,,,"10159,1,99999,9",,,,,"MET047METAR ENHK 080450Z 12017KT CAVOK M02/M10 Q1016;",
"01044099999","2008-04-08T05:20:00","4","70.486675","22.139744","6.4","HASVIK, NO","FM-15","ENHK ","V020","090,1,N,0093,1","99999,9,C,Y","009900,1,N,1","-0030,1","-0080,1","99999,9",,,,,,,"10159,1,99999,9",,,,,"MET047METAR ENHK 080520Z 09018KT CAVOK M03/M08 Q1016;",
"01044099999","2008-04-08T05:50:00","4","70.486675","22.139744","6.4","HASVIK, NO","FM-15","ENHK ","V020","090,1,N,0087,1","99999,9,C,Y","009900,1,N,1","-0030,1","-0080,1","99999,9",,,,,,,"10159,1,99999,9",,,,,"MET047METAR ENHK 080550Z 09017KT CAVOK M03/M08 Q1016;",
"01044099999","2008-04-08T12:20:00","4","70.486675","22.139744","6.4","HASVIK, NO","FM-15","ENHK ","V020","100,1,N,0082,1","99999,9,C,Y","009900,1,N,1","-0020,1","-0080,1","99999,9",,,,,,,"10129,1,99999,9",,,,,"MET047METAR ENHK 081220Z 10016KT CAVOK M02/M08 Q1013;",
"01044099999","2008-04-08T12:50:00","4","70.486675","22.139744","6.4","HASVIK, NO","FM-15","ENHK ","V020","100,1,N,0082,1","99999,9,C,Y","009900,1,N,1","-0020,1","-0080,1","99999,9",,,,,,,"10129,1,99999,9",,,,,"MET047METAR ENHK 081250Z 10016KT CAVOK M02/M08 Q1013;",
"01044099999","2008-04-08T13:20:00","4","70.486675","22.139744","6.4","HASVIK, NO","FM-15","ENHK ","V020","110,1,N,0077,1","99999,9,C,Y","009900,1,N,1","-0010,1","-0080,1","99999,9",,,,,,,"10119,1,99999,9",,,,,"MET047METAR ENHK 081320Z 11015KT CAVOK M01/M08 Q1012;",
"01044099999","2008-04-08T13:50:00","4","70.486675","22.139744","6.4","HASVIK, NO","FM-15","ENHK ","V020","120,1,N,0087,1","99999,9,C,Y","009900,1,N,1","-0010,1","-0080,1","99999,9",,,,,,,"10119,1,99999,9",,,,,"MET047METAR ENHK 081350Z 12017KT CAVOK M01/M08 Q1012;",
"01044099999","2008-04-08T14:20:00","4","70.486675","22.139744","6.4","HASVIK, NO","FM-15","ENHK ","V020","120,1,N,0072,1","99999,9,C,Y","009900,1,N,1","-0010,1","-0090,1","99999,9",,,,,,,"10119,1,99999,9",,,,,"MET047METAR ENHK 081420Z 12014KT CAVOK M01/M09 Q1012;",
"01044099999","2008-04-09T03:20:00","4","70.486675","22.139744","6.4","HASVIK, NO","FM-15","ENHK ","V020","110,1,N,0113,1","99999,9,C,Y","009900,1,N,1","-0030,1","-0120,1","99999,9",,,,,,,"10119,1,99999,9",,,,,"MET047METAR ENHK 090320Z 11022KT CAVOK M03/M12 Q1012;",
"01044099999","2008-04-09T03:50:00","4","70.486675","22.139744","6.4","HASVIK, NO","FM-15","ENHK ","V020","120,1,N,0123,1","99999,9,C,Y","009900,1,N,1","-0030,1","-0090,1","99999,9",,,,,,,"10119,1,99999,9",,,,,"MET047METAR ENHK 090350Z 12024KT CAVOK M03/M09 Q1012;",
"01044099999","2008-04-09T04:20:00","4","70.486675","22.139744","6.4","HASVIK, NO","FM-15","ENHK ","V020","120,1,N,0118,1","99999,9,C,Y","009900,1,N,1","-0030,1","-0080,1","99999,9",,,,,,,"10108,1,99999,9",,,,,"MET047METAR ENHK 090420Z 12023KT CAVOK M03/M08 Q1011;",
"01044099999","2008-04-09T04:50:00","4","70.486675","22.139744","6.4","HASVIK, NO","FM-15","ENHK ","V020","120,1,N,0123,1","99999,9,C,Y","009900,1,N,1","-0020,1","-0070,1","99999,9",,,,,,,"10119,1,99999,9",,,,,"MET047METAR ENHK 090450Z 12024KT CAVOK M02/M07 Q1012;",
"01044099999","2008-04-09T12:20:00","4","70.486675","22.139744","6.4","HASVIK, NO","FM-15","ENHK ","V020","120,1,N,0118,1","22000,1,9,N","011265,1,N,1","+0000,1","-0060,1","99999,9","04,5,+00810,1,99,9",,,,"04,99,1,99,9,99,9,99999,9,99,9,99,9",,"10129,1,99999,9",,,,,"MET052METAR ENHK 091220Z 12023KT 9999 SCT027 00/M06 Q1013;",
"01044099999","2008-04-09T12:50:00","4","70.486675","22.139744","6.4","HASVIK, NO","FM-15","ENHK ","V020","120,1,N,0113,1","99999,9,C,N","011265,1,N,1","+0000,1","-0060,1","99999,9","02,5,+00750,1,99,9","04,5,+01080,1,99,9",,,"04,99,1,99,9,99,9,99999,9,99,9,99,9",,"10129,1,99999,9","16,1",,,,"MET064METAR ENHK 091250Z 12022KT 9999 VCSH FEW025 SCT036 00/M06 Q1013;","P01 010803SCOCIG"
"01044099999","2008-04-09T13:20:00","4","70.486675","22.139744","6.4","HASVIK, NO","FM-15","ENHK ","V020","120,1,N,0103,1","99999,9,C,N","011265,1,N,1","+0000,1","-0060,1","99999,9","02,5,+00810,1,99,9","04,5,+01080,1,99,9",,,"04,99,1,99,9,99,9,99999,9,99,9,99,9",,"10129,1,99999,9",,,,,"MET059METAR ENHK 091320Z 12020KT 9999 FEW027 SCT036 00/M06 Q1013;","P01 010803SCOCIG"
"01044099999","2008-04-09T13:50:00","4","70.486675","22.139744","6.4","HASVIK, NO","FM-15","ENHK ","V020","120,1,N,0103,1","99999,9,C,N","011265,1,N,1","+0010,1","-0060,1","99999,9","02,5,+00810,1,99,9","04,5,+01080,1,99,9",,,"04,99,1,99,9,99,9,99999,9,99,9,99,9",,"10129,1,99999,9",,,,,"MET059METAR ENHK 091350Z 12020KT 9999 FEW027 SCT036 01/M06 Q1013;","P01 010803SCOCIG"
"01044099999","2008-04-10T03:20:00","4","70.486675","22.139744","6.4","HASVIK, NO","FM-15","ENHK ","V020","110,1,N,0093,1","99999,9,C,N","011265,1,N,1","-0030,1","-0070,1","99999,9","02,5,+00750,1,99,9","04,5,+01350,1,99,9",,,"04,99,1,99,9,99,9,99999,9,99,9,99,9",,"10129,1,99999,9",,,,,"MET060METAR ENHK 100320Z 11018KT 9999 FEW025 SCT045 M03/M07 Q1013;","P01 013503SCOCIG"
"01044099999","2008-04-10T03:50:00","4","70.486675","22.139744","6.4","HASVIK, NO","FM-15","ENHK ","V020","110,1,N,0093,1","22000,1,9,N","011265,1,N,1","-0030,1","-0070,1","99999,9","04,5,+00750,1,99,9",,,,"04,99,1,99,9,99,9,99999,9,99,9,99,9",,"10129,1,99999,9",,,,,"MET053METAR ENHK 100350Z 11018KT 9999 SCT025 M03/M07 Q1013;",
"01044099999","2008-04-10T04:20:00","4","70.486675","22.139744","6.4","HASVIK, NO","FM-15","ENHK ","V020","110,1,N,0082,1","99999,9,C,N","011265,1,N,1","-0030,1","-0070,1","99999,9","02,5,+00750,1,99,9","04,5,+01350,1,99,9",,,"04,99,1,99,9,99,9,99999,9,99,9,99,9",,"10129,1,99999,9",,,,,"MET060METAR ENHK 100420Z 11016KT 9999 FEW025 SCT045 M03/M07 Q1013;","P01 013503SCOCIG"
"01044099999","2008-04-10T07:50:00","4","70.486675","22.139744","6.4","HASVIK, NO","FM-15","ENHK ","V020","110,1,N,0077,1","22000,1,9,N","011265,1,N,1","-0030,1","-0070,1","99999,9","02,5,+00750,1,99,9",,,,"02,99,1,99,9,99,9,99999,9,99,9,99,9",,"10119,1,99999,9",,,,,"MET053METAR ENHK 100750Z 11015KT 9999 FEW025 M03/M07 Q1012;",
"01044099999","2008-04-10T08:50:00","4","70.486675","22.139744","6.4","HASVIK, NO","FM-15","ENHK ","V020","110,1,N,0072,1","22000,1,9,N","011265,1,N,1","-0020,1","-0080,1","99999,9","02,5,+00900,1,99,9",,,,"02,99,1,99,9,99,9,99999,9,99,9,99,9",,"10119,1,99999,9",,,,,"MET053METAR ENHK 100850Z 11014KT 9999 FEW030 M02/M08 Q1012;",
"01044099999","2008-04-10T11:50:00","4","70.486675","22.139744","6.4","HASVIK, NO","FM-15","ENHK ","V020","120,1,N,0082,1","22000,1,9,N","011265,1,N,1","-0020,1","-0070,1","99999,9","02,5,+01230,1,99,9",,,,"02,99,1,99,9,99,9,99999,9,99,9,99,9",,"10119,1,99999,9",,,,,"MET053METAR ENHK 101150Z 12016KT 9999 FEW041 M02/M07 Q1012;",
"01044099999","2008-04-10T12:20:00","4","70.486675","22.139744","6.4","HASVIK, NO","FM-15","ENHK ","V020","110,1,N,0077,1","22000,1,9,N","011265,1,N,1","-0020,1","-0080,1","99999,9","02,5,+01260,1,99,9",,,,"02,99,1,99,9,99,9,99999,9,99,9,99,9",,"10119,1,99999,9",,,,,"MET053METAR ENHK 101220Z 11015KT 9999 FEW042 M02/M08 Q1012;",
"01044099999","2008-04-10T12:50:00","4","70.486675","22.139744","6.4","HASVIK, NO","FM-15","ENHK ","V020","110,1,N,0067,1","22000,1,9,N","011265,1,N,1","-0020,1","-0070,1","99999,9","02,5,+01140,1,99,9",,,,"02,99,1,99,9,99,9,99999,9,99,9,99,9",,"10119,1,99999,9",,,,,"MET053METAR ENHK 101250Z 11013KT 9999 FEW038 M02/M07 Q1012;",
"01044099999","2008-04-10T13:20:00","4","70.486675","22.139744","6.4","HASVIK, NO","FM-15","ENHK ","V020","120,1,N,0072,1","22000,1,9,N","011265,1,N,1","-0010,1","-0070,1","99999,9","02,5,+01080,1,99,9",,,,"02,99,1,99,9,99,9,99999,9,99,9,99,9",,"10108,1,99999,9",,,,,"MET053METAR ENHK 101320Z 12014KT 9999 FEW036 M01/M07 Q1011;",
"01044099999","2008-04-10T13:50:00","4","70.486675","22.139744","6.4","HASVIK, NO","FM-15","ENHK ","V020","130,1,N,0067,1","22000,1,9,N","011265,1,N,1","-0010,1","-0080,1","99999,9","02,5,+01110,1,99,9",,,,"02,99,1,99,9,99,9,99999,9,99,9,99,9",,"10108,1,99999,9",,,,,"MET053METAR ENHK 101350Z 13013KT 9999 FEW037 M01/M08 Q1011;",
"01044099999","2008-04-11T03:20:00","4","70.486675","22.139744","6.4","HASVIK, NO","FM-15","ENHK ","V020","080,1,N,0036,1","99999,9,C,Y","009900,1,N,1","-0050,1","-0110,1","99999,9",,,,,,,"10102,1,99999,9",,,,,"MET055METAR ENHK 110320Z 08007KT 050V110 CAVOK M05/M11 Q1010;",
"01044099999","2008-04-11T03:50:00","4","70.486675","22.139744","6.4","HASVIK, NO","FM-15","ENHK ","V020","100,1,N,0046,1","99999,9,C,Y","009900,1,N,1","-0050,1","-0100,1","99999,9",,,,,,,"10102,1,99999,9",,,,,"MET047METAR ENHK 110350Z 10009KT CAVOK M05/M10 Q1010;",
"01044099999","2008-04-11T04:20:00","4","70.486675","22.139744","6.4","HASVIK, NO","FM-15","ENHK ","V020","110,1,N,0057,1","99999,9,C,Y","009900,1,N,1","-0040,1","-0100,1","99999,9",,,,,,,"10102,1,99999,9",,,,,"MET047METAR ENHK 110420Z 11011KT CAVOK M04/M10 Q1010;",
"01044099999","2008-04-11T04:50:00","4","70.486675","22.139744","6.4","HASVIK, NO","FM-15","ENHK ","V020","100,1,N,0051,1","22000,1,9,N","011265,1,N,1","-0040,1","-0100,1","99999,9",,,,,"00,99,1,99,9,99,9,99999,9,99,9,99,9",,"10102,1,99999,9",,,,,"MET050METAR ENHK 110450Z 10010KT 9999 SKC M04/M10 Q1010;","Q01    003SCCGA1"
"01044099999","2008-04-11T05:20:00","4","70.486675","22.139744","6.4","HASVIK, NO","FM-15","ENHK ","V020","090,1,N,0051,1","99999,9,C,Y","009900,1,N,1","-0050,1","-0100,1","99999,9",,,,,,,"10102,1,99999,9",,,,,"MET047METAR ENHK 110520Z 09010KT CAVOK M05/M10 Q1010;",
"01044099999","2008-04-11T06:20:00","4","70.486675","22.139744","6.4","HASVIK, NO","FM-15","ENHK ","V020","090,1,N,0046,1","99999,9,C,Y","009900,1,N,1","-0040,1","-0100,1","99999,9",,,,,,,"10102,1,99999,9",,,,,"MET047METAR ENHK 110620Z 09009KT CAVOK M04/M10 Q1010;",
"01044099999","2008-04-11T07:20:00","4","70.486675","22.139744","6.4","HASVIK, NO","FM-15","ENHK ","V020","090,1,N,0051,1","99999,9,C,Y","009900,1,N,1","-0040,1","-0100,1","99999,9",,,,,,,"10102,1,99999,9",,,,,"MET047METAR ENHK 110720Z 09010KT CAVOK M04/M10 Q1010;",
"01044099999","2008-04-11T07:50:00","4","70.486675","22.139744","6.4","HASVIK, NO","FM-15","ENHK ","V020","090,1,N,0046,1","99999,9,C,Y","009900,1,N,1","-0040,1","-0100,1","99999,9",,,,,,,"10108,1,99999,9",,,,,"MET047METAR ENHK 110750Z 09009KT CAVOK M04/M10 Q1011;",
"01044099999","2008-04-11T09:20:00","4","70.486675","22.139744","6.4","HASVIK, NO","FM-15","ENHK ","V020","100,1,N,0057,1","99999,9,C,Y","009900,1,N,1","-0040,1","-0100,1","99999,9",,,,,,,"10108,1,99999,9",,,,,"MET047METAR ENHK 110920Z 10011KT CAVOK M04/M10 Q1011;",
"01044099999","2008-04-11T10:50:00","4","70.486675","22.139744","6.4","HASVIK, NO","FM-15","ENHK ","V020","110,1,N,0046,1","99999,9,C,Y","009900,1,N,1","-0030,1","-0090,1","99999,9",,,,,,,"10108,1,99999,9",,,,,"MET047METAR ENHK 111050Z 11009KT CAVOK M03/M09 Q1011;",
"01044099999","2008-04-11T11:20:00","4","70.486675","22.139744","6.4","HASVIK, NO","FM-15","ENHK ","V020","100,1,N,0046,1","99999,9,C,Y","009900,1,N,1","-0030,1","-0090,1","99999,9",,,,,,,"10108,1,99999,9",,,,,"MET047METAR ENHK 111120Z 10009KT CAVOK M03/M09 Q1011;",
"01044099999","2008-04-11T11:50:00","4","70.486675","22.139744","6.4","HASVIK, NO","FM-15","ENHK ","V020","100,1,N,0046,1","99999,9,C,Y","009900,1,N,1","-0030,1","-0090,1","99999,9",,,,,,,"10108,1,99999,9",,,,,"MET047METAR ENHK 111150Z 10009KT CAVOK M03/M09 Q1011;",
"01044099999","2008-04-11T12:20:00","4","70.486675","22.139744","6.4","HASVIK, NO","FM-15","ENHK ","V020","100,1,N,0051,1","99999,9,C,Y","009900,1,N,1","-0030,1","-0090,1","99999,9",,,,,,,"10108,1,99999,9",,,,,"MET047METAR ENHK 111220Z 10010KT CAVOK M03/M09 Q1011;",
"01044099999","2008-04-11T13:20:00","4","70.486675","22.139744","6.4","HASVIK, NO","FM-15","ENHK ","V020","100,1,N,0041,1","99999,9,C,Y","009900,1,N,1","-0020,1","-0090,1","99999,9",,,,,,,"10108,1,99999,9",,,,,"MET047METAR ENHK 111320Z 10008KT CAVOK M02/M09 Q1011;",
"01044099999","2008-04-11T13:50:00","4","70.486675","22.139744","6.4","HASVIK, NO","FM-15","ENHK ","V020","090,1,N,0036,1","99999,9,C,Y","009900,1,N,1","-0020,1","-0090,1","99999,9",,,,,,,"10108,1,99999,9",,,,,"MET047METAR ENHK 111350Z 09007KT CAVOK M02/M09 Q1011;",
"01044099999","2008-04-11T14:20:00","4","70.486675","22.139744","6.4","HASVIK, NO","FM-15","ENHK ","V020","090,1,N,0041,1","99999,9,C,Y","009900,1,N,1","-0020,1","-0090,1","99999,9",,,,,,,"10108,1,99999,9",,,,,"MET047METAR ENHK 111420Z 09008KT CAVOK M02/M09 Q1011;",
"01044099999","2008-04-13T11:50:00","4","70.486675","22.139744","6.4","HASVIK, NO","FM-15","ENHK ","V020","110,1,N,0057,1","99999,9,C,Y","009900,1,N,1","+0030,1","-0030,1","99999,9",,,,,,,"10159,1,99999,9",,,,,"MET046METAR ENHK 131150Z 11011KT CAVOK 03/M03 Q1016;",
"01044099999","2008-04-13T12:20:00","4","70.486675","22.139744","6.4","HASVIK, NO","FM-15","ENHK ","V020","110,1,N,0067,1","99999,9,C,Y","009900,1,N,1","+0030,1","-0020,1","99999,9",,,,,,,"10159,1,99999,9",,,,,"MET046METAR ENHK 131220Z 11013KT CAVOK 03/M02 Q1016;",
"01044099999","2008-04-13T12:50:00","4","70.486675","22.139744","6.4","HASVIK, NO","FM-15","ENHK ","V020","120,1,N,0062,1","99999,9,C,Y","009900,1,N,1","+0030,1","-0020,1","99999,9",,,,,,,"10159,1,99999,9",,,,,"MET046METAR ENHK 131250Z 12012KT CAVOK 03/M02 Q1016;",
"01044099999","2008-04-13T13:20:00","4","70.486675","22.139744","6.4","HASVIK, NO","FM-15","ENHK ","V020","130,1,N,0046,1","99999,9,C,Y","009900,1,N,1","+0030,1","-0030,1","99999,9",,,,,,,"10149,1,99999,9",,,,,"MET046METAR ENHK 131320Z 13009KT CAVOK 03/M03 Q1015;",
"01044099999","2008-04-14T03:20:00","4","70.486675","22.139744","6.4","HASVIK, NO","FM-15","ENHK ","V020","120,1,N,0098,1","01500,1,C,N","011265,1,N,1","-0010,1","-0060,1","99999,9","02,5,+00900,1,99,9","04,5,+01500,1,99,9","07,5,+01860,5,99,9",,"07,99,1,99,9,99,9,99999,9,99,9,99,9",,"10108,1,99999,9",,,,,"MET067METAR ENHK 140320Z 12019KT 9999 FEW030 SCT050 BKN062 M01/M06 Q1011;",
"01044099999","2008-04-14T03:50:00","4","70.486675","22.139744","6.4","HASVIK, NO","FM-15","ENHK ","V020","120,1,N,0093,1","01650,5,C,N","011265,1,N,1","-0020,1","-0050,1","99999,9","02,5,+00900,1,99,9","07,5,+01650,5,99,9",,,"07,99,1,99,9,99,9,99999,9,99,9,99,9",,"10108,1,99999,9",,,,,"MET068METAR ENHK 140350Z 12018KT 090V150 9999 FEW030 BKN055 M02/M05 Q1011;",
"01044099999","2008-04-14T04:50:00","4","70.486675","22.139744","6.4","HASVIK, NO","FM-15","ENHK ","V020","120,1,N,0103,1","01350,1,C,N","011265,1,N,1","-0020,1","-0060,1","99999,9","02,5,+00600,1,99,9","04,5,+01350,1,99,9","07,5,+02250,5,99,9",,"07,99,1,99,9,99,9,99999,9,99,9,99,9",,"10108,1,99999,9",,,,,"MET067METAR ENHK 140450Z 12020KT 9999 FEW020 SCT045 BKN075 M02/M06 Q1011;",
"01044099999","2008-04-14T11:50:00","4","70.486675","22.139744","6.4","HASVIK, NO","FM-15","ENHK ","V020","130,1,N,0108,1","01380,1,C,N","011265,1,N,1","-0030,1","-0070,1","99999,9","02,5,+00780,1,99,9","07,5,+01380,1,99,9",,,"07,99,1,99,9,99,9,99999,9,99,9,99,9",,"10061,1,99999,9","16,1",,,,"MET065METAR ENHK 141150Z 13021KT 9999 VCSH FEW026 BKN046 M03/M07 Q1006;",
"01044099999","2008-04-14T12:20:00","4","70.486675","22.139744","6.4","HASVIK, NO","FM-15","ENHK ","V020","140,1,N,0093,1","01470,1,C,N","011265,1,N,1","-0020,1","-0070,1","99999,9","02,5,+00780,1,99,9","07,5,+01470,1,99,9",,,"07,99,1,99,9,99,9,99999,9,99,9,99,9",,"10061,1,99999,9","16,1",,,,"MET065METAR ENHK 141220Z 14018KT 9999 VCSH FEW026 BKN049 M02/M07 Q1006;",
"01044099999","2008-04-14T12:50:00","4","70.486675","22.139744","6.4","HASVIK, NO","FM-15","ENHK ","V020","140,1,N,0093,1","01500,1,C,N","011265,1,N,1","-0020,1","-0080,1","99999,9","02,5,+00780,1,99,9","07,5,+01500,1,99,9",,,"07,99,1,99,9,99,9,99999,9,99,9,99,9",,"10051,1,99999,9","16,1",,,,"MET065METAR ENHK 141250Z 14018KT 9999 VCSH FEW026 BKN050 M02/M08 Q1005;",
"01044099999","2008-04-14T13:20:00","4","70.486675","22.139744","6.4","HASVIK, NO","FM-15","ENHK ","V020","150,1,N,0087,1","01560,5,C,N","011265,1,N,1","-0020,1","-0070,1","99999,9","02,5,+00750,1,99,9","07,5,+01560,5,99,9",,,"07,99,1,99,9,99,9,99999,9,99,9,99,9",,"10051,1,99999,9","16,1",,,,"MET065METAR ENHK 141320Z 15017KT 9999 VCSH FEW025 BKN052 M02/M07 Q1005;",
"01044099999","2008-04-14T13:50:00","4","70.486675","22.139744","6.4","HASVIK, NO","FM-15","ENHK ","V020","150,1,N,0087,1","01590,5,C,N","011265,1,N,1","-0020,1","-0070,1","99999,9","04,5,+00780,1,99,9","07,5,+01590,5,99,9",,,"07,99,1,99,9,99,9,99999,9,99,9,99,9",,"10051,1,99999,9","16,1",,,,"MET065METAR ENHK 141350Z 15017KT 9999 VCSH SCT026 BKN053 M02/M07 Q1005;",
"01044099999","2008-04-14T14:20:00","4","70.486675","22.139744","6.4","HASVIK, NO","FM-15","ENHK ","V020","150,1,N,0087,1","01620,5,C,N","011265,1,N,1","-0020,1","-0070,1","99999,9","04,5,+00780,1,99,9","07,5,+01620,5,99,9",,,"07,99,1,99,9,99,9,99999,9,99,9,99,9",,"10051,1,99999,9","16,1",,,,"MET065METAR ENHK 141420Z 15017KT 9999 VCSH SCT026 BKN054 M02/M07 Q1005;",
"01044099999","2008-04-15T03:20:00","4","70.486675","22.139744","6.4","HASVIK, NO","FM-15","ENHK ","V020","280,1,N,0067,1","00990,1,C,N","011265,1,N,1","+0030,1","-0030,1","99999,9","02,5,+00720,1,99,9","07,5,+00990,1,99,9",,,"07,99,1,99,9,99,9,99999,9,99,9,99,9",,"10031,1,99999,9",,,,,"MET067METAR ENHK 150320Z 28013KT 200V290 9999 FEW024 BKN033 03/M03 Q1003;",
"01044099999","2008-04-15T03:50:00","4","70.486675","22.139744","6.4","HASVIK, NO","FM-15","ENHK ","V020","280,1,N,0046,1","99999,9,C,N","011265,1,N,1","+0030,1","-0030,1","99999,9","02,5,+00720,1,99,9","04,5,+01020,1,99,9",,,"04,99,1,99,9,99,9,99999,9,99,9,99,9",,"10031,1,99999,9",,,,,"MET059METAR ENHK 150350Z 28009KT 9999 FEW024 SCT034 03/M03 Q1003;","P01 010203SCOCIG"
"01044099999","2008-04-15T04:20:00","4","70.486675","22.139744","6.4","HASVIK, NO","FM-15","ENHK ","V020","240,1,N,0041,1","22000,1,9,N","011265,1,N,1","+0030,1","-0020,1","99999,9","04,5,+01020,1,99,9",,,,"04,99,1,99,9,99,9,99999,9,99,9,99,9",,"10041,1,99999,9",,,,,"MET052METAR ENHK 150420Z 24008KT 9999 SCT034 03/M02 Q1004;",
"01044099999","2008-04-15T04:50:00","4","70.486675","22.139744","6.4","HASVIK, NO","FM-15","ENHK ","V020","250,1,N,0057,1","22000,1,9,N","011265,1,N,1","+0020,1","-0020,1","99999,9","04,5,+01050,1,99,9",,,,"04,99,1,99,9,99,9,99999,9,99,9,99,9",,"10041,1,99999,9",,,,,"MET052METAR ENHK 150450Z 25011KT 9999 SCT035 02/M02 Q1004;",
"01044099999","2008-04-15T12:20:00","4","70.486675","22.139744","6.4","HASVIK, NO","FM-15","ENHK ","V020","270,1,N,0082,1","00840,1,C,N","005000,1,N,1","+0020,1","+0000,1","99999,9","04,5,+00210,1,99,9","07,5,+00840,1,99,9",,,"07,99,1,99,9,99,9,99999,9,99,9,99,9",,"10119,1,99999,9","83,1",,,,"MET082METAR ENHK 151220Z 27016KT 240V300 5000E 9999W -SHRASN SCT007 BKN028 02/M00 Q1012;",
"01044099999","2008-04-15T12:50:00","4","70.486675","22.139744","6.4","HASVIK, NO","FM-15","ENHK ","V020","250,1,N,0067,1","00750,1,C,N","011265,1,N,1","+0020,1","+0000,1","99999,9","02,5,+00210,1,99,9","04,5,+00750,1,99,9","07,5,+01140,1,99,9",,"07,99,1,99,9,99,9,99999,9,99,9,99,9",,"10119,1,99999,9","16,1",,,,"MET086METAR ENHK 151250Z 25013KT 210V280 9999 VCSH FEW007 SCT025 BKN038 02/M00 Q1012 RERASN;",
"01044099999","2008-04-15T13:20:00","4","70.486675","22.139744","6.4","HASVIK, NO","FM-15","ENHK ","V020","260,1,N,0093,1","00600,1,C,N","007000,1,N,1","+0010,1","+0000,1","99999,9","02,5,+00300,1,99,9","04,5,+00600,1,99,9","07,5,+01020,1,99,9",,"07,99,1,99,9,99,9,99999,9,99,9,99,9",,"10129,1,99999,9","63,1","73,1",,,"MET083METAR ENHK 151320Z 26018KT 240V300 7000 -SHSRASN FEW010 SCT020 BKN034 01/M00 Q1013;",
"01044099999","2008-04-15T13:50:00","4","70.486675","22.139744","6.4","HASVIK, NO","FM-15","ENHK ","V020","260,1,N,0077,1","00840,1,C,N","008000,1,N,1","+0020,1","+0000,1","99999,9","04,5,+00270,1,99,9","07,5,+00840,1,99,9",,,"07,99,1,99,9,99,9,99999,9,99,9,99,9",,"10129,1,99999,9","83,1",,,,"MET067METAR ENHK 151350Z 26015KT 8000 -SHRASN SCT009 BKN028 02/M00 Q1013;",
"01044099999","2008-04-16T03:20:00","4","70.486675","22.139744","6.4","HASVIK, NO","FM-15","ENHK ","V020","250,1,N,0031,1","99999,9,C,N","011265,1,N,1","+0010,1","-0040,1","99999,9","02,5,+01230,1,99,9","04,5,+01620,5,99,9",,,"04,99,1,99,9,99,9,99999,9,99,9,99,9",,"10119,1,99999,9",,,,,"MET059METAR ENHK 160320Z 25006KT 9999 FEW041 SCT054 01/M04 Q1012;","P01 016203SCOCIG"
"01044099999","2008-04-16T03:50:00","4","70.486675","22.139744","6.4","HASVIK, NO","FM-15","ENHK ","V020","180,1,N,0021,1","99999,9,C,N","011265,1,N,1","+0010,1","-0030,1","99999,9","02,5,+01350,1,99,9","04,5,+01710,5,99,9",,,"04,99,1,99,9,99,9,99999,9,99,9,99,9",,"10119,1,99999,9",,,,,"MET067METAR ENHK 160350Z 18004KT 130V240 9999 FEW045 SCT057 01/M03 Q1012;","P01 017103SCOCIG"
"01044099999","2008-04-16T04:20:00","4","70.486675","22.139744","6.4","HASVIK, NO","FM-15","ENHK ","V020","150,1,N,0036,1","99999,9,C,Y","009900,1,N,1","+0010,1","-0040,1","99999,9",,,,,,,"10108,1,99999,9",,,,,"MET046METAR ENHK 160420Z 15007KT CAVOK 01/M04 Q1011;",
"01044099999","2008-04-16T04:50:00","4","70.486675","22.139744","6.4","HASVIK, NO","FM-15","ENHK ","V020","150,1,N,0036,1","99999,9,C,Y","009900,1,N,1","+0020,1","-0040,1","99999,9",,,,,,,"10108,1,99999,9",,,,,"MET046METAR ENHK 160450Z 15007KT CAVOK 02/M04 Q1011;",
"01044099999","2008-04-16T05:20:00","4","70.486675","22.139744","6.4","HASVIK, NO","FM-15","ENHK ","V020","160,1,N,0031,1","99999,9,C,Y","009900,1,N,1","+0020,1","-0040,1","99999,9",,,,,,,"10102,1,99999,9",,,,,"MET046METAR ENHK 160520Z 16006KT CAVOK 02/M04 Q1010;",
"01044099999","2008-04-16T05:50:00","4","70.486675","22.139744","6.4","HASVIK, NO","FM-15","ENHK ","V020","150,1,N,0041,1","99999,9,C,Y","009900,1,N,1","+0030,1","-0050,1","99999,9",,,,,,,"10102,1,99999,9",,,,,"MET046METAR ENHK 160550Z 15008KT CAVOK 03/M05 Q1010;",
"01044099999","2008-04-16T09:50:00","4","70.486675","22.139744","6.4","HASVIK, NO","FM-15","ENHK ","V020","160,1,N,0057,1","99999,9,C,N","011265,1,N,1","+0040,1","-0070,1","99999,9","02,5,+00870,1,99,9","04,5,+02100,1,99,9",,,"04,99,1,99,9,99,9,99999,9,99,9,99,9",,"10051,1,99999,9",,,,,"MET059METAR ENHK 160950Z 16011KT 9999 FEW029 SCT070 04/M07 Q1005;","P01 021003SCOCIG"
"01044099999","2008-04-16T11:50:00","4","70.486675","22.139744","6.4","HASVIK, NO","FM-15","ENHK ","V020","260,1,N,0077,1","00390,1,C,N","005000,1,N,1","+0030,1","-0040,1","99999,9","02,5,+00300,1,99,9","04,5,+00390,1,99,9","07,5,+00600,1,99,9",,"07,99,1,99,9,99,9,99999,9,99,9,99,9",,"10051,1,99999,9","83,1",,,"0154,1","MET086METAR ENHK 161150Z 26015G30KT 220V300 5000W -SHRASN FEW010 SCT013 BKN020 03/M04 Q1005;",
"01044099999","2008-04-16T12:20:00","4","70.486675","22.139744","6.4","HASVIK, NO","FM-15","ENHK ","V020","270,1,N,0077,1","00210,1,9,N","001500,1,N,1","+0010,1","+0000,1","99999,9","09,1,+00210,1,99,9",,,,"09,99,1,99,9,99,9,00025,1,99,9,99,9",,"10061,1,99999,9","63,1","73,1",,,"MET064METAR ENHK 161220Z 27015KT 240V300 1500 SNRA VV007 01/M00 Q1006;",
"01044099999","2008-04-16T12:50:00","4","70.486675","22.139744","6.4","HASVIK, NO","FM-15","ENHK ","V020","270,1,N,0113,1","00420,1,C,N","003000,1,N,1","+0000,1","-0010,1","99999,9","04,5,+00210,1,99,9","07,5,+00420,1,99,9",,,"07,99,1,99,9,99,9,99999,9,99,9,99,9",,"10061,1,99999,9","80,1",,,"0175,1","MET079METAR ENHK 161250Z 27022G34KT 240V310 3000 -SHSNRA SCT007 BKN014 M00/M01 Q1006;",
"01044099999","2008-04-16T13:20:00","4","70.486675","22.139744","6.4","HASVIK, NO","FM-15","ENHK ","V020","270,1,N,0087,1","00450,1,C,N","011265,1,N,1","+0000,1","-0010,1","99999,9","02,5,+00210,1,99,9","04,5,+00450,1,99,9","07,5,+00960,1,99,9",,"07,99,1,99,9,99,9,99999,9,99,9,99,9",,"10061,1,99999,9","16,1",,,,"MET086METAR ENHK 161320Z 27017KT 230V300 9999 VCSH FEW007 SCT015 BKN032 00/M01 Q1006 RESNRA;",
"01044099999","2008-04-16T13:50:00","4","70.486675","22.139744","6.4","HASVIK, NO","FM-15","ENHK ","V020","270,1,N,0087,1","00600,1,C,N","008000,1,N,1","+0010,1","+0000,1","99999,9","02,5,+00240,1,99,9","07,5,+00600,1,99,9",,,"07,99,1,99,9,99,9,99999,9,99,9,99,9",,"10061,1,99999,9","16,1",,,,"MET072METAR ENHK 161350Z 27017KT 220V300 8000 VCSH FEW008 BKN020 01/M00 Q1006;",
"01044099999","2008-04-17T03:20:00","4","70.486675","22.139744","6.4","HASVIK, NO","FM-15","ENHK ","V020","290,1,N,0108,1","99999,9,C,N","011265,1,N,1","-0010,1","-0040,1","99999,9","02,5,+00570,1,99,9","04,5,+00870,1,99,9",,,"04,99,1,99,9,99,9,99999,9,99,9,99,9",,"10081,1,99999,9","16,1",,,,"MET065METAR ENHK 170320Z 29021KT 9999 VCSH FEW019 SCT029 M01/M04 Q1008;","P01 008703SCOCIG"
"01044099999","2008-04-17T03:50:00","4","70.486675","22.139744","6.4","HASVIK, NO","FM-15","ENHK ","V020","280,1,N,0087,1","99999,9,C,N","011265,1,N,1","-0010,1","-0040,1","99999,9","02,5,+00540,1,99,9","04,5,+00900,1,99,9",,,"04,99,1,99,9,99,9,99999,9,99,9,99,9",,"10081,1,99999,9","16,1",,,,"MET071METAR ENHK 170350Z 28017KT 9999 6000W VCSH FEW018 SCT030 M01/M04 Q1008;","P01 009003SCOCIG"
"01044099999","2008-04-17T04:20:00","4","70.486675","22.139744","6.4","HASVIK, NO","FM-15","ENHK ","V020","310,1,N,0098,1","00870,1,C,N","008000,1,N,1","-0010,1","-0030,1","99999,9","02,5,+00570,1,99,9","07,5,+00870,1,99,9",,,"07,99,1,99,9,99,9,99999,9,99,9,99,9",,"10071,1,99999,9","86,5",,,,"MET065METAR ENHK 170420Z 31019KT 8000 SHSN FEW019 BKN029 M01/M03 Q1007;",
"01044099999","2008-04-17T04:50:00","4","70.486675","22.139744","6.4","HASVIK, NO","FM-15","ENHK ","V020","300,1,N,0098,1","00900,1,C,N","007000,1,N,1","-0010,1","-0040,1","99999,9","02,5,+00540,1,99,9","07,5,+00900,1,99,9",,,"07,99,1,99,9,99,9,99999,9,99,9,99,9",,"10071,1,99999,9","86,5",,,,"MET065METAR ENHK 170450Z 30019KT 7000 SHSN FEW018 BKN030 M01/M04 Q1007;",
"01044099999","2008-04-17T05:20:00","4","70.486675","22.139744","6.4","HASVIK, NO","FM-15","ENHK ","V020","300,1,N,0072,1","00870,1,C,N","006000,1,N,1","-0010,1","-0030,1","99999,9","02,5,+00570,1,99,9","07,5,+00870,1,99,9",,,"07,99,1,99,9,99,9,99999,9,99,9,99,9",,"10071,1,99999,9","86,5",,,,"MET065METAR ENHK 170520Z 30014KT 6000 SHSN FEW019 BKN029 M01/M03 Q1007;",
"01044099999","2008-04-17T05:50:00","4","70.486675","22.139744","6.4","HASVIK, NO","FM-15","ENHK ","V020","290,1,N,0087,1","00180,1,9,N","003000,1,N,1","-0010,1","-0030,1","99999,9","09,1,+00180,1,99,9",,,,"09,99,1,99,9,99,9,00025,1,99,9,99,9",,"10071,1,99999,9","73,1",,,,"MET055METAR ENHK 170550Z 29017KT 3000 SN VV006 M01/M03 Q1007;",
"01044099999","2008-04-17T12:50:00","4","70.486675","22.139744","6.4","HASVIK, NO","FM-15","ENHK ","V020","310,1,N,0087,1","00840,1,C,N","006000,1,N,1","+0000,1","-0040,1","99999,9","02,5,+00540,1,99,9","04,5,+00840,1,99,9","07,5,+01260,1,99,9",,"07,99,1,99,9,99,9,99999,9,99,9,99,9",,"10081,1,99999,9","85,5",,,,"MET073METAR ENHK 171250Z 31017KT 6000 -SHSN FEW018 SCT028 BKN042 M00/M04 Q1008;",
"01044099999","2008-04-17T13:20:00","4","70.486675","22.139744","6.4","HASVIK, NO","FM-15","ENHK ","V020","310,1,N,0103,1","01050,1,C,N","011265,1,N,1","+0000,1","-0040,1","99999,9","02,5,+00600,1,99,9","04,5,+01050,1,99,9","07,5,+01500,1,99,9",,"07,99,1,99,9,99,9,99999,9,99,9,99,9",,"10081,1,99999,9","16,1",,,,"MET077METAR ENHK 171320Z 31020KT 9999 VCSH FEW020 SCT035 BKN050 00/M04 Q1008 -RESN;",
"01044099999","2008-04-17T13:50:00","4","70.486675","22.139744","6.4","HASVIK, NO","FM-15","ENHK ","V020","310,1,N,0098,1","00600,1,C,N","011265,1,N,1","+0000,1","-0040,1","99999,9","02,5,+00360,1,99,9","04,5,+00600,1,99,9","07,5,+01050,1,99,9",,"07,99,1,99,9,99,9,99999,9,99,9,99,9",,"10081,1,99999,9","71,1",,,,"MET070METAR ENHK 171350Z 31019KT 9999 -SN FEW012 SCT020 BKN035 00/M04 Q1008;",
"01044099999","2008-04-17T14:20:00","4","70.486675","22.139744","6.4","HASVIK, NO","FM-15","ENHK ","V020","310,1,N,0098,1","00840,1,C,N","011265,1,N,1","+0000,1","-0040,1","99999,9","02,5,+00540,1,99,9","07,5,+00840,1,99,9",,,"07,99,1,99,9,99,9,99999,9,99,9,99,9",,"10081,1,99999,9","71,1",,,,"MET063METAR ENHK 171420Z 31019KT 9999 -SN FEW018 BKN028 00/M04 Q1008;",
"01044099999","2008-04-18T03:20:00","4","70.486675","22.139744","6.4","HASVIK, NO","FM-15","ENHK ","V020","320,1,N,0113,1","00480,1,C,N","008000,1,N,1","+0000,1","-0020,1","99999,9","02,5,+00390,1,99,9","04,5,+00480,1,99,9","07,5,+00780,1,99,9",,"07,99,1,99,9,99,9,99999,9,99,9,99,9",,"10020,1,99999,9","86,5",,,,"MET072METAR ENHK 180320Z 32022KT 8000 SHSN FEW013 SCT016 BKN026 M00/M02 Q1002;",
"01044099999","2008-04-18T03:50:00","4","70.486675","22.139744","6.4","HASVIK, NO","FM-15","ENHK ","V020","320,1,N,0098,1","00480,1,C,N","011265,1,N,1","+0000,1","-0030,1","99999,9","02,5,+00390,1,99,9","04,5,+00480,1,99,9","07,5,+00780,1,99,9",,"07,99,1,99,9,99,9,99999,9,99,9,99,9",,"10010,1,99999,9","16,1",,,,"MET076METAR ENHK 180350Z 32019KT 9999 VCSH FEW013 SCT016 BKN026 00/M03 Q1001 RESN;",
"01044099999","2008-04-18T04:20:00","4","70.486675","22.139744","6.4","HASVIK, NO","FM-15","ENHK ","V020","310,1,N,0098,1","00750,1,C,N","011265,1,N,1","+0000,1","-0040,1","99999,9","02,5,+00480,1,99,9","07,5,+00750,1,99,9",,,"07,99,1,99,9,99,9,99999,9,99,9,99,9",,"10000,1,99999,9","16,1",,,,"MET064METAR ENHK 180420Z 31019KT 9999 VCSH FEW016 BKN025 00/M04 Q1000;",
"01044099999","2008-04-18T04:50:00","4","70.486675","22.139744","6.4","HASVIK, NO","FM-15","ENHK ","V020","330,1,N,0098,1","00810,1,C,N","011265,1,N,1","+0000,1","-0060,1","99999,9","02,5,+00480,1,99,9","07,5,+00810,1,99,9",,,"07,99,1,99,9,99,9,99999,9,99,9,99,9",,"10000,1,99999,9","16,1",,,,"MET065METAR ENHK 180450Z 33019KT 9999 VCSH FEW016 BKN027 M00/M06 Q1000;",
"01044099999","2008-04-18T05:20:00","4","70.486675","22.139744","6.4","HASVIK, NO","FM-15","ENHK ","V020","320,1,N,0098,1","00870,1,C,N","011265,1,N,1","+0000,1","-0050,1","99999,9","02,5,+00480,1,99,9","07,5,+00870,1,99,9",,,"07,99,1,99,9,99,9,99999,9,99,9,99,9",,"10000,1,99999,9","85,5",,,,"MET066METAR ENHK 180520Z 32019KT 9999 -SHSN FEW016 BKN029 M00/M05 Q1000;",
"01044099999","2008-04-18T05:50:00","4","70.486675","22.139744","6.4","HASVIK, NO","FM-15","ENHK ","V020","320,1,N,0108,1","00870,1,C,N","006000,1,N,1","-0010,1","-0030,1","99999,9","02,5,+00480,1,99,9","07,5,+00870,1,99,9",,,"07,99,1,99,9,99,9,99999,9,99,9,99,9",,"10010,1,99999,9","86,5",,,,"MET065METAR ENHK 180550Z 32021KT 6000 SHSN FEW016 BKN029 M01/M03 Q1001;",
"01044099999","2008-04-18T06:20:00","4","70.486675","22.139744","6.4","HASVIK, NO","FM-15","ENHK ","V020","320,1,N,0093,1","00870,1,C,N","007000,1,N,1","-0010,1","-0030,1","99999,9","02,5,+00480,1,99,9","07,5,+00870,1,99,9",,,"07,99,1,99,9,99,9,99999,9,99,9,99,9",,"10000,1,99999,9","86,5",,,,"MET065METAR ENHK 180620Z 32018KT 7000 SHSN FEW016 BKN029 M01/M03 Q1000;",
"01044099999","2008-04-18T06:50:00","4","70.486675","22.139744","6.4","HASVIK, NO","FM-15","ENHK ","V020","330,1,N,0072,1","00900,1,C,N","011265,1,N,1","-0010,1","-0030,1","99999,9","02,5,+00570,1,99,9","07,5,+00900,1,99,9",,,"07,99,1,99,9,99,9,99999,9,99,9,99,9",,"10010,1,99999,9","85,5",,,,"MET066METAR ENHK 180650Z 33014KT 9999 -SHSN FEW019 BKN030 M01/M03 Q1001;",
"01044099999","2008-04-18T07:50:00","4","70.486675","22.139744","6.4","HASVIK, NO","FM-15","ENHK ","V020","340,1,N,0067,1","00870,1,C,N","008000,1,N,1","-0020,1","-0030,1","99999,9","04,5,+00660,1,99,9","07,5,+00870,1,99,9",,,"07,99,1,99,9,99,9,99999,9,99,9,99,9",,"10020,1,99999,9","71,1",,,,"MET064METAR ENHK 180750Z 34013KT 8000 -SN SCT022 BKN029 M02/M03 Q1002;",
"01044099999","2008-04-18T12:20:00","4","70.486675","22.139744","6.4","HASVIK, NO","FM-15","ENHK ","V020","300,1,N,0108,1","01110,1,C,N","011265,1,N,1","-0010,1","-0060,1","99999,9","02,5,+00750,1,99,9","07,5,+01110,1,99,9",,,"07,99,1,99,9,99,9,99999,9,99,9,99,9",,"10051,1,99999,9","38,1",,,,"MET080METAR ENHK 181220Z 30021KT 270V330 9999 -BLSN FEW025 BKN037 M01/M06 Q1005 -RESN;",
"01044099999","2008-04-19T20:20:00","4","70.486675","22.139744","6.4","HASVIK, NO","FM-15","ENHK ","V020","330,1,N,0057,1","00300,1,9,N","000500,1,N,1","-0010,1","-0020,1","99999,9","09,1,+00300,1,99,9",,,,"09,99,1,99,9,99,9,00025,1,99,9,99,9",,"10091,1,99999,9","86,5",,,,"MET057METAR ENHK 192020Z 33011KT 0500 SHSN VV010 M01/M02 Q1009;",
"01044099999","2008-04-19T20:50:00","4","70.486675","22.139744","6.4","HASVIK, NO","FM-15","ENHK ","V020","310,1,N,0062,1","00450,1,C,N","011265,1,N,1","-0010,1","-0020,1","99999,9","02,5,+00300,1,99,9","04,5,+00450,1,99,9","07,5,+00600,1,99,9",,"07,99,1,99,9,99,9,99999,9,99,9,99,9",,"10091,1,99999,9",,,,,"MET067METAR ENHK 192050Z 31012KT 9999 FEW010 SCT015 BKN020 M01/M02 Q1009;",
"01044099999","2008-04-19T21:50:00","4","70.486675","22.139744","6.4","HASVIK, NO","FM-15","ENHK ","V020","350,1,N,0031,1","00450,1,C,N","007000,1,N,1","-0010,1","-0020,1","99999,9","02,5,+00300,1,99,9","04,5,+00450,1,99,9","07,5,+00750,1,99,9",,"07,99,1,99,9,99,9,99999,9,99,9,99,9",,"10091,1,99999,9",,,,,"MET067METAR ENHK 192150Z 35006KT 7000 FEW010 SCT015 BKN025 M01/M02 Q1009;",
"01044099999","2008-04-19T22:50:00","4","70.486675","22.139744","6.4","HASVIK, NO","FM-15","ENHK ","V020","320,1,N,0031,1","00750,1,C,N","011265,1,N,1","-0010,1","-0020,1","99999,9","02,5,+00450,1,99,9","07,5,+00750,1,99,9",,,"07,99,1,99,9,99,9,99999,9,99,9,99,9",,"10091,1,99999,9",,,,,"MET060METAR ENHK 192250Z 32006KT 9999 FEW015 BKN025 M01/M02 Q1009;",
"01044099999","2008-04-20T11:50:00","4","70.486675","22.139744","6.4","HASVIK, NO","FM-15","ENHK ","V020","300,1,N,0067,1","01050,1,C,N","011265,1,N,1","+0020,1","-0040,1","99999,9","04,5,+00600,1,99,9","07,5,+01050,1,99,9",,,"07,99,1,99,9,99,9,99999,9,99,9,99,9",,"10102,1,99999,9",,,,,"MET059METAR ENHK 201150Z 30013KT 9999 SCT020 BKN035 02/M04 Q1010;",
"01044099999","2008-04-20T12:20:00","4","70.486675","22.139744","6.4","HASVIK, NO","FM-15","ENHK ","V020","290,1,N,0072,1","01050,1,C,N","011265,1,N,1","+0020,1","-0040,1","99999,9","02,5,+00600,1,99,9","07,5,+01050,1,99,9",,,"07,99,1,99,9,99,9,99999,9,99,9,99,9",,"10102,1,99999,9",,,,,"MET059METAR ENHK 201220Z 29014KT 9999 FEW020 BKN035 02/M04 Q1010;",
"01044099999","2008-04-20T12:50:00","4","70.486675","22.139744","6.4","HASVIK, NO","FM-15","ENHK ","V020","310,1,N,0077,1","99999,9,C,N","011265,1,N,1","+0020,1","-0040,1","99999,9","02,5,+00600,1,99,9","04,5,+01050,1,99,9",,,"04,99,1,99,9,99,9,99999,9,99,9,99,9",,"10102,1,99999,9",,,,,"MET059METAR ENHK 201250Z 31015KT 9999 FEW020 SCT035 02/M04 Q1010;","P01 010503SCOCIG"
"01044099999","2008-04-20T13:20:00","4","70.486675","22.139744","6.4","HASVIK, NO","FM-15","ENHK ","V020","300,1,N,0082,1","99999,9,C,N","011265,1,N,1","+0010,1","-0050,1","99999,9","02,5,+00600,1,99,9","04,5,+01050,1,99,9",,,"04,99,1,99,9,99,9,99999,9,99,9,99,9",,"10102,1,99999,9",,,,,"MET059METAR ENHK 201320Z 30016KT 9999 FEW020 SCT035 01/M05 Q1010;","P01 010503SCOCIG"
"01044099999","2008-04-21T03:20:00","4","70.486675","22.139744","6.4","HASVIK, NO","FM-15","ENHK ","V020","330,1,N,0057,1","00870,1,C,N","011265,1,N,1","+0000,1","-0020,1","99999,9","02,5,+00480,1,99,9","07,5,+00870,1,99,9",,,"07,99,1,99,9,99,9,99999,9,99,9,99,9",,"10119,1,99999,9","16,1",,,,"MET065METAR ENHK 210320Z 33011KT 9999 VCSH FEW016 BKN029 M00/M02 Q1012;",
"01044099999","2008-04-21T03:50:00","4","70.486675","22.139744","6.4","HASVIK, NO","FM-15","ENHK ","V020","300,1,N,0072,1","99999,9,C,N","011265,1,N,1","-0010,1","-0020,1","99999,9","02,5,+00480,1,99,9","04,5,+00900,1,99,9",,,"04,99,1,99,9,99,9,99999,9,99,9,99,9",,"10119,1,99999,9","16,1",,,,"MET065METAR ENHK 210350Z 30014KT 9999 VCSH FEW016 SCT030 M01/M02 Q1012;","P01 009003SCOCIG"
"01044099999","2008-04-21T04:20:00","4","70.486675","22.139744","6.4","HASVIK, NO","FM-15","ENHK ","V020","330,1,N,0077,1","00930,1,C,N","011265,1,N,1","+0000,1","-0020,1","99999,9","02,5,+00480,1,99,9","07,5,+00930,1,99,9",,,"07,99,1,99,9,99,9,99999,9,99,9,99,9",,"10129,1,99999,9","16,1",,,,"MET065METAR ENHK 210420Z 33015KT 9999 VCSH FEW016 BKN031 M00/M02 Q1013;",
"01044099999","2008-04-21T04:50:00","4","70.486675","22.139744","6.4","HASVIK, NO","FM-15","ENHK ","V020","330,1,N,0062,1","00900,1,C,N","011265,1,N,1","-0010,1","-0030,1","99999,9","02,5,+00510,1,99,9","07,5,+00900,1,99,9",,,"07,99,1,99,9,99,9,99999,9,99,9,99,9",,"10129,1,99999,9","16,1",,,,"MET065METAR ENHK 210450Z 33012KT 9999 VCSH FEW017 BKN030 M01/M03 Q1013;",
"01044099999","2008-04-21T05:50:00","4","70.486675","22.139744","6.4","HASVIK, NO","FM-15","ENHK ","V020","330,1,N,0041,1","00870,1,C,N","011265,1,N,1","-0010,1","-0020,1","99999,9","02,5,+00480,1,99,9","04,5,+00870,1,99,9","07,5,+01410,1,99,9",,"07,99,1,99,9,99,9,99999,9,99,9,99,9",,"10129,1,99999,9","16,1",,,,"MET072METAR ENHK 210550Z 33008KT 9999 VCSH FEW016 SCT029 BKN047 M01/M02 Q1013;",
"01044099999","2008-04-21T12:20:00","4","70.486675","22.139744","6.4","HASVIK, NO","FM-15","ENHK ","V020","320,1,N,0093,1","00450,1,C,N","007000,1,N,1","+0000,1","-0020,1","99999,9","02,5,+00300,1,99,9","04,5,+00450,1,99,9","07,5,+00750,1,99,9",,"07,99,1,99,9,99,9,99999,9,99,9,99,9",,"10159,1,99999,9","86,5",,,,"MET071METAR ENHK 211220Z 32018KT 7000 SHSN FEW010 SCT015 BKN025 00/M02 Q1016;",
"01044099999","2008-04-21T12:50:00","4","70.486675","22.139744","6.4","HASVIK, NO","FM-15","ENHK ","V020","310,1,N,0118,1","00450,1,C,N","011265,1,N,1","+0000,1","-0010,1","99999,9","02,5,+00300,1,99,9","04,5,+00450,1,99,9","07,5,+00750,1,99,9",,"07,99,1,99,9,99,9,99999,9,99,9,99,9",,"10159,1,99999,9","16,1",,,,"MET071METAR ENHK 211250Z 31023KT 9999 VCSH FEW010 SCT015 BKN025 00/M01 Q1016;",
"01044099999","2008-04-21T13:20:00","4","70.486675","22.139744","6.4","HASVIK, NO","FM-15","ENHK ","V020","320,1,N,0118,1","00750,1,C,N","011265,1,N,1","+0010,1","-0020,1","99999,9","02,5,+00450,1,99,9","04,5,+00750,1,99,9","07,5,+01050,1,99,9",,"07,99,1,99,9,99,9,99999,9,99,9,99,9",,"10159,1,99999,9","16,1",,,,"MET071METAR ENHK 211320Z 32023KT 9999 VCSH FEW015 SCT025 BKN035 01/M02 Q1016;",
"01044099999","2008-04-21T14:20:00","4","70.486675","22.139744","6.4","HASVIK, NO","FM-15","ENHK ","V020","300,1,N,0072,1","00750,1,C,N","011265,1,N,1","+0000,1","-0010,1","99999,9","02,5,+00450,1,99,9","04,5,+00750,1,99,9","07,5,+01050,1,99,9",,"07,99,1,99,9,99,9,99999,9,99,9,99,9",,"10169,1,99999,9","16,1",,,,"MET071METAR ENHK 211420Z 30014KT 9999 VCSH FEW015 SCT025 BKN035 00/M01 Q1017;",
"01044099999","2008-04-22T03:20:00","4","70.486675","22.139744","6.4","HASVIK, NO","FM-15","ENHK ","V020","320,1,N,0093,1","00750,1,C,N","011265,1,N,1","+0010,1","-0030,1","99999,9","02,5,+00540,1,99,9","04,5,+00750,1,99,9","07,5,+01110,1,99,9",,"07,99,1,99,9,99,9,99999,9,99,9,99,9",,"10190,1,99999,9","16,1",,,,"MET076METAR ENHK 220320Z 32018KT 9999 VCSH FEW018 SCT025 BKN037 01/M03 Q1019 RESN;",
"01044099999","2008-04-22T03:50:00","4","70.486675","22.139744","6.4","HASVIK, NO","FM-15","ENHK ","V020","330,1,N,0093,1","00840,1,C,N","011265,1,N,1","+0010,1","-0040,1","99999,9","04,5,+00540,1,99,9","07,5,+00840,1,99,9",,,"07,99,1,99,9,99,9,99999,9,99,9,99,9",,"10190,1,99999,9","73,1",,,,"MET062METAR ENHK 220350Z 33018KT 9999 SN SCT018 BKN028 01/M04 Q1019;",
"01044099999","2008-04-22T04:20:00","4","70.486675","22.139744","6.4","HASVIK, NO","FM-15","ENHK ","V020","310,1,N,0093,1","00540,1,C,N","009000,1,N,1","+0010,1","-0030,1","99999,9","02,5,+00450,1,99,9","04,5,+00540,1,99,9","07,5,+00900,1,99,9",,"07,99,1,99,9,99,9,99999,9,99,9,99,9",,"10190,1,99999,9","71,1",,,,"MET070METAR ENHK 220420Z 31018KT 9000 -SN FEW015 SCT018 BKN030 01/M03 Q1019;",
"01044099999","2008-04-22T04:50:00","4","70.486675","22.139744","6.4","HASVIK, NO","FM-15","ENHK ","V020","300,1,N,0093,1","00750,1,C,N","011265,1,N,1","+0010,1","-0020,1","99999,9","02,5,+00450,1,99,9","04,5,+00750,1,99,9","07,5,+01020,1,99,9",,"07,99,1,99,9,99,9,99999,9,99,9,99,9",,"10190,1,99999,9","16,1",,,,"MET076METAR ENHK 220450Z 30018KT 9999 VCSH FEW015 SCT025 BKN034 01/M02 Q1019 RESN;",
"01044099999","2008-04-22T05:50:00","4","70.486675","22.139744","6.4","HASVIK, NO","FM-15","ENHK ","V020","300,1,N,0098,1","00750,1,C,N","011265,1,N,1","+0010,1","-0030,1","99999,9","02,5,+00540,1,99,9","04,5,+00750,1,99,9","07,5,+01140,1,99,9",,"07,99,1,99,9,99,9,99999,9,99,9,99,9",,"10190,1,99999,9","71,1",,,,"MET070METAR ENHK 220550Z 30019KT 9999 -SN FEW018 SCT025 BKN038 01/M03 Q1019;",
"01044099999","2008-04-22T11:20:00","4","70.486675","22.139744","6.4","HASVIK, NO","FM-15","ENHK ","V020","290,1,N,0067,1","00810,1,C,N","011265,1,N,1","+0020,1","-0010,1","99999,9","02,5,+00510,1,99,9","04,5,+00810,1,99,9","07,5,+00960,1,99,9",,"07,99,1,99,9,99,9,99999,9,99,9,99,9",,"10190,1,99999,9","16,1",,,,"MET071METAR ENHK 221120Z 29013KT 9999 VCSH FEW017 SCT027 BKN032 02/M01 Q1019;",
"01044099999","2008-04-22T12:20:00","4","70.486675","22.139744","6.4","HASVIK, NO","FM-15","ENHK ","V020","280,1,N,0067,1","00870,1,C,N","007000,1,N,1","+0010,1","-0010,1","99999,9","02,5,+00480,1,99,9","07,5,+00870,1,99,9",,,"07,99,1,99,9,99,9,99999,9,99,9,99,9",,"10190,1,99999,9","85,5",,,,"MET065METAR ENHK 221220Z 28013KT 7000 -SHSN FEW016 BKN029 01/M01 Q1019;",
"01044099999","2008-04-22T13:20:00","4","70.486675","22.139744","6.4","HASVIK, NO","FM-15","ENHK ","V020","260,1,N,0077,1","00840,1,C,N","006000,1,N,1","+0010,1","-0010,1","99999,9","02,5,+00510,1,99,9","07,5,+00840,1,99,9",,,"07,99,1,99,9,99,9,99999,9,99,9,99,9",,"10180,1,99999,9","85,5",,,,"MET065METAR ENHK 221320Z 26015KT 6000 -SHSN FEW017 BKN028 01/M01 Q1018;",
"01044099999","2008-04-23T03:20:00","4","70.486675","22.139744","6.4","HASVIK, NO","FM-15","ENHK ","V020","340,1,N,0046,1","00750,1,C,N","011265,1,N,1","+0010,1","-0010,1","99999,9","04,5,+00450,1,99,9","07,5,+00750,1,99,9",,,"07,99,1,99,9,99,9,99999,9,99,9,99,9",,"10139,1,99999,9","80,1",,,,"MET067METAR ENHK 230320Z 34009KT 9999 -SHSNRA SCT015 BKN025 01/M01 Q1014;",
"01044099999","2008-04-23T03:50:00","4","70.486675","22.139744","6.4","HASVIK, NO","FM-15","ENHK ","V020","350,1,N,0036,1","00750,1,C,N","011265,1,N,1","+0010,1","-0010,1","99999,9","02,5,+00450,1,99,9","04,5,+00750,1,99,9","07,5,+00900,1,99,9",,"07,99,1,99,9,99,9,99999,9,99,9,99,9",,"10139,1,99999,9","85,5",,,,"MET080METAR ENHK 230350Z 35007KT 310V030 9999 -SHSN FEW015 SCT025 BKN030 01/M01 Q1014;",
"01044099999","2008-04-23T04:20:00","4","70.486675","22.139744","6.4","HASVIK, NO","FM-15","ENHK ","V020","350,1,N,0036,1","00450,5,9,N","000250,1,N,1","+0000,1","-0010,1","99999,9","04,5,+00300,5,99,9","07,5,+00450,5,99,9",,,,,"10140,1,99999,9","86,5",,,,"MET065METAR ENHK 230420Z 35007KT 02500 SHSN SCT010 BKN015 00/M01 Q1014;",
"01044099999","2008-04-23T04:50:00","4","70.486675","22.139744","6.4","HASVIK, NO","FM-15","ENHK ","V020","340,1,N,0046,1","00750,1,C,N","011265,1,N,1","+0010,1","-0020,1","99999,9","02,5,+00450,1,99,9","04,5,+00750,1,99,9","07,5,+01050,1,99,9",,"07,99,1,99,9,99,9,99999,9,99,9,99,9",,"10139,1,99999,9",,,,,"MET066METAR ENHK 230450Z 34009KT 9999 FEW015 SCT025 BKN035 01/M02 Q1014;",
"01044099999","2008-04-23T05:20:00","4","70.486675","22.139744","6.4","HASVIK, NO","FM-15","ENHK ","V020","350,1,N,0026,1","00750,1,C,N","011265,1,N,1","+0010,1","-0020,1","99999,9","02,5,+00450,1,99,9","04,5,+00750,1,99,9","07,5,+01050,1,99,9",,"07,99,1,99,9,99,9,99999,9,99,9,99,9",,"10139,1,99999,9","16,1",,,,"MET071METAR ENHK 230520Z 35005KT 9999 VCSH FEW015 SCT025 BKN035 01/M02 Q1014;",
"01044099999","2008-04-23T05:50:00","4","70.486675","22.139744","6.4","HASVIK, NO","FM-15","ENHK ","V020","320,1,N,0051,1","00450,1,C,N","003000,1,N,1","+0010,1","-0020,1","99999,9","04,5,+00300,1,99,9","07,5,+00450,1,99,9",,,"07,99,1,99,9,99,9,99999,9,99,9,99,9",,"10149,1,99999,9","86,5",,,,"MET064METAR ENHK 230550Z 32010KT 3000 SHSN SCT010 BKN015 01/M02 Q1015;",
"01044099999","2008-04-23T06:20:00","4","70.486675","22.139744","6.4","HASVIK, NO","FM-15","ENHK ","V020","310,1,N,0057,1","00450,1,C,N","003000,1,N,1","+0010,1","-0020,1","99999,9","04,5,+00300,1,99,9","07,5,+00450,1,99,9",,,"07,99,1,99,9,99,9,99999,9,99,9,99,9",,"10149,1,99999,9","86,5",,,,"MET064METAR ENHK 230620Z 31011KT 3000 SHSN SCT010 BKN015 01/M02 Q1015;",
"01044099999","2008-04-23T11:50:00","4","70.486675","22.139744","6.4","HASVIK, NO","FM-15","ENHK ","V020","310,1,N,0113,1","00900,1,C,N","011265,1,N,1","+0020,1","-0040,1","99999,9","02,5,+00540,1,99,9","07,5,+00900,1,99,9",,,"07,99,1,99,9,99,9,99999,9,99,9,99,9",,"10139,1,99999,9","16,1",,,,"MET064METAR ENHK 231150Z 31022KT 9999 VCSH FEW018 BKN030 02/M04 Q1014;",
"01044099999","2008-04-23T12:20:00","4","70.486675","22.139744","6.4","HASVIK, NO","FM-15","ENHK ","V020","290,1,N,0113,1","00960,1,C,N","011265,1,N,1","+0020,1","-0030,1","99999,9","02,5,+00540,1,99,9","07,5,+00960,1,99,9",,,"07,99,1,99,9,99,9,99999,9,99,9,99,9",,"10149,1,99999,9","16,1",,,,"MET064METAR ENHK 231220Z 29022KT 9999 VCSH FEW018 BKN032 02/M03 Q1015;",
"01044099999","2008-04-23T12:50:00","4","70.486675","22.139744","6.4","HASVIK, NO","FM-15","ENHK ","V020","280,1,N,0082,1","00930,1,C,N","011265,1,N,1","+0020,1","-0030,1","99999,9","02,5,+00510,1,99,9","07,5,+00930,1,99,9",,,"07,99,1,99,9,99,9,99999,9,99,9,99,9",,"10149,1,99999,9","16,1",,,,"MET064METAR ENHK 231250Z 28016KT 9999 VCSH FEW017 BKN031 02/M03 Q1015;",
"01044099999","2008-04-23T13:20:00","4","70.486675","22.139744","6.4","HASVIK, NO","FM-15","ENHK ","V020","290,1,N,0103,1","00900,1,C,N","008000,1,N,1","+0020,1","-0020,1","99999,9","02,5,+00540,1,99,9","07,5,+00900,1,99,9",,,"07,99,1,99,9,99,9,99999,9,99,9,99,9",,"10149,1,99999,9","16,1",,,,"MET064METAR ENHK 231320Z 29020KT 8000 VCSH FEW018 BKN030 02/M02 Q1015;",
"01044099999","2008-04-23T13:50:00","4","70.486675","22.139744","6.4","HASVIK, NO","FM-15","ENHK ","V020","310,1,N,0103,1","00930,1,C,N","007000,1,N,1","+0020,1","-0020,1","99999,9","02,5,+00510,1,99,9","07,5,+00930,1,99,9",,,"07,99,1,99,9,99,9,99999,9,99,9,99,9",,"10139,1,99999,9","85,5",,,,"MET065METAR ENHK 231350Z 31020KT 7000 -SHSN FEW017 BKN031 02/M02 Q1014;",
"01044099999","2008-04-24T03:20:00","4","70.486675","22.139744","6.4","HASVIK, NO","FM-15","ENHK ","V020","300,1,N,0103,1","00480,1,C,N","004000,1,N,1","+0010,1","+0000,1","99999,9","02,5,+00300,1,99,9","07,5,+00480,1,99,9",,,"07,99,1,99,9,99,9,99999,9,99,9,99,9",,"10108,1,99999,9","85,5",,,,"MET080METAR ENHK 240320Z 30020KT 260V320 4000W 9000E -SHSN FEW010 BKN016 01/M00 Q1011;",
"01044099999","2008-04-24T03:50:00","4","70.486675","22.139744","6.4","HASVIK, NO","FM-15","ENHK ","V020","320,1,N,0123,1","00450,1,C,N","004000,1,N,1","+0010,1","-0020,1","99999,9","02,5,+00360,1,99,9","04,5,+00450,1,99,9","07,5,+01050,1,99,9",,"07,99,1,99,9,99,9,99999,9,99,9,99,9",,"10108,1,99999,9","81,1",,,,"MET080METAR ENHK 240350Z 32024KT 4000W 9999E SHSNRA FEW012 SCT015 BKN035 01/M02 Q1011;",
"01044099999","2008-04-24T04:50:00","4","70.486675","22.139744","6.4","HASVIK, NO","FM-15","ENHK ","V020","300,1,N,0113,1","00300,1,9,N","001200,1,N,1","+0000,1","-0020,1","99999,9","09,1,+00300,1,99,9",,,,"09,99,1,99,9,99,9,00025,1,99,9,99,9",,"10108,1,99999,9","81,1",,,,"MET058METAR ENHK 240450Z 30022KT 1200 SHSNRA VV010 00/M02 Q1011;",
"01044099999","2008-04-24T05:20:00","4","70.486675","22.139744","6.4","HASVIK, NO","FM-15","ENHK ","V020","330,1,N,0082,1","00720,1,C,N","011265,1,N,1","+0000,1","-0010,1","99999,9","02,5,+00300,1,99,9","04,5,+00720,1,99,9","07,5,+01050,1,99,9",,"07,99,1,99,9,99,9,99999,9,99,9,99,9",,"10119,1,99999,9","16,1",,,"0139,1","MET089METAR ENHK 240520Z 33016G27KT 300V020 9999 VCSH FEW010 SCT024 BKN035 00/M01 Q1012 RESNRA;",
"01044099999","2008-04-24T05:50:00","4","70.486675","22.139744","6.4","HASVIK, NO","FM-15","ENHK ","V020","300,1,N,0118,1","00750,1,C,N","011265,1,N,1","+0010,1","-0020,1","99999,9","02,5,+00480,1,99,9","04,5,+00750,1,99,9","07,5,+01200,1,99,9",,"07,99,1,99,9,99,9,99999,9,99,9,99,9",,"10108,1,99999,9","16,1","36,1",,,"MET082METAR ENHK 240550Z 30023KT 9999 VCSH -DRSN FEW016 SCT025 BKN040 01/M02 Q1011 RESN;",
"01044099999","2008-04-24T07:50:00","4","70.486675","22.139744","6.4","HASVIK, NO","FM-15","ENHK ","V020","360,1,N,0051,1","00270,1,9,N","001500,1,N,1","-0010,1","-0020,1","99999,9","09,1,+00270,1,99,9",,,,"09,99,1,99,9,99,9,00025,1,99,9,99,9",,"10129,1,99999,9","86,5",,,,"MET065METAR ENHK 240750Z 36010KT 310V050 1500 SHSN VV009 M01/M02 Q1013;",
"01044099999","2008-04-24T11:50:00","4","70.486675","22.139744","6.4","HASVIK, NO","FM-15","ENHK ","V020","350,1,N,0036,1","99999,9,C,N","011265,1,N,1","-0010,1","-0070,1","99999,9","02,5,+00480,1,99,9","04,5,+00870,1,99,9",,,"04,99,1,99,9,99,9,99999,9,99,9,99,9",,"10169,1,99999,9",,,,,"MET060METAR ENHK 241150Z 35007KT 9999 FEW016 SCT029 M01/M07 Q1017;","P01 008703SCOCIG"
"01044099999","2008-04-24T12:20:00","4","70.486675","22.139744","6.4","HASVIK, NO","FM-15","ENHK ","V020","030,1,N,0036,1","99999,9,C,N","011265,1,N,1","-0010,1","-0080,1","99999,9","02,5,+00660,1,99,9","04,5,+00930,1,99,9",,,"04,99,1,99,9,99,9,99999,9,99,9,99,9",,"10169,1,99999,9",,,,,"MET060METAR ENHK 241220Z 03007KT 9999 FEW022 SCT031 M01/M08 Q1017;","P01 009303SCOCIG"
"01044099999","2008-04-24T12:50:00","4","70.486675","22.139744","6.4","HASVIK, NO","FM-15","ENHK ","V020","340,1,N,0041,1","99999,9,C,N","011265,1,N,1","-0010,1","-0090,1","99999,9","02,5,+00690,1,99,9","04,5,+00960,1,99,9",,,"04,99,1,99,9,99,9,99999,9,99,9,99,9",,"10169,1,99999,9","16,1",,,,"MET065METAR ENHK 241250Z 34008KT 9999 VCSH FEW023 SCT032 M01/M09 Q1017;","P01 009603SCOCIG"
"01044099999","2008-04-24T13:20:00","4","70.486675","22.139744","6.4","HASVIK, NO","FM-15","ENHK ","V020","020,1,N,0026,1","22000,1,9,N","011265,1,N,1","-0010,1","-0070,1","99999,9","04,5,+01020,1,99,9",,,,"04,99,1,99,9,99,9,99999,9,99,9,99,9",,"10180,1,99999,9",,,,,"MET061METAR ENHK 241320Z 02005KT 310V060 9999 SCT034 M01/M07 Q1018;",
"01044099999","2008-04-24T13:50:00","4","70.486675","22.139744","6.4","HASVIK, NO","FM-15","ENHK ","V020","350,1,N,0036,1","22000,1,9,N","011265,1,N,1","-0010,1","-0090,1","99999,9","04,5,+01050,1,99,9",,,,"04,99,1,99,9,99,9,99999,9,99,9,99,9",,"10180,1,99999,9",,,,,"MET053METAR ENHK 241350Z 35007KT 9999 SCT035 M01/M09 Q1018;",
"01044099999","2008-04-25T03:20:00","4","70.486675","22.139744","6.4","HASVIK, NO","FM-15","ENHK ","V020","999,9,V,0005,1","01800,1,C,N","011265,1,N,1","-0020,1","-0070,1","99999,9","02,5,+01050,1,99,9","07,5,+01800,1,99,9",,,"07,99,1,99,9,99,9,99999,9,99,9,99,9",,"10210,1,99999,9",,,,,"MET060METAR ENHK 250320Z VRB01KT 9999 FEW035 BKN060 M02/M07 Q1021;",
"01044099999","2008-04-25T03:50:00","4","70.486675","22.139744","6.4","HASVIK, NO","FM-15","ENHK ","V020","080,1,N,0031,1","01800,1,C,N","011265,1,N,1","-0010,1","-0070,1","99999,9","02,5,+01050,1,99,9","07,5,+01800,1,99,9",,,"07,99,1,99,9,99,9,99999,9,99,9,99,9",,"10210,1,99999,9",,,,,"MET060METAR ENHK 250350Z 08006KT 9999 FEW035 BKN060 M01/M07 Q1021;",
"01044099999","2008-04-25T04:20:00","4","70.486675","22.139744","6.4","HASVIK, NO","FM-15","ENHK ","V020","999,9,V,0010,1","01500,1,C,N","011265,1,N,1","-0010,1","-0070,1","99999,9","02,5,+01050,1,99,9","07,5,+01500,1,99,9",,,"07,99,1,99,9,99,9,99999,9,99,9,99,9",,"10210,1,99999,9",,,,,"MET060METAR ENHK 250420Z VRB02KT 9999 FEW035 BKN050 M01/M07 Q1021;",
"01044099999","2008-04-25T04:50:00","4","70.486675","22.139744","6.4","HASVIK, NO","FM-15","ENHK ","V020","999,9,V,0015,1","01500,1,C,N","011265,1,N,1","-0010,1","-0080,1","99999,9","02,5,+01050,1,99,9","07,5,+01500,1,99,9",,,"07,99,1,99,9,99,9,99999,9,99,9,99,9",,"10210,1,99999,9",,,,,"MET060METAR ENHK 250450Z VRB03KT 9999 FEW035 BKN050 M01/M08 Q1021;",
"01044099999","2008-04-25T05:20:00","4","70.486675","22.139744","6.4","HASVIK, NO","FM-15","ENHK ","V020","999,9,V,0015,1","01800,1,C,N","011265,1,N,1","+0000,1","-0100,1","99999,9","02,5,+01050,1,99,9","07,5,+01800,1,99,9",,,"07,99,1,99,9,99,9,99999,9,99,9,99,9",,"10220,1,99999,9",,,,,"MET059METAR ENHK 250520Z VRB03KT 9999 FEW035 BKN060 00/M10 Q1022;",
"01044099999","2008-04-25T05:50:00","4","70.486675","22.139744","6.4","HASVIK, NO","FM-15","ENHK ","V020","999,9,V,0005,1","01800,1,C,N","011265,1,N,1","+0010,1","-0100,1","99999,9","02,5,+01050,1,99,9","07,5,+01800,1,99,9",,,"07,99,1,99,9,99,9,99999,9,99,9,99,9",,"10220,1,99999,9",,,,,"MET059METAR ENHK 250550Z VRB01KT 9999 FEW035 BKN060 01/M10 Q1022;",
"01044099999","2008-04-25T12:20:00","4","70.486675","22.139744","6.4","HASVIK, NO","FM-15","ENHK ","V020","250,1,N,0036,1","22000,1,9,N","011265,1,N,1","+0000,1","-0050,1","99999,9","02,5,+00750,1,99,9",,,,"02,99,1,99,9,99,9,99999,9,99,9,99,9",,"10230,1,99999,9",,,,,"MET052METAR ENHK 251220Z 25007KT 9999 FEW025 00/M05 Q1023;",
"01044099999","2008-04-25T12:50:00","4","70.486675","22.139744","6.4","HASVIK, NO","FM-15","ENHK ","V020","250,1,N,0036,1","99999,9,C,N","011265,1,N,1","+0010,1","-0050,1","99999,9","02,5,+00750,1,99,9","04,5,+01380,1,99,9",,,"04,99,1,99,9,99,9,99999,9,99,9,99,9",,"10230,1,99999,9",,,,,"MET067METAR ENHK 251250Z 25007KT 210V270 9999 FEW025 SCT046 01/M05 Q1023;","P01 013803SCOCIG"
"01044099999","2008-04-25T13:20:00","4","70.486675","22.139744","6.4","HASVIK, NO","FM-15","ENHK ","V020","250,1,N,0041,1","99999,9,C,N","011265,1,N,1","+0010,1","-0050,1","99999,9","02,5,+00750,1,99,9","04,5,+01380,1,99,9",,,"04,99,1,99,9,99,9,99999,9,99,9,99,9",,"10230,1,99999,9",,,,,"MET059METAR ENHK 251320Z 25008KT 9999 FEW025 SCT046 01/M05 Q1023;","P01 013803SCOCIG"
"01044099999","2008-04-25T14:20:00","4","70.486675","22.139744","6.4","HASVIK, NO","FM-15","ENHK ","V020","240,1,N,0031,1","99999,9,C,N","011265,1,N,1","+0010,1","-0050,1","99999,9","02,5,+00750,1,99,9","04,5,+01020,1,99,9",,,"04,99,1,99,9,99,9,99999,9,99,9,99,9",,"10230,1,99999,9",,,,,"MET059METAR ENHK 251420Z 24006KT 9999 FEW025 SCT034 01/M05 Q1023;","P01 010203SCOCIG"
"01044099999","2008-04-27T11:20:00","4","70.486675","22.139744","6.4","HASVIK, NO","FM-15","ENHK ","V020","110,1,N,0077,1","03600,1,C,N","011265,1,N,1","+0030,1","-0030,1","99999,9","02,5,+00750,1,99,9","07,5,+03600,1,99,9",,,"07,99,1,99,9,99,9,99999,9,99,9,99,9",,"10129,1,99999,9",,,,,"MET059METAR ENHK 271120Z 11015KT 9999 FEW025 BKN120 03/M03 Q1013;",
"01044099999","2008-04-27T11:50:00","4","70.486675","22.139744","6.4","HASVIK, NO","FM-15","ENHK ","V020","110,1,N,0057,1","99999,9,C,N","011265,1,N,1","+0040,1","-0030,1","99999,9","02,5,+00900,1,99,9","04,5,+02400,1,99,9",,,"04,99,1,99,9,99,9,99999,9,99,9,99,9",,"10129,1,99999,9",,,,,"MET059METAR ENHK 271150Z 11011KT 9999 FEW030 SCT080 04/M03 Q1013;","P01 024003SCOCIG"
"01044099999","2008-04-27T12:20:00","4","70.486675","22.139744","6.4","HASVIK, NO","FM-15","ENHK ","V020","120,1,N,0062,1","02400,1,C,N","011265,1,N,1","+0040,1","-0030,1","99999,9","02,5,+00960,1,99,9","04,5,+02400,1,99,9","07,5,+03600,1,99,9",,"07,99,1,99,9,99,9,99999,9,99,9,99,9",,"10129,1,99999,9",,,,,"MET074METAR ENHK 271220Z 12012KT 090V150 9999 FEW032 SCT080 BKN120 04/M03 Q1013;",
"01044099999","2008-04-27T13:20:00","4","70.486675","22.139744","6.4","HASVIK, NO","FM-15","ENHK ","V020","130,1,N,0051,1","01800,1,C,N","011265,1,N,1","+0040,1","-0020,1","99999,9","02,5,+01050,1,99,9","04,5,+01950,5,99,9","07,5,+02850,5,99,9",,"07,99,1,99,9,99,9,99999,9,99,9,99,9",,"10129,1,99999,9",,,,,"MET066METAR ENHK 271320Z 13010KT 9999 FEW035 SCT065 BKN095 04/M02 Q1013;",
"01044099999","2008-04-27T13:50:00","4","70.486675","22.139744","6.4","HASVIK, NO","FM-15","ENHK ","V020","130,1,N,0041,1","99999,9,C,N","011265,1,N,1","+0050,1","-0010,1","99999,9","02,5,+01050,1,99,9","04,5,+02700,1,99,9",,,"04,99,1,99,9,99,9,99999,9,99,9,99,9",,"10119,1,99999,9",,,,,"MET059METAR ENHK 271350Z 13008KT 9999 FEW035 SCT090 05/M01 Q1012;","P01 027003SCOCIG"
"01044099999","2008-04-28T03:20:00","4","70.486675","22.139744","6.4","HASVIK, NO","FM-15","ENHK ","V020","140,1,N,0031,1","99999,9,C,Y","009900,1,N,1","+0050,1","+0000,1","99999,9",,,,,,,"10108,1,99999,9",,,,,"MET046METAR ENHK 280320Z 14006KT CAVOK 05/M00 Q1011;",
"01044099999","2008-04-28T03:50:00","4","70.486675","22.139744","6.4","HASVIK, NO","FM-15","ENHK ","V020","110,1,N,0051,1","99999,9,C,Y","009900,1,N,1","+0050,1","-0010,1","99999,9",,,,,,,"10108,1,99999,9",,,,,"MET046METAR ENHK 280350Z 11010KT CAVOK 05/M01 Q1011;",
"01044099999","2008-04-28T04:20:00","4","70.486675","22.139744","6.4","HASVIK, NO","FM-15","ENHK ","V020","120,1,N,0051,1","99999,9,C,Y","009900,1,N,1","+0050,1","+0000,1","99999,9",,,,,,,"10108,1,99999,9",,,,,"MET046METAR ENHK 280420Z 12010KT CAVOK 05/M00 Q1011;",
"01044099999","2008-04-28T11:50:00","4","70.486675","22.139744","6.4","HASVIK, NO","FM-15","ENHK ","V020","090,1,N,0036,1","99999,9,C,Y","009900,1,N,1","+0060,1","+0000,1","99999,9",,,,,,,"10119,1,99999,9",,,,,"MET046METAR ENHK 281150Z 09007KT CAVOK 06/M00 Q1012;",
"01044099999","2008-04-28T12:20:00","4","70.486675","22.139744","6.4","HASVIK, NO","FM-15","ENHK ","V020","140,1,N,0036,1","99999,9,C,Y","009900,1,N,1","+0070,1","+0020,1","99999,9",,,,,,,"10119,1,99999,9",,,,,"MET045METAR ENHK 281220Z 14007KT CAVOK 07/02 Q1012;",
"01044099999","2008-04-28T12:50:00","4","70.486675","22.139744","6.4","HASVIK, NO","FM-15","ENHK ","V020","130,1,N,0036,1","99999,9,C,Y","009900,1,N,1","+0070,1","+0010,1","99999,9",,,,,,,"10119,1,99999,9",,,,,"MET045METAR ENHK 281250Z 13007KT CAVOK 07/01 Q1012;",
"01044099999","2008-04-28T13:20:00","4","70.486675","22.139744","6.4","HASVIK, NO","FM-15","ENHK ","V020","130,1,N,0036,1","99999,9,C,Y","009900,1,N,1","+0070,1","+0020,1","99999,9",,,,,,,"10129,1,99999,9",,,,,"MET045METAR ENHK 281320Z 13007KT CAVOK 07/02 Q1013;",
"01044099999","2008-04-29T03:50:00","4","70.486675","22.139744","6.4","HASVIK, NO","FM-15","ENHK ","V020","130,1,N,0062,1","99999,9,C,Y","009900,1,N,1","+0060,1","+0020,1","99999,9",,,,,,,"10119,1,99999,9",,,,,"MET045METAR ENHK 290350Z 13012KT CAVOK 06/02 Q1012;",
"01044099999","2008-04-29T04:20:00","4","70.486675","22.139744","6.4","HASVIK, NO","FM-15","ENHK ","V020","120,1,N,0062,1","99999,9,C,Y","009900,1,N,1","+0060,1","+0010,1","99999,9",,,,,,,"10119,1,99999,9",,,,,"MET045METAR ENHK 290420Z 12012KT CAVOK 06/01 Q1012;",
"01044099999","2008-04-29T04:50:00","4","70.486675","22.139744","6.4","HASVIK, NO","FM-15","ENHK ","V020","120,1,N,0046,1","99999,9,C,Y","009900,1,N,1","+0070,1","+0010,1","99999,9",,,,,,,"10119,1,99999,9",,,,,"MET045METAR ENHK 290450Z 12009KT CAVOK 07/01 Q1012;",
"01044099999","2008-04-29T06:50:00","4","70.486675","22.139744","6.4","HASVIK, NO","FM-15","ENHK ","V020","140,1,N,0021,1","99999,9,C,Y","009900,1,N,1","+0080,1","+0020,1","99999,9",,,,,,,"10129,1,99999,9",,,,,"MET045METAR ENHK 290650Z 14004KT CAVOK 08/02 Q1013;",
"01044099999","2008-04-29T07:50:00","4","70.486675","22.139744","6.4","HASVIK, NO","FM-15","ENHK ","V020","150,1,N,0031,1","99999,9,C,Y","009900,1,N,1","+0080,1","+0020,1","99999,9",,,,,,,"10129,1,99999,9",,,,,"MET045METAR ENHK 290750Z 15006KT CAVOK 08/02 Q1013;",
"01044099999","2008-04-29T10:50:00","4","70.486675","22.139744","6.4","HASVIK, NO","FM-15","ENHK ","V020","999,9,V,0005,1","99999,9,C,Y","009900,1,N,1","+0080,1","+0030,1","99999,9",,,,,,,"10129,1,99999,9",,,,,"MET045METAR ENHK 291050Z VRB01KT CAVOK 08/03 Q1013;",
"01044099999","2008-04-29T11:20:00","4","70.486675","22.139744","6.4","HASVIK, NO","FM-15","ENHK ","V020","170,1,N,0021,1","99999,9,C,Y","009900,1,N,1","+0090,1","+0030,1","99999,9",,,,,,,"10129,1,99999,9",,,,,"MET053METAR ENHK 291120Z 17004KT 130V210 CAVOK 09/03 Q1013;",
"01044099999","2008-04-29T11:50:00","4","70.486675","22.139744","6.4","HASVIK, NO","FM-15","ENHK ","V020","140,1,N,0026,1","99999,9,C,Y","009900,1,N,1","+0080,1","+0030,1","99999,9",,,,,,,"10139,1,99999,9",,,,,"MET045METAR ENHK 291150Z 14005KT CAVOK 08/03 Q1014;",
"01044099999","2008-04-29T12:20:00","4","70.486675","22.139744","6.4","HASVIK, NO","FM-15","ENHK ","V020","150,1,N,0026,1","99999,9,C,Y","009900,1,N,1","+0080,1","+0030,1","99999,9",,,,,,,"10139,1,99999,9",,,,,"MET045METAR ENHK 291220Z 15005KT CAVOK 08/03 Q1014;",
"01044099999","2008-04-29T12:50:00","4","70.486675","22.139744","6.4","HASVIK, NO","FM-15","ENHK ","V020","170,1,N,0021,1","99999,9,C,Y","009900,1,N,1","+0080,1","+0020,1","99999,9",,,,,,,"10139,1,99999,9",,,,,"MET053METAR ENHK 291250Z 17004KT 130V200 CAVOK 08/02 Q1014;",
"01044099999","2008-04-29T13:20:00","4","70.486675","22.139744","6.4","HASVIK, NO","FM-15","ENHK ","V020","999,9,V,0010,1","02700,1,C,N","011265,1,N,1","+0070,1","+0020,1","99999,9","02,5,+01050,1,99,9","07,5,+02700,1,99,9",,,"07,99,1,99,9,99,9,99999,9,99,9,99,9",,"10139,1,99999,9",,,,,"MET058METAR ENHK 291320Z VRB02KT 9999 FEW035 BKN090 07/02 Q1014;",
"01044099999","2008-04-29T13:50:00","4","70.486675","22.139744","6.4","HASVIK, NO","FM-15","ENHK ","V020","130,1,N,0021,1","02700,1,C,N","011265,1,N,1","+0070,1","+0030,1","99999,9","02,5,+00900,1,99,9","07,5,+02700,1,99,9",,,"07,99,1,99,9,99,9,99999,9,99,9,99,9",,"10139,1,99999,9",,,,,"MET066METAR ENHK 291350Z 13004KT 090V150 9999 FEW030 BKN090 07/03 Q1014;",
"01044099999","2008-04-29T14:20:00","4","70.486675","22.139744","6.4","HASVIK, NO","FM-15","ENHK ","V020","150,1,N,0015,1","02700,1,C,N","011265,1,N,1","+0080,1","+0030,1","99999,9","02,5,+01200,1,99,9","07,5,+02700,1,99,9",,,"07,99,1,99,9,99,9,99999,9,99,9,99,9",,"10139,1,99999,9",,,,,"MET058METAR ENHK 291420Z 15003KT 9999 FEW040 BKN090 08/03 Q1014;",
"01044099999","2008-04-29T20:50:00","4","70.486675","22.139744","6.4","HASVIK, NO","FM-15","ENHK ","V020","150,1,N,0021,1","99999,9,C,Y","009900,1,N,1","+0050,1","+0020,1","99999,9",,,,,,,"10159,1,99999,9",,,,,"MET045METAR ENHK 292050Z 15004KT CAVOK 05/02 Q1016;",
"01044099999","2008-04-29T21:50:00","4","70.486675","22.139744","6.4","HASVIK, NO","FM-15","ENHK ","V020","140,1,N,0021,1","99999,9,C,Y","009900,1,N,1","+0060,1","+0020,1","99999,9",,,,,,,"10159,1,99999,9",,,,,"MET053METAR ENHK 292150Z 14004KT 090V160 CAVOK 06/02 Q1016;",
"01044099999","2008-04-30T03:20:00","4","70.486675","22.139744","6.4","HASVIK, NO","FM-15","ENHK ","V020","140,1,N,0046,1","99999,9,C,Y","009900,1,N,1","+0050,1","+0030,1","99999,9",,,,,,,"10180,1,99999,9",,,,,"MET045METAR ENHK 300320Z 14009KT CAVOK 05/03 Q1018;",
"01044099999","2008-04-30T03:50:00","4","70.486675","22.139744","6.4","HASVIK, NO","FM-15","ENHK ","V020","150,1,N,0036,1","99999,9,C,Y","009900,1,N,1","+0050,1","+0020,1","99999,9",,,,,,,"10180,1,99999,9",,,,,"MET045METAR ENHK 300350Z 15007KT CAVOK 05/02 Q1018;",
"01044099999","2008-04-30T04:20:00","4","70.486675","22.139744","6.4","HASVIK, NO","FM-15","ENHK ","V020","150,1,N,0041,1","99999,9,C,Y","009900,1,N,1","+0060,1","+0020,1","99999,9",,,,,,,"10180,1,99999,9",,,,,"MET045METAR ENHK 300420Z 15008KT CAVOK 06/02 Q1018;",
"01044099999","2008-04-30T04:50:00","4","70.486675","22.139744","6.4","HASVIK, NO","FM-15","ENHK ","V020","140,1,N,0051,1","99999,9,C,Y","009900,1,N,1","+0060,1","+0030,1","99999,9",,,,,,,"10180,1,99999,9",,,,,"MET045METAR ENHK 300450Z 14010KT CAVOK 06/03 Q1018;",
"01044099999","2008-04-30T05:50:00","4","70.486675","22.139744","6.4","HASVIK, NO","FM-15","ENHK ","V020","150,1,N,0051,1","99999,9,C,Y","009900,1,N,1","+0060,1","+0030,1","99999,9",,,,,,,"10190,1,99999,9",,,,,"MET045METAR ENHK 300550Z 15010KT CAVOK 06/03 Q1019;",
"01044099999","2008-04-30T06:20:00","4","70.486675","22.139744","6.4","HASVIK, NO","FM-15","ENHK ","V020","130,1,N,0051,1","99999,9,C,Y","009900,1,N,1","+0070,1","+0030,1","99999,9",,,,,,,"10190,1,99999,9",,,,,"MET045METAR ENHK 300620Z 13010KT CAVOK 07/03 Q1019;",
"01044099999","2008-04-30T06:50:00","4","70.486675","22.139744","6.4","HASVIK, NO","FM-15","ENHK ","V020","130,1,N,0057,1","99999,9,C,Y","009900,1,N,1","+0070,1","+0030,1","99999,9",,,,,,,"10190,1,99999,9",,,,,"MET045METAR ENHK 300650Z 13011KT CAVOK 07/03 Q1019;",
"01044099999","2008-04-30T07:50:00","4","70.486675","22.139744","6.4","HASVIK, NO","FM-15","ENHK ","V020","130,1,N,0046,1","99999,9,C,Y","009900,1,N,1","+0070,1","+0020,1","99999,9",,,,,,,"10190,1,99999,9",,,,,"MET045METAR ENHK 300750Z 13009KT CAVOK 07/02 Q1019;",
"01044099999","2008-04-30T10:50:00","4","70.486675","22.139744","6.4","HASVIK, NO","FM-15","ENHK ","V020","120,1,N,0072,1","99999,9,C,Y","009900,1,N,1","+0090,1","+0030,1","99999,9",,,,,,,"10200,1,99999,9",,,,,"MET045METAR ENHK 301050Z 12014KT CAVOK 09/03 Q1020;",
"01044099999","2008-04-30T11:20:00","4","70.486675","22.139744","6.4","HASVIK, NO","FM-15","ENHK ","V020","130,1,N,0067,1","99999,9,C,Y","009900,1,N,1","+0090,1","+0030,1","99999,9",,,,,,,"10200,1,99999,9",,,,,"MET045METAR ENHK 301120Z 13013KT CAVOK 09/03 Q1020;",
"01044099999","2008-04-30T12:20:00","4","70.486675","22.139744","6.4","HASVIK, NO","FM-15","ENHK ","V020","120,1,N,0067,1","99999,9,C,Y","009900,1,N,1","+0090,1","+0030,1","99999,9",,,,,,,"10200,1,99999,9",,,,,"MET045METAR ENHK 301220Z 12013KT CAVOK 09/03 Q1020;",
"01044099999","2008-04-30T12:50:00","4","70.486675","22.139744","6.4","HASVIK, NO","FM-15","ENHK ","V020","120,1,N,0077,1","99999,9,C,Y","009900,1,N,1","+0090,1","+0030,1","99999,9",,,,,,,"10200,1,99999,9",,,,,"MET045METAR ENHK 301250Z 12015KT CAVOK 09/03 Q1020;",
"01044099999","2008-04-30T13:20:00","4","70.486675","22.139744","6.4","HASVIK, NO","FM-15","ENHK ","V020","120,1,N,0072,1","99999,9,C,Y","009900,1,N,1","+0090,1","+0030,1","99999,9",,,,,,,"10210,1,99999,9",,,,,"MET045METAR ENHK 301320Z 12014KT CAVOK 09/03 Q1021;",
"01044099999","2008-04-30T13:50:00","4","70.486675","22.139744","6.4","HASVIK, NO","FM-15","ENHK ","V020","120,1,N,0072,1","99999,9,C,Y","009900,1,N,1","+0090,1","+0030,1","99999,9",,,,,,,"10210,1,99999,9",,,,,"MET045METAR ENHK 301350Z 12014KT CAVOK 09/03 Q1021;",
"01044099999","2008-04-30T14:20:00","4","70.486675","22.139744","6.4","HASVIK, NO","FM-15","ENHK ","V020","110,1,N,0062,1","99999,9,C,Y","009900,1,N,1","+0100,1","+0030,1","99999,9",,,,,,,"10210,1,99999,9",,,,,"MET045METAR ENHK 301420Z 11012KT CAVOK 10/03 Q1021;",
"01044099999","2008-05-02T03:20:00","4","70.486675","22.139744","6.4","HASVIK, NO","FM-15","ENHK ","V020","150,1,N,0036,1","99999,9,C,Y","009900,1,N,1","+0090,1","+0020,1","99999,9",,,,,,,"10230,1,99999,9",,,,,"MET045METAR ENHK 020320Z 15007KT CAVOK 09/02 Q1023;",
"01044099999","2008-05-02T03:50:00","4","70.486675","22.139744","6.4","HASVIK, NO","FM-15","ENHK ","V020","150,1,N,0041,1","99999,9,C,Y","009900,1,N,1","+0070,1","+0020,1","99999,9",,,,,,,"10230,1,99999,9",,,,,"MET053METAR ENHK 020350Z 15008KT 120V180 CAVOK 07/02 Q1023;",
"01044099999","2008-05-02T04:20:00","4","70.486675","22.139744","6.4","HASVIK, NO","FM-15","ENHK ","V020","140,1,N,0036,1","99999,9,C,Y","009900,1,N,1","+0070,1","+0030,1","99999,9",,,,,,,"10240,1,99999,9",,,,,"MET045METAR ENHK 020420Z 14007KT CAVOK 07/03 Q1024;",
"01044099999","2008-05-02T04:50:00","4","70.486675","22.139744","6.4","HASVIK, NO","FM-15","ENHK ","V020","150,1,N,0026,1","99999,9,C,Y","009900,1,N,1","+0070,1","+0030,1","99999,9",,,,,,,"10240,1,99999,9",,,,,"MET053METAR ENHK 020450Z 15005KT 130V200 CAVOK 07/03 Q1024;",
"01044099999","2008-05-02T05:20:00","4","70.486675","22.139744","6.4","HASVIK, NO","FM-15","ENHK ","V020","150,1,N,0036,1","99999,9,C,Y","009900,1,N,1","+0080,1","+0030,1","99999,9",,,,,,,"10240,1,99999,9",,,,,"MET053METAR ENHK 020520Z 15007KT 120V180 CAVOK 08/03 Q1024;",
"01044099999","2008-05-02T05:50:00","4","70.486675","22.139744","6.4","HASVIK, NO","FM-15","ENHK ","V020","999,9,V,0010,1","99999,9,C,Y","009900,1,N,1","+0090,1","+0020,1","99999,9",,,,,,,"10240,1,99999,9",,,,,"MET045METAR ENHK 020550Z VRB02KT CAVOK 09/02 Q1024;",
"01044099999","2008-05-02T06:20:00","4","70.486675","22.139744","6.4","HASVIK, NO","FM-15","ENHK ","V020","140,1,N,0021,1","99999,9,C,Y","009900,1,N,1","+0080,1","+0030,1","99999,9",,,,,,,"10230,1,99999,9",,,,,"MET045METAR ENHK 020620Z 14004KT CAVOK 08/03 Q1023;",
"01044099999","2008-05-02T07:20:00","4","70.486675","22.139744","6.4","HASVIK, NO","FM-15","ENHK ","V020","140,1,N,0041,1","99999,9,C,Y","009900,1,N,1","+0070,1","+0030,1","99999,9",,,,,,,"10240,1,99999,9",,,,,"MET045METAR ENHK 020720Z 14008KT CAVOK 07/03 Q1024;",
"01044099999","2008-05-02T07:50:00","4","70.486675","22.139744","6.4","HASVIK, NO","FM-15","ENHK ","V020","130,1,N,0036,1","99999,9,C,Y","009900,1,N,1","+0080,1","+0030,1","99999,9",,,,,,,"10240,1,99999,9",,,,,"MET045METAR ENHK 020750Z 13007KT CAVOK 08/03 Q1024;",
"01044099999","2008-05-02T08:50:00","4","70.486675","22.139744","6.4","HASVIK, NO","FM-15","ENHK ","V020","130,1,N,0051,1","99999,9,C,Y","009900,1,N,1","+0090,1","+0020,1","99999,9",,,,,,,"10240,1,99999,9",,,,,"MET045METAR ENHK 020850Z 13010KT CAVOK 09/02 Q1024;",
"01044099999","2008-05-02T09:50:00","4","70.486675","22.139744","6.4","HASVIK, NO","FM-15","ENHK ","V020","130,1,N,0041,1","99999,9,C,Y","009900,1,N,1","+0100,1","+0030,1","99999,9",,,,,,,"10240,1,99999,9",,,,,"MET045METAR ENHK 020950Z 13008KT CAVOK 10/03 Q1024;",
"01044099999","2008-05-02T10:20:00","4","70.486675","22.139744","6.4","HASVIK, NO","FM-15","ENHK ","V020","140,1,N,0051,1","99999,9,C,Y","009900,1,N,1","+0100,1","+0030,1","99999,9",,,,,,,"10240,1,99999,9",,,,,"MET045METAR ENHK 021020Z 14010KT CAVOK 10/03 Q1024;",
"01044099999","2008-05-02T11:20:00","4","70.486675","22.139744","6.4","HASVIK, NO","FM-15","ENHK ","V020","160,1,N,0036,1","99999,9,C,Y","009900,1,N,1","+0090,1","+0030,1","99999,9",,,,,,,"10230,1,99999,9",,,,,"MET045METAR ENHK 021120Z 16007KT CAVOK 09/03 Q1023;",
"01044099999","2008-05-02T11:50:00","4","70.486675","22.139744","6.4","HASVIK, NO","FM-15","ENHK ","V020","130,1,N,0051,1","99999,9,C,Y","009900,1,N,1","+0100,1","+0030,1","99999,9",,,,,,,"10240,1,99999,9",,,,,"MET045METAR ENHK 021150Z 13010KT CAVOK 10/03 Q1024;",
"01044099999","2008-05-02T12:20:00","4","70.486675","22.139744","6.4","HASVIK, NO","FM-15","ENHK ","V020","140,1,N,0036,1","99999,9,C,Y","009900,1,N,1","+0100,1","+0030,1","99999,9",,,,,,,"10240,1,99999,9",,,,,"MET045METAR ENHK 021220Z 14007KT CAVOK 10/03 Q1024;",
"01044099999","2008-05-02T12:50:00","4","70.486675","22.139744","6.4","HASVIK, NO","FM-15","ENHK ","V020","140,1,N,0046,1","99999,9,C,Y","009900,1,N,1","+0100,1","+0020,1","99999,9",,,,,,,"10240,1,99999,9",,,,,"MET045METAR ENHK 021250Z 14009KT CAVOK 10/02 Q1024;",
"01044099999","2008-05-02T13:20:00","4","70.486675","22.139744","6.4","HASVIK, NO","FM-15","ENHK ","V020","140,1,N,0041,1","99999,9,C,Y","009900,1,N,1","+0100,1","+0030,1","99999,9",,,,,,,"10240,1,99999,9",,,,,"MET045METAR ENHK 021320Z 14008KT CAVOK 10/03 Q1024;",
"01044099999","2008-05-02T13:50:00","4","70.486675","22.139744","6.4","HASVIK, NO","FM-15","ENHK ","V020","130,1,N,0031,1","99999,9,C,Y","009900,1,N,1","+0090,1","+0030,1","99999,9",,,,,,,"10230,1,99999,9",,,,,"MET045METAR ENHK 021350Z 13006KT CAVOK 09/03 Q1023;",
"01044099999","2008-05-04T11:50:00","4","70.486675","22.139744","6.4","HASVIK, NO","FM-15","ENHK ","V020","330,1,N,0041,1","00090,1,C,N","005000,1,N,1","+0060,1","+0050,1","99999,9","07,5,+00090,1,99,9",,,,"07,99,1,99,9,99,9,99999,9,99,9,99,9",,"10210,1,99999,9","12,1","51,1","61,1",,"MET062METAR ENHK 041150Z 33008KT 5000 -RADZ MIFG BKN003 06/05 Q1021;",
"01044099999","2008-05-04T12:20:00","4","70.486675","22.139744","6.4","HASVIK, NO","FM-15","ENHK ","V020","310,1,N,0046,1","00120,1,C,N","008000,1,N,1","+0060,1","+0050,1","99999,9","07,5,+00120,1,99,9","08,5,+00240,1,99,9",,,"08,99,1,99,9,99,9,99999,9,99,9,99,9",,"10210,1,99999,9","12,1","51,1","61,1",,"MET069METAR ENHK 041220Z 31009KT 8000 -RADZ MIFG BKN004 OVC008 06/05 Q1021;",
"01044099999","2008-05-04T12:50:00","4","70.486675","22.139744","6.4","HASVIK, NO","FM-15","ENHK ","V020","310,1,N,0041,1","00120,1,C,N","006000,1,N,1","+0060,1","+0050,1","99999,9","02,5,+00090,1,99,9","07,5,+00120,1,99,9","08,5,+00300,1,99,9",,"08,99,1,99,9,99,9,99999,9,99,9,99,9",,"10210,1,99999,9","12,1","61,1",,,"MET074METAR ENHK 041250Z 31008KT 6000 -RA MIFG FEW003 BKN004 OVC010 06/05 Q1021;",
"01044099999","2008-05-04T13:50:00","4","70.486675","22.139744","6.4","HASVIK, NO","FM-15","ENHK ","V020","340,1,N,0031,1","00300,1,C,N","007000,1,N,1","+0060,1","+0050,1","99999,9","04,5,+00120,1,99,9","07,5,+00300,1,99,9",,,"07,99,1,99,9,99,9,99999,9,99,9,99,9",,"10210,1,99999,9","16,1","41,1",,,"MET074METAR ENHK 041350Z 34006KT 7000 BCFG VCSH SCT004 BKN010 06/05 Q1021 -RERA;",
"01044099999","2008-05-05T03:20:00","4","70.486675","22.139744","6.4","HASVIK, NO","FM-15","ENHK ","V020","050,1,N,0057,1","01200,1,C,N","011265,1,N,1","+0020,1","-0050,1","99999,9","02,5,+00660,1,99,9","04,5,+01200,1,99,9","07,5,+02460,5,99,9",,"07,99,1,99,9,99,9,99999,9,99,9,99,9",,"10271,1,99999,9",,,,,"MET074METAR ENHK 050320Z 05011KT 010V090 9999 FEW022 SCT040 BKN082 02/M05 Q1027;",
"01044099999","2008-05-05T03:50:00","4","70.486675","22.139744","6.4","HASVIK, NO","FM-15","ENHK ","V020","050,1,N,0057,1","01260,1,C,N","011265,1,N,1","+0020,1","-0070,1","99999,9","02,5,+00750,1,99,9","07,5,+01260,1,99,9",,,"07,99,1,99,9,99,9,99999,9,99,9,99,9",,"10281,1,99999,9",,,,,"MET067METAR ENHK 050350Z 05011KT 360V080 9999 FEW025 BKN042 02/M07 Q1028;",
"01044099999","2008-05-05T04:20:00","4","70.486675","22.139744","6.4","HASVIK, NO","FM-15","ENHK ","V020","050,1,N,0062,1","01440,1,C,N","011265,1,N,1","+0020,1","-0050,1","99999,9","02,5,+00750,1,99,9","07,5,+01440,1,99,9",,,"07,99,1,99,9,99,9,99999,9,99,9,99,9",,"10281,1,99999,9",,,,,"MET067METAR ENHK 050420Z 05012KT 360V090 9999 FEW025 BKN048 02/M05 Q1028;",
"01044099999","2008-05-05T04:50:00","4","70.486675","22.139744","6.4","HASVIK, NO","FM-15","ENHK ","V020","040,1,N,0057,1","01320,1,C,N","011265,1,N,1","+0020,1","-0060,1","99999,9","02,5,+00750,1,99,9","07,5,+01320,1,99,9",,,"07,99,1,99,9,99,9,99999,9,99,9,99,9",,"10281,1,99999,9",,,,,"MET067METAR ENHK 050450Z 04011KT 360V080 9999 FEW025 BKN044 02/M06 Q1028;",
"01044099999","2008-05-05T11:50:00","4","70.486675","22.139744","6.4","HASVIK, NO","FM-15","ENHK ","V020","060,1,N,0041,1","01110,1,C,N","011265,1,N,1","+0020,1","-0060,1","99999,9","07,5,+01110,1,99,9",,,,"07,99,1,99,9,99,9,99999,9,99,9,99,9",,"10312,1,99999,9",,,,,"MET060METAR ENHK 051150Z 06008KT 030V090 9999 BKN037 02/M06 Q1031;",
"01044099999","2008-05-05T12:20:00","4","70.486675","22.139744","6.4","HASVIK, NO","FM-15","ENHK ","V020","070,1,N,0036,1","01080,1,C,N","011265,1,N,1","+0020,1","-0060,1","99999,9","07,5,+01080,1,99,9",,,,"07,99,1,99,9,99,9,99999,9,99,9,99,9",,"10312,1,99999,9",,,,,"MET060METAR ENHK 051220Z 07007KT 040V110 9999 BKN036 02/M06 Q1031;",
"01044099999","2008-05-05T12:50:00","4","70.486675","22.139744","6.4","HASVIK, NO","FM-15","ENHK ","V020","090,1,N,0026,1","01080,1,C,N","011265,1,N,1","+0020,1","-0060,1","99999,9","07,5,+01080,1,99,9",,,,"07,99,1,99,9,99,9,99999,9,99,9,99,9",,"10312,1,99999,9",,,,,"MET060METAR ENHK 051250Z 09005KT 060V130 9999 BKN036 02/M06 Q1031;",
"01044099999","2008-05-05T13:50:00","4","70.486675","22.139744","6.4","HASVIK, NO","FM-15","ENHK ","V020","120,1,N,0041,1","01080,1,C,N","011265,1,N,1","+0030,1","-0050,1","99999,9","07,5,+01080,1,99,9",,,,"07,99,1,99,9,99,9,99999,9,99,9,99,9",,"10312,1,99999,9",,,,,"MET060METAR ENHK 051350Z 12008KT 090V150 9999 BKN036 03/M05 Q1031;",
"01044099999","2008-05-06T03:20:00","4","70.486675","22.139744","6.4","HASVIK, NO","FM-15","ENHK ","V020","110,1,N,0082,1","00960,1,C,N","011265,1,N,1","+0020,1","-0030,1","99999,9","07,5,+00960,1,99,9",,,,"07,99,1,99,9,99,9,99999,9,99,9,99,9",,"10230,1,99999,9",,,,,"MET052METAR ENHK 060320Z 11016KT 9999 BKN032 02/M03 Q1023;",
"01044099999","2008-05-06T03:50:00","4","70.486675","22.139744","6.4","HASVIK, NO","FM-15","ENHK ","V020","110,1,N,0082,1","01530,5,C,N","011265,1,N,1","+0020,1","-0030,1","99999,9","04,5,+00930,1,99,9","07,5,+01530,5,99,9",,,"07,99,1,99,9,99,9,99999,9,99,9,99,9",,"10230,1,99999,9",,,,,"MET059METAR ENHK 060350Z 11016KT 9999 SCT031 BKN051 02/M03 Q1023;",
"01044099999","2008-05-06T04:50:00","4","70.486675","22.139744","6.4","HASVIK, NO","FM-15","ENHK ","V020","120,1,N,0077,1","00840,1,C,N","011265,1,N,1","+0020,1","-0030,1","99999,9","07,5,+00840,1,99,9",,,,"07,99,1,99,9,99,9,99999,9,99,9,99,9",,"10220,1,99999,9","16,1",,,,"MET057METAR ENHK 060450Z 12015KT 9999 VCSH BKN028 02/M03 Q1022;",
"01044099999","2008-05-06T05:20:00","4","70.486675","22.139744","6.4","HASVIK, NO","FM-15","ENHK ","V020","110,1,N,0062,1","00990,1,C,N","011265,1,N,1","+0030,1","-0020,1","99999,9","02,5,+00600,1,99,9","04,5,+00990,1,99,9","07,5,+01500,1,99,9",,"07,99,1,99,9,99,9,99999,9,99,9,99,9",,"10210,1,99999,9","16,1",,,,"MET071METAR ENHK 060520Z 11012KT 9999 VCSH FEW020 SCT033 BKN050 03/M02 Q1021;",
"01044099999","2008-05-06T05:50:00","4","70.486675","22.139744","6.4","HASVIK, NO","FM-15","ENHK ","V020","110,1,N,0067,1","01020,1,C,N","011265,1,N,1","+0030,1","-0020,1","99999,9","02,5,+00750,1,99,9","07,5,+01020,1,99,9",,,"07,99,1,99,9,99,9,99999,9,99,9,99,9",,"10210,1,99999,9",,,,,"MET059METAR ENHK 060550Z 11013KT 9999 FEW025 BKN034 03/M02 Q1021;",
"01044099999","2008-05-06T12:20:00","4","70.486675","22.139744","6.4","HASVIK, NO","FM-15","ENHK ","V020","110,1,N,0031,1","00450,1,C,N","011265,1,N,1","+0030,1","+0010,1","99999,9","02,5,+00240,1,99,9","04,5,+00450,1,99,9","07,5,+00900,1,99,9",,"07,99,1,99,9,99,9,99999,9,99,9,99,9",,"10169,1,99999,9","61,1",,,,"MET069METAR ENHK 061220Z 11006KT 9999 -RA FEW008 SCT015 BKN030 03/01 Q1017;",
"01044099999","2008-05-06T12:50:00","4","70.486675","22.139744","6.4","HASVIK, NO","FM-15","ENHK ","V020","110,1,N,0031,1","00450,1,C,N","011265,1,N,1","+0020,1","+0010,1","99999,9","02,5,+00210,1,99,9","04,5,+00450,1,99,9","07,5,+00750,1,99,9",,"07,99,1,99,9,99,9,99999,9,99,9,99,9",,"10169,1,99999,9","40,1","61,1",,,"MET074METAR ENHK 061250Z 11006KT 9999 -RA VCFG FEW007 SCT015 BKN025 02/01 Q1017;",
"01044099999","2008-05-06T13:20:00","4","70.486675","22.139744","6.4","HASVIK, NO","FM-15","ENHK ","V020","110,1,N,0041,1","00420,1,C,N","011265,1,N,1","+0020,1","+0010,1","99999,9","02,5,+00210,1,99,9","04,5,+00420,1,99,9","07,5,+00720,1,99,9",,"07,99,1,99,9,99,9,99999,9,99,9,99,9",,"10159,1,99999,9","61,1",,,,"MET069METAR ENHK 061320Z 11008KT 9999 -RA FEW007 SCT014 BKN024 02/01 Q1016;",
"01044099999","2008-05-06T13:50:00","4","70.486675","22.139744","6.4","HASVIK, NO","FM-15","ENHK ","V020","110,1,N,0051,1","00420,1,C,N","011265,1,N,1","+0020,1","+0010,1","99999,9","02,5,+00210,1,99,9","04,5,+00420,1,99,9","07,5,+00720,1,99,9",,"07,99,1,99,9,99,9,99999,9,99,9,99,9",,"10159,1,99999,9","61,1",,,,"MET069METAR ENHK 061350Z 11010KT 9999 -RA FEW007 SCT014 BKN024 02/01 Q1016;",
"01044099999","2008-05-07T03:20:00","4","70.486675","22.139744","6.4","HASVIK, NO","FM-15","ENHK ","V020","999,9,V,0005,1","00390,1,C,N","011265,1,N,1","+0030,1","+0020,1","99999,9","02,5,+00180,1,99,9","04,5,+00390,1,99,9","07,5,+00750,1,99,9",,"07,99,1,99,9,99,9,99999,9,99,9,99,9",,"10119,1,99999,9",,,,,"MET065METAR ENHK 070320Z VRB01KT 9999 FEW006 SCT013 BKN025 03/02 Q1012;",
"01044099999","2008-05-07T03:50:00","4","70.486675","22.139744","6.4","HASVIK, NO","FM-15","ENHK ","V020","130,1,N,0021,1","00450,1,C,N","011265,1,N,1","+0030,1","+0020,1","99999,9","02,5,+00210,1,99,9","04,5,+00450,1,99,9","07,5,+01050,1,99,9",,"07,99,1,99,9,99,9,99999,9,99,9,99,9",,"10119,1,99999,9",,,,,"MET065METAR ENHK 070350Z 13004KT 9999 FEW007 SCT015 BKN035 03/02 Q1012;",
"01044099999","2008-05-07T04:20:00","4","70.486675","22.139744","6.4","HASVIK, NO","FM-15","ENHK ","V020","999,9,V,0010,1","01050,1,C,N","011265,1,N,1","+0030,1","+0020,1","99999,9","04,5,+00210,1,99,9","07,5,+01050,1,99,9",,,"07,99,1,99,9,99,9,99999,9,99,9,99,9",,"10129,1,99999,9",,,,,"MET058METAR ENHK 070420Z VRB02KT 9999 SCT007 BKN035 03/02 Q1013;",
"01044099999","2008-05-07T04:50:00","4","70.486675","22.139744","6.4","HASVIK, NO","FM-15","ENHK ","V020","999,9,V,0010,1","00240,1,C,N","011265,1,N,1","+0040,1","+0020,1","99999,9","04,5,+00120,1,99,9","07,5,+00240,1,99,9",,,"07,99,1,99,9,99,9,99999,9,99,9,99,9",,"10119,1,99999,9",,,,,"MET058METAR ENHK 070450Z VRB02KT 9999 SCT004 BKN008 04/02 Q1012;",
"01044099999","2008-05-07T05:50:00","4","70.486675","22.139744","6.4","HASVIK, NO","FM-15","ENHK ","V020","999,9,V,0010,1","00270,5,9,N","999999,9,N,1","+0040,1","+0020,1","99999,9","04,5,+00120,5,99,9","07,5,+00270,5,99,9",,,,,"10130,1,99999,9",,,,,"MET053METAR ENHK 070550Z VRB02KT SCT004 BKN009 04/02 Q1013;",
"01044099999","2008-05-07T11:50:00","4","70.486675","22.139744","6.4","HASVIK, NO","FM-15","ENHK ","V020","280,1,N,0021,1","00900,1,C,N","011265,1,N,1","+0050,1","+0020,1","99999,9","02,5,+00450,1,99,9","04,5,+00900,1,99,9","07,5,+02700,1,99,9",,"07,99,1,99,9,99,9,99999,9,99,9,99,9",,"10139,1,99999,9",,,,,"MET073METAR ENHK 071150Z 28004KT 250V340 9999 FEW015 SCT030 BKN090 05/02 Q1014;",
"01044099999","2008-05-07T12:20:00","4","70.486675","22.139744","6.4","HASVIK, NO","FM-15","ENHK ","V020","300,1,N,0031,1","99999,9,C,N","011265,1,N,1","+0060,1","+0020,1","99999,9","02,5,+00840,1,99,9","04,5,+02250,5,99,9",,,"04,99,1,99,9,99,9,99999,9,99,9,99,9",,"10139,1,99999,9",,,,,"MET066METAR ENHK 071220Z 30006KT 250V330 9999 FEW028 SCT075 06/02 Q1014;","P01 022503SCOCIG"
"01044099999","2008-05-07T13:20:00","4","70.486675","22.139744","6.4","HASVIK, NO","FM-15","ENHK ","V020","300,1,N,0026,1","00660,1,C,N","011265,1,N,1","+0060,1","+0000,1","99999,9","02,5,+00450,1,99,9","04,5,+00660,1,99,9","07,5,+01050,1,99,9",,"07,99,1,99,9,99,9,99999,9,99,9,99,9",,"10139,1,99999,9",,,,,"MET073METAR ENHK 071320Z 30005KT 270V330 9999 FEW015 SCT022 BKN035 06/00 Q1014;",
"01044099999","2008-05-07T13:50:00","4","70.486675","22.139744","6.4","HASVIK, NO","FM-15","ENHK ","V020","290,1,N,0026,1","01080,1,C,N","011265,1,N,1","+0060,1","+0000,1","99999,9","02,5,+00540,1,99,9","07,5,+01080,1,99,9",,,"07,99,1,99,9,99,9,99999,9,99,9,99,9",,"10139,1,99999,9",,,,,"MET067METAR ENHK 071350Z 29005KT 260V330 9999 FEW018 BKN036 06/M00 Q1014;",
"01044099999","2008-05-07T14:20:00","4","70.486675","22.139744","6.4","HASVIK, NO","FM-15","ENHK ","V020","310,1,N,0031,1","01170,1,C,N","011265,1,N,1","+0050,1","+0000,1","99999,9","02,5,+00540,1,99,9","07,5,+01170,1,99,9",,,"07,99,1,99,9,99,9,99999,9,99,9,99,9",,"10149,1,99999,9",,,,,"MET067METAR ENHK 071420Z 31006KT 270V330 9999 FEW018 BKN039 05/M00 Q1015;",
"01044099999","2008-05-08T02:50:00","4","70.486675","22.139744","6.4","HASVIK, NO","FM-15","ENHK ","V020","100,1,N,0031,1","99999,9,C,N","011265,1,N,1","+0040,1","+0010,1","99999,9","02,5,+00900,1,99,9","04,5,+04500,1,99,9",,,"04,99,1,99,9,99,9,99999,9,99,9,99,9",,"10129,1,99999,9",,,,,"MET058METAR ENHK 080250Z 10006KT 9999 FEW030 SCT150 04/01 Q1013;","P01 045003SCOCIG"
"01044099999","2008-05-08T04:20:00","4","70.486675","22.139744","6.4","HASVIK, NO","FM-15","ENHK ","V020","110,1,N,0041,1","02400,1,C,N","011265,1,N,1","+0040,1","+0010,1","99999,9","02,5,+01050,1,99,9","07,5,+02400,1,99,9",,,"07,99,1,99,9,99,9,99999,9,99,9,99,9",,"10119,1,99999,9",,,,,"MET058METAR ENHK 080420Z 11008KT 9999 FEW035 BKN080 04/01 Q1012;",
"01044099999","2008-05-08T05:20:00","4","70.486675","22.139744","6.4","HASVIK, NO","FM-15","ENHK ","V020","110,1,N,0057,1","02550,5,C,N","011265,1,N,1","+0040,1","+0020,1","99999,9","02,5,+00900,1,99,9","07,5,+02550,5,99,9",,,"07,99,1,99,9,99,9,99999,9,99,9,99,9",,"10119,1,99999,9",,,,,"MET058METAR ENHK 080520Z 11011KT 9999 FEW030 BKN085 04/02 Q1012;",
"01044099999","2008-05-08T05:50:00","4","70.486675","22.139744","6.4","HASVIK, NO","FM-15","ENHK ","V020","100,1,N,0057,1","02700,1,C,N","011265,1,N,1","+0050,1","+0020,1","99999,9","02,5,+01140,1,99,9","07,5,+02700,1,99,9",,,"07,99,1,99,9,99,9,99999,9,99,9,99,9",,"10119,1,99999,9",,,,,"MET058METAR ENHK 080550Z 10011KT 9999 FEW038 BKN090 05/02 Q1012;",
"01044099999","2008-05-08T11:50:00","4","70.486675","22.139744","6.4","HASVIK, NO","FM-15","ENHK ","V020","110,1,N,0031,1","02250,5,C,N","011265,1,N,1","+0070,1","+0010,1","99999,9","02,5,+00900,1,99,9","07,5,+02250,5,99,9",,,"07,99,1,99,9,99,9,99999,9,99,9,99,9",,"10102,1,99999,9",,,,,"MET058METAR ENHK 081150Z 11006KT 9999 FEW030 BKN075 07/01 Q1010;",
"01044099999","2008-05-08T12:50:00","4","70.486675","22.139744","6.4","HASVIK, NO","FM-15","ENHK ","V020","120,1,N,0031,1","01950,5,C,N","011265,1,N,1","+0070,1","+0020,1","99999,9","04,5,+00960,1,99,9","07,5,+01950,5,99,9",,,"07,99,1,99,9,99,9,99999,9,99,9,99,9",,"10102,1,99999,9",,,,,"MET058METAR ENHK 081250Z 12006KT 9999 SCT032 BKN065 07/02 Q1010;",
"01044099999","2008-05-08T13:20:00","4","70.486675","22.139744","6.4","HASVIK, NO","FM-15","ENHK ","V020","110,1,N,0031,1","00990,1,C,N","011265,1,N,1","+0070,1","+0020,1","99999,9","02,5,+00600,1,99,9","04,5,+00990,1,99,9","07,5,+01860,5,99,9",,"07,99,1,99,9,99,9,99999,9,99,9,99,9",,"10102,1,99999,9","51,1","61,1",,,"MET071METAR ENHK 081320Z 11006KT 9999 -DZRA FEW020 SCT033 BKN062 07/02 Q1010;",
"01044099999","2008-05-08T13:50:00","4","70.486675","22.139744","6.4","HASVIK, NO","FM-15","ENHK ","V020","130,1,N,0026,1","01050,1,C,N","011265,1,N,1","+0070,1","+0020,1","99999,9","02,5,+00690,1,99,9","04,5,+01050,1,99,9","07,5,+01800,1,99,9",,"07,99,1,99,9,99,9,99999,9,99,9,99,9",,"10102,1,99999,9","61,1",,,,"MET069METAR ENHK 081350Z 13005KT 9999 -RA FEW023 SCT035 BKN060 07/02 Q1010;",
"01044099999","2008-05-08T14:20:00","4","70.486675","22.139744","6.4","HASVIK, NO","FM-15","ENHK ","V020","120,1,N,0021,1","01050,1,C,N","011265,1,N,1","+0070,1","+0030,1","99999,9","04,5,+00750,1,99,9","07,5,+01050,1,99,9",,,"07,99,1,99,9,99,9,99999,9,99,9,99,9",,"10102,1,99999,9","61,1",,,,"MET062METAR ENHK 081420Z 12004KT 9999 -RA SCT025 BKN035 07/03 Q1010;",
"01044099999","2008-05-09T03:20:00","4","70.486675","22.139744","6.4","HASVIK, NO","FM-15","ENHK ","V020","320,1,N,0067,1","00900,1,C,N","011265,1,N,1","+0040,1","-0010,1","99999,9","02,5,+00600,1,99,9","04,5,+00900,1,99,9","07,5,+01350,1,99,9",,"07,99,1,99,9,99,9,99999,9,99,9,99,9",,"10119,1,99999,9",,,,,"MET066METAR ENHK 090320Z 32013KT 9999 FEW020 SCT030 BKN045 04/M01 Q1012;",
"01044099999","2008-05-09T03:50:00","4","70.486675","22.139744","6.4","HASVIK, NO","FM-15","ENHK ","V020","320,1,N,0067,1","00960,1,C,N","011265,1,N,1","+0040,1","-0010,1","99999,9","02,5,+00690,1,99,9","04,5,+00960,1,99,9","07,5,+01140,1,99,9",,"07,99,1,99,9,99,9,99999,9,99,9,99,9",,"10119,1,99999,9",,,,,"MET066METAR ENHK 090350Z 32013KT 9999 FEW023 SCT032 BKN038 04/M01 Q1012;",
"01044099999","2008-05-09T04:20:00","4","70.486675","22.139744","6.4","HASVIK, NO","FM-15","ENHK ","V020","310,1,N,0057,1","00780,1,C,N","011265,1,N,1","+0040,1","-0010,1","99999,9","02,5,+00600,1,99,9","04,5,+00780,1,99,9","07,5,+01050,1,99,9",,"07,99,1,99,9,99,9,99999,9,99,9,99,9",,"10119,1,99999,9",,,,,"MET066METAR ENHK 090420Z 31011KT 9999 FEW020 SCT026 BKN035 04/M01 Q1012;",
"01044099999","2008-05-09T04:50:00","4","70.486675","22.139744","6.4","HASVIK, NO","FM-15","ENHK ","V020","310,1,N,0051,1","00840,1,C,N","011265,1,N,1","+0040,1","+0000,1","99999,9","02,5,+00690,1,99,9","04,5,+00840,1,99,9","07,5,+01260,1,99,9",,"07,99,1,99,9,99,9,99999,9,99,9,99,9",,"10119,1,99999,9",,,,,"MET066METAR ENHK 090450Z 31010KT 9999 FEW023 SCT028 BKN042 04/M00 Q1012;",
"01044099999","2008-05-09T05:20:00","4","70.486675","22.139744","6.4","HASVIK, NO","FM-15","ENHK ","V020","330,1,N,0036,1","00960,1,C,N","011265,1,N,1","+0040,1","-0010,1","99999,9","02,5,+00690,1,99,9","07,5,+00960,1,99,9",,,"07,99,1,99,9,99,9,99999,9,99,9,99,9",,"10119,1,99999,9",,,,,"MET059METAR ENHK 090520Z 33007KT 9999 FEW023 BKN032 04/M01 Q1012;",
"01044099999","2008-05-09T05:50:00","4","70.486675","22.139744","6.4","HASVIK, NO","FM-15","ENHK ","V020","340,1,N,0026,1","00990,1,C,N","011265,1,N,1","+0040,1","-0010,1","99999,9","02,5,+00660,1,99,9","07,5,+00990,1,99,9",,,"07,99,1,99,9,99,9,99999,9,99,9,99,9",,"10119,1,99999,9",,,,,"MET067METAR ENHK 090550Z 34005KT 310V010 9999 FEW022 BKN033 04/M01 Q1012;",
"01044099999","2008-05-09T12:20:00","4","70.486675","22.139744","6.4","HASVIK, NO","FM-15","ENHK ","V020","130,1,N,0026,1","02250,5,C,N","011265,1,N,1","+0050,1","+0010,1","99999,9","02,5,+01050,1,99,9","07,5,+02250,5,99,9",,,"07,99,1,99,9,99,9,99999,9,99,9,99,9",,"10102,1,99999,9",,,,,"MET058METAR ENHK 091220Z 13005KT 9999 FEW035 BKN075 05/01 Q1010;",
"01044099999","2008-05-09T12:50:00","4","70.486675","22.139744","6.4","HASVIK, NO","FM-15","ENHK ","V020","120,1,N,0031,1","02250,5,C,N","011265,1,N,1","+0050,1","+0010,1","99999,9","02,5,+01050,1,99,9","07,5,+02250,5,99,9",,,"07,99,1,99,9,99,9,99999,9,99,9,99,9",,"10102,1,99999,9",,,,,"MET058METAR ENHK 091250Z 12006KT 9999 FEW035 BKN075 05/01 Q1010;",
"01044099999","2008-05-09T13:20:00","4","70.486675","22.139744","6.4","HASVIK, NO","FM-15","ENHK ","V020","110,1,N,0036,1","02250,5,C,N","011265,1,N,1","+0050,1","+0010,1","99999,9","02,5,+01050,1,99,9","07,5,+02250,5,99,9",,,"07,99,1,99,9,99,9,99999,9,99,9,99,9",,"10091,1,99999,9",,,,,"MET058METAR ENHK 091320Z 11007KT 9999 FEW035 BKN075 05/01 Q1009;",
"01044099999","2008-05-09T13:50:00","4","70.486675","22.139744","6.4","HASVIK, NO","FM-15","ENHK ","V020","110,1,N,0087,1","02250,5,C,N","011265,1,N,1","+0060,1","+0010,1","99999,9","02,5,+01050,1,99,9","07,5,+02250,5,99,9",,,"07,99,1,99,9,99,9,99999,9,99,9,99,9",,"10091,1,99999,9",,,,,"MET058METAR ENHK 091350Z 11017KT 9999 FEW035 BKN075 06/01 Q1009;",
"01044099999","2008-05-09T14:20:00","4","70.486675","22.139744","6.4","HASVIK, NO","FM-15","ENHK ","V020","120,1,N,0041,1","02250,5,C,N","011265,1,N,1","+0060,1","+0010,1","99999,9","02,5,+01050,1,99,9","07,5,+02250,5,99,9",,,"07,99,1,99,9,99,9,99999,9,99,9,99,9",,"10081,1,99999,9",,,,,"MET058METAR ENHK 091420Z 12008KT 9999 FEW035 BKN075 06/01 Q1008;",
"01044099999","2008-05-09T14:50:00","4","70.486675","22.139744","6.4","HASVIK, NO","FM-15","ENHK ","V020","110,1,N,0051,1","02250,5,C,N","011265,1,N,1","+0060,1","+0020,1","99999,9","02,5,+01050,1,99,9","07,5,+02250,5,99,9",,,"07,99,1,99,9,99,9,99999,9,99,9,99,9",,"10081,1,99999,9",,,,,"MET058METAR ENHK 091450Z 11010KT 9999 FEW035 BKN075 06/02 Q1008;",
"01044099999","2008-05-11T11:20:00","4","70.486675","22.139744","6.4","HASVIK, NO","FM-15","ENHK ","V020","260,1,N,0051,1","00750,1,C,N","011265,1,N,1","+0010,1","-0010,1","99999,9","02,5,+00450,1,99,9","04,5,+00750,1,99,9","07,5,+01050,1,99,9",,"07,99,1,99,9,99,9,99999,9,99,9,99,9",,"10119,1,99999,9","80,1",,,,"MET074METAR ENHK 111120Z 26010KT 9999 -SHSNRA FEW015 SCT025 BKN035 01/M01 Q1012;",
"01044099999","2008-05-11T11:50:00","4","70.486675","22.139744","6.4","HASVIK, NO","FM-15","ENHK ","V020","260,1,N,0046,1","00450,1,C,N","011265,1,N,1","+0020,1","+0000,1","99999,9","02,5,+00300,1,99,9","04,5,+00450,1,99,9","07,5,+00750,1,99,9",,"07,99,1,99,9,99,9,99999,9,99,9,99,9",,"10119,1,99999,9","85,5",,,,"MET072METAR ENHK 111150Z 26009KT 9999 -SHSN FEW010 SCT015 BKN025 02/M00 Q1012;",
"01044099999","2008-05-11T12:20:00","4","70.486675","22.139744","6.4","HASVIK, NO","FM-15","ENHK ","V020","240,1,N,0036,1","01050,1,C,N","011265,1,N,1","+0020,1","+0000,1","99999,9","02,5,+00750,1,99,9","04,5,+01050,1,99,9","07,5,+01500,1,99,9",,"07,99,1,99,9,99,9,99999,9,99,9,99,9",,"10119,1,99999,9",,,,,"MET065METAR ENHK 111220Z 24007KT 9999 FEW025 SCT035 BKN050 02/00 Q1012;",
"01044099999","2008-05-11T12:50:00","4","70.486675","22.139744","6.4","HASVIK, NO","FM-15","ENHK ","V020","250,1,N,0036,1","01050,1,C,N","011265,1,N,1","+0030,1","+0000,1","99999,9","02,5,+00750,1,99,9","04,5,+01050,1,99,9","07,5,+01500,1,99,9",,"07,99,1,99,9,99,9,99999,9,99,9,99,9",,"10119,1,99999,9",,,,,"MET066METAR ENHK 111250Z 25007KT 9999 FEW025 SCT035 BKN050 03/M00 Q1012;",
"01044099999","2008-05-11T14:20:00","4","70.486675","22.139744","6.4","HASVIK, NO","FM-15","ENHK ","V020","260,1,N,0062,1","01650,5,C,N","011265,1,N,1","+0040,1","-0010,1","99999,9","02,5,+01050,1,99,9","07,5,+01650,5,99,9",,,"07,99,1,99,9,99,9,99999,9,99,9,99,9",,"10119,1,99999,9",,,,,"MET059METAR ENHK 111420Z 26012KT 9999 FEW035 BKN055 04/M01 Q1012;",
"01044099999","2008-05-12T12:20:00","4","70.486675","22.139744","6.4","HASVIK, NO","FM-15","ENHK ","V020","320,1,N,0093,1","00750,1,C,N","011265,1,N,1","+0040,1","+0010,1","99999,9","02,5,+00450,1,99,9","04,5,+00750,1,99,9","07,5,+01050,1,99,9",,"07,99,1,99,9,99,9,99999,9,99,9,99,9",,"10149,1,99999,9",,,,,"MET065METAR ENHK 121220Z 32018KT 9999 FEW015 SCT025 BKN035 04/01 Q1015;",
"01044099999","2008-05-12T12:50:00","4","70.486675","22.139744","6.4","HASVIK, NO","FM-15","ENHK ","V020","320,1,N,0087,1","00600,1,C,N","011265,1,N,1","+0040,1","+0010,1","99999,9","02,5,+00450,1,99,9","04,5,+00600,1,99,9","07,5,+00750,1,99,9",,"07,99,1,99,9,99,9,99999,9,99,9,99,9",,"10149,1,99999,9","16,1",,,"0149,1","MET073METAR ENHK 121250Z 32017G29KT 9999 VCSH FEW015 SCT020 BKN025 04/01 Q1015;",
"01044099999","2008-05-12T13:20:00","4","70.486675","22.139744","6.4","HASVIK, NO","FM-15","ENHK ","V020","330,1,N,0067,1","00600,1,C,N","011265,1,N,1","+0020,1","+0000,1","99999,9","02,5,+00450,1,99,9","04,5,+00600,1,99,9","07,5,+00900,1,99,9",,"07,99,1,99,9,99,9,99999,9,99,9,99,9",,"10149,1,99999,9","16,1",,,,"MET070METAR ENHK 121320Z 33013KT 9999 VCSH FEW015 SCT020 BKN030 02/00 Q1015;",
"01044099999","2008-05-12T13:50:00","4","70.486675","22.139744","6.4","HASVIK, NO","FM-15","ENHK ","V020","310,1,N,0072,1","00450,1,C,N","007000,1,N,1","+0020,1","+0000,1","99999,9","02,5,+00300,1,99,9","04,5,+00450,1,99,9","07,5,+00600,1,99,9",,"07,99,1,99,9,99,9,99999,9,99,9,99,9",,"10159,1,99999,9","80,1",,,,"MET073METAR ENHK 121350Z 31014KT 7000 -SHSNRA FEW010 SCT015 BKN020 02/00 Q1016;",
"01044099999","2008-05-12T14:20:00","4","70.486675","22.139744","6.4","HASVIK, NO","FM-15","ENHK ","V020","310,1,N,0046,1","00150,1,9,N","001000,1,N,1","+0000,1","-0010,1","99999,9","09,1,+00150,1,99,9",,,,"09,99,1,99,9,99,9,00025,1,99,9,99,9",,"10159,1,99999,9","86,5",,,,"MET056METAR ENHK 121420Z 31009KT 1000 SHSN VV005 00/M01 Q1016;",
"01044099999","2008-05-13T03:20:00","4","70.486675","22.139744","6.4","HASVIK, NO","FM-15","ENHK ","V020","999,9,V,0005,1","99999,9,C,N","011265,1,N,1","+0020,1","+0000,1","99999,9","02,5,+00240,1,99,9","04,5,+00480,1,99,9",,,"04,99,1,99,9,99,9,99999,9,99,9,99,9",,"10149,1,99999,9",,,,,"MET058METAR ENHK 130320Z VRB01KT 9999 FEW008 SCT016 02/00 Q1015;","P01 004803SCOCIG"
"01044099999","2008-05-13T03:50:00","4","70.486675","22.139744","6.4","HASVIK, NO","FM-15","ENHK ","V020","030,1,N,0041,1","99999,9,C,N","011265,1,N,1","+0030,1","-0020,1","99999,9","02,5,+00270,1,99,9","04,5,+00510,1,99,9",,,"04,99,1,99,9,99,9,99999,9,99,9,99,9",,"10149,1,99999,9",,,,,"MET067METAR ENHK 130350Z 03008KT 330V070 9999 FEW009 SCT017 03/M02 Q1015;","P01 005103SCOCIG"
"01044099999","2008-05-13T04:20:00","4","70.486675","22.139744","6.4","HASVIK, NO","FM-15","ENHK ","V020","300,1,N,0026,1","22000,1,9,N","011265,1,N,1","+0020,1","-0010,1","99999,9","04,5,+00570,1,99,9",,,,"04,99,1,99,9,99,9,99999,9,99,9,99,9",,"10159,1,99999,9",,,,,"MET060METAR ENHK 130420Z 30005KT 220V330 9999 SCT019 02/M01 Q1016;",
"01044099999","2008-05-13T04:50:00","4","70.486675","22.139744","6.4","HASVIK, NO","FM-15","ENHK ","V020","999,9,V,0015,1","99999,9,C,N","011265,1,N,1","+0020,1","-0010,1","99999,9","02,5,+00780,1,99,9","04,5,+01710,5,99,9",,,"04,99,1,99,9,99,9,99999,9,99,9,99,9",,"10159,1,99999,9","16,1",,,,"MET064METAR ENHK 130450Z VRB03KT 9999 VCSH FEW026 SCT057 02/M01 Q1016;","P01 017103SCOCIG"
"01044099999","2008-05-13T06:20:00","4","70.486675","22.139744","6.4","HASVIK, NO","FM-15","ENHK ","V020","020,1,N,0051,1","02220,5,C,N","011265,1,N,1","+0030,1","-0010,1","99999,9","04,5,+00750,1,99,9","07,5,+02220,5,99,9",,,"07,99,1,99,9,99,9,99999,9,99,9,99,9",,"10159,1,99999,9",,,,,"MET067METAR ENHK 130620Z 02010KT 340V070 9999 SCT025 BKN074 03/M01 Q1016;",
"01044099999","2008-05-13T07:20:00","4","70.486675","22.139744","6.4","HASVIK, NO","FM-15","ENHK ","V020","340,1,N,0026,1","00810,1,C,N","011265,1,N,1","+0010,1","+0000,1","99999,9","02,5,+00480,1,99,9","04,5,+00810,1,99,9","07,5,+02070,5,99,9",,"07,99,1,99,9,99,9,99999,9,99,9,99,9",,"10169,1,99999,9","16,1",,,,"MET071METAR ENHK 130720Z 34005KT 9999 VCSH FEW016 SCT027 BKN069 01/M00 Q1017;",
"01044099999","2008-05-13T08:50:00","4","70.486675","22.139744","6.4","HASVIK, NO","FM-15","ENHK ","V020","020,1,N,0041,1","00690,1,C,N","011265,1,N,1","+0030,1","+0000,1","99999,9","02,5,+00420,1,99,9","04,5,+00690,1,99,9","07,5,+01410,1,99,9",,"07,99,1,99,9,99,9,99999,9,99,9,99,9",,"10169,1,99999,9","16,1",,,,"MET079METAR ENHK 130850Z 02008KT 320V060 9999 VCSH FEW014 SCT023 BKN047 03/M00 Q1017;",
"01044099999","2008-05-13T12:50:00","4","70.486675","22.139744","6.4","HASVIK, NO","FM-15","ENHK ","V020","999,9,V,0010,1","99999,9,C,N","011265,1,N,1","+0040,1","-0010,1","99999,9","02,5,+00480,1,99,9","04,5,+01800,1,99,9",,,"04,99,1,99,9,99,9,99999,9,99,9,99,9",,"10190,1,99999,9",,,,,"MET067METAR ENHK 131250Z VRB02KT 9999 FEW016 SCT060 04/M01 Q1019 -RESNRA;","P01 018003SCOCIG"
"01044099999","2008-05-13T13:20:00","4","70.486675","22.139744","6.4","HASVIK, NO","FM-15","ENHK ","V020","030,1,N,0026,1","00750,1,C,N","011265,1,N,1","+0040,1","-0020,1","99999,9","02,5,+00480,1,99,9","07,5,+00750,1,99,9",,,"07,99,1,99,9,99,9,99999,9,99,9,99,9",,"10200,1,99999,9","16,1",,,,"MET078METAR ENHK 131320Z 03005KT 330V090 9999 5000N VCSH FEW016 BKN025 04/M02 Q1020;",
"01044099999","2008-05-13T14:20:00","4","70.486675","22.139744","6.4","HASVIK, NO","FM-15","ENHK ","V020","090,1,N,0026,1","99999,9,C,N","011265,1,N,1","+0030,1","+0000,1","99999,9","02,5,+00480,1,99,9","04,5,+01500,1,99,9",,,"04,99,1,99,9,99,9,99999,9,99,9,99,9",,"10200,1,99999,9","16,1",,,,"MET077METAR ENHK 131420Z 09005KT 060V120 9999 VCSH FEW016 SCT050 03/M00 Q1020 RESN;","P01 015003SCOCIG"
"01044099999","2008-05-13T14:50:00","4","70.486675","22.139744","6.4","HASVIK, NO","FM-15","ENHK ","V020","080,1,N,0015,1","99999,9,C,N","011265,1,N,1","+0030,1","-0010,1","99999,9","02,5,+00300,1,99,9","04,5,+01350,1,99,9",,,"04,99,1,99,9,99,9,99999,9,99,9,99,9",,"10200,1,99999,9","16,1",,,,"MET072METAR ENHK 131450Z 08003KT 030V150 9999 VCSH FEW010 SCT045 03/M01 Q1020;","P01 013503SCOCIG"
"01044099999","2008-05-14T03:20:00","4","70.486675","22.139744","6.4","HASVIK, NO","FM-15","ENHK ","V020","110,1,N,0041,1","99999,9,C,N","011265,1,N,1","+0020,1","-0030,1","99999,9","02,5,+00690,1,99,9","04,5,+01800,1,99,9",,,"04,99,1,99,9,99,9,99999,9,99,9,99,9",,"10200,1,99999,9",,,,,"MET059METAR ENHK 140320Z 11008KT 9999 FEW023 SCT060 02/M03 Q1020;","P01 018003SCOCIG"
"01044099999","2008-05-14T03:50:00","4","70.486675","22.139744","6.4","HASVIK, NO","FM-15","ENHK ","V020","130,1,N,0041,1","99999,9,C,N","011265,1,N,1","+0020,1","-0030,1","99999,9","02,5,+00750,1,99,9","04,5,+01770,5,99,9",,,"04,99,1,99,9,99,9,99999,9,99,9,99,9",,"10200,1,99999,9",,,,,"MET059METAR ENHK 140350Z 13008KT 9999 FEW025 SCT059 02/M03 Q1020;","P01 017703SCOCIG"
"01044099999","2008-05-14T04:20:00","4","70.486675","22.139744","6.4","HASVIK, NO","FM-15","ENHK ","V020","120,1,N,0046,1","99999,9,C,N","011265,1,N,1","+0020,1","-0040,1","99999,9","02,5,+00780,1,99,9","04,5,+01800,1,99,9",,,"04,99,1,99,9,99,9,99999,9,99,9,99,9",,"10200,1,99999,9",,,,,"MET059METAR ENHK 140420Z 12009KT 9999 FEW026 SCT060 02/M04 Q1020;","P01 018003SCOCIG"
"01044099999","2008-05-14T04:50:00","4","70.486675","22.139744","6.4","HASVIK, NO","FM-15","ENHK ","V020","110,1,N,0046,1","99999,9,C,N","011265,1,N,1","+0020,1","-0040,1","99999,9","02,5,+00810,1,99,9","04,5,+01740,5,99,9",,,"04,99,1,99,9,99,9,99999,9,99,9,99,9",,"10200,1,99999,9",,,,,"MET059METAR ENHK 140450Z 11009KT 9999 FEW027 SCT058 02/M04 Q1020;","P01 017403SCOCIG"
"01044099999","2008-05-14T05:50:00","4","70.486675","22.139744","6.4","HASVIK, NO","FM-15","ENHK ","V020","120,1,N,0046,1","99999,9,C,N","011265,1,N,1","+0030,1","-0030,1","99999,9","02,5,+00750,1,99,9","04,5,+01680,5,99,9",,,"04,99,1,99,9,99,9,99999,9,99,9,99,9",,"10200,1,99999,9",,,,,"MET059METAR ENHK 140550Z 12009KT 9999 FEW025 SCT056 03/M03 Q1020;","P01 016803SCOCIG"
"01044099999","2008-05-14T06:20:00","4","70.486675","22.139744","6.4","HASVIK, NO","FM-15","ENHK ","V020","120,1,N,0046,1","99999,9,C,N","011265,1,N,1","+0030,1","-0040,1","99999,9","02,5,+00780,1,99,9","04,5,+01620,5,99,9",,,"04,99,1,99,9,99,9,99999,9,99,9,99,9",,"10200,1,99999,9",,,,,"MET059METAR ENHK 140620Z 12009KT 9999 FEW026 SCT054 03/M04 Q1020;","P01 016203SCOCIG"
"01044099999","2008-05-14T07:50:00","4","70.486675","22.139744","6.4","HASVIK, NO","FM-15","ENHK ","V020","120,1,N,0041,1","99999,9,C,Y","009900,1,N,1","+0030,1","-0040,1","99999,9",,,,,,,"10210,1,99999,9",,,,,"MET046METAR ENHK 140750Z 12008KT CAVOK 03/M04 Q1021;",
"01044099999","2008-05-14T08:20:00","4","70.486675","22.139744","6.4","HASVIK, NO","FM-15","ENHK ","V020","110,1,N,0041,1","99999,9,C,N","011265,1,N,1","+0030,1","-0030,1","99999,9","02,5,+00810,1,99,9","04,5,+01590,5,99,9",,,"04,99,1,99,9,99,9,99999,9,99,9,99,9",,"10210,1,99999,9",,,,,"MET059METAR ENHK 140820Z 11008KT 9999 FEW027 SCT053 03/M03 Q1021;","P01 015903SCOCIG"
"01044099999","2008-05-14T08:50:00","4","70.486675","22.139744","6.4","HASVIK, NO","FM-15","ENHK ","V020","110,1,N,0041,1","99999,9,C,N","011265,1,N,1","+0030,1","-0030,1","99999,9","02,5,+00780,1,99,9","04,5,+01650,5,99,9",,,"04,99,1,99,9,99,9,99999,9,99,9,99,9",,"10210,1,99999,9",,,,,"MET059METAR ENHK 140850Z 11008KT 9999 FEW026 SCT055 03/M03 Q1021;","P01 016503SCOCIG"
"01044099999","2008-05-14T10:20:00","4","70.486675","22.139744","6.4","HASVIK, NO","FM-15","ENHK ","V020","120,1,N,0051,1","99999,9,C,Y","009900,1,N,1","+0030,1","-0050,1","99999,9",,,,,,,"10200,1,99999,9",,,,,"MET046METAR ENHK 141020Z 12010KT CAVOK 03/M05 Q1020;",
"01044099999","2008-05-14T11:50:00","4","70.486675","22.139744","6.4","HASVIK, NO","FM-15","ENHK ","V020","120,1,N,0046,1","99999,9,C,N","011265,1,N,1","+0030,1","-0060,1","99999,9","02,5,+01350,1,99,9","04,5,+03000,1,99,9",,,"04,99,1,99,9,99,9,99999,9,99,9,99,9",,"10210,1,99999,9",,,,,"MET067METAR ENHK 141150Z 12009KT 070V150 9999 FEW045 SCT100 03/M06 Q1021;","P01 030003SCOCIG"
"01044099999","2008-05-14T12:50:00","4","70.486675","22.139744","6.4","HASVIK, NO","FM-15","ENHK ","V020","120,1,N,0041,1","22000,1,9,N","011265,1,N,1","+0040,1","-0050,1","99999,9",,,,,"00,99,1,99,9,99,9,99999,9,99,9,99,9",,"10200,1,99999,9",,,,,"MET049METAR ENHK 141250Z 12008KT 9999 NSC 04/M05 Q1020;","Q01    003SCCGA1"
"01044099999","2008-05-14T14:20:00","4","70.486675","22.139744","6.4","HASVIK, NO","FM-15","ENHK ","V020","120,1,N,0036,1","22000,1,9,N","011265,1,N,1","+0040,1","-0050,1","99999,9",,,,,"00,99,1,99,9,99,9,99999,9,99,9,99,9",,"10200,1,99999,9",,,,,"MET049METAR ENHK 141420Z 12007KT 9999 NSC 04/M05 Q1020;","Q01    003SCCGA1"
"01044099999","2008-05-15T03:20:00","4","70.486675","22.139744","6.4","HASVIK, NO","FM-15","ENHK ","V020","090,1,N,0046,1","99999,9,C,Y","009900,1,N,1","+0020,1","-0040,1","99999,9",,,,,,,"10190,1,99999,9",,,,,"MET046METAR ENHK 150320Z 09009KT CAVOK 02/M04 Q1019;",
"01044099999","2008-05-15T03:50:00","4","70.486675","22.139744","6.4","HASVIK, NO","FM-15","ENHK ","V020","090,1,N,0046,1","99999,9,C,Y","009900,1,N,1","+0020,1","-0040,1","99999,9",,,,,,,"10190,1,99999,9",,,,,"MET046METAR ENHK 150350Z 09009KT CAVOK 02/M04 Q1019;",
"01044099999","2008-05-15T04:20:00","4","70.486675","22.139744","6.4","HASVIK, NO","FM-15","ENHK ","V020","090,1,N,0046,1","99999,9,C,Y","009900,1,N,1","+0020,1","-0040,1","99999,9",,,,,,,"10190,1,99999,9",,,,,"MET046METAR ENHK 150420Z 09009KT CAVOK 02/M04 Q1019;",
"01044099999","2008-05-15T05:20:00","4","70.486675","22.139744","6.4","HASVIK, NO","FM-15","ENHK ","V020","110,1,N,0046,1","99999,9,C,Y","009900,1,N,1","+0020,1","-0040,1","99999,9",,,,,,,"10190,1,99999,9",,,,,"MET046METAR ENHK 150520Z 11009KT CAVOK 02/M04 Q1019;",
"01044099999","2008-05-15T05:50:00","4","70.486675","22.139744","6.4","HASVIK, NO","FM-15","ENHK ","V020","100,1,N,0051,1","99999,9,C,Y","009900,1,N,1","+0030,1","-0030,1","99999,9",,,,,,,"10190,1,99999,9",,,,,"MET046METAR ENHK 150550Z 10010KT CAVOK 03/M03 Q1019;",
"01044099999","2008-05-15T07:20:00","4","70.486675","22.139744","6.4","HASVIK, NO","FM-15","ENHK ","V020","110,1,N,0046,1","99999,9,C,Y","009900,1,N,1","+0030,1","-0040,1","99999,9",,,,,,,"10190,1,99999,9",,,,,"MET046METAR ENHK 150720Z 11009KT CAVOK 03/M04 Q1019;",
"01044099999","2008-05-15T07:50:00","4","70.486675","22.139744","6.4","HASVIK, NO","FM-15","ENHK ","V020","110,1,N,0046,1","99999,9,C,Y","009900,1,N,1","+0030,1","-0040,1","99999,9",,,,,,,"10190,1,99999,9",,,,,"MET046METAR ENHK 150750Z 11009KT CAVOK 03/M04 Q1019;",
"01044099999","2008-05-15T09:20:00","4","70.486675","22.139744","6.4","HASVIK, NO","FM-15","ENHK ","V020","110,1,N,0046,1","99999,9,C,Y","009900,1,N,1","+0030,1","-0050,1","99999,9",,,,,,,"10180,1,99999,9",,,,,"MET046METAR ENHK 150920Z 11009KT CAVOK 03/M05 Q1018;",
"01044099999","2008-05-15T11:20:00","4","70.486675","22.139744","6.4","HASVIK, NO","FM-15","ENHK ","V020","120,1,N,0046,1","22000,1,9,N","011265,1,N,1","+0040,1","-0040,1","99999,9","02,5,+01200,1,99,9",,,,"02,99,1,99,9,99,9,99999,9,99,9,99,9",,"10180,1,99999,9",,,,,"MET060METAR ENHK 151120Z 12009KT 100V160 9999 FEW040 04/M04 Q1018;",
"01044099999","2008-05-15T11:50:00","4","70.486675","22.139744","6.4","HASVIK, NO","FM-15","ENHK ","V020","130,1,N,0041,1","22000,1,9,N","011265,1,N,1","+0050,1","-0040,1","99999,9","02,5,+01200,1,99,9",,,,"02,99,1,99,9,99,9,99999,9,99,9,99,9",,"10180,1,99999,9",,,,,"MET052METAR ENHK 151150Z 13008KT 9999 FEW040 05/M04 Q1018;",
"01044099999","2008-05-15T13:50:00","4","70.486675","22.139744","6.4","HASVIK, NO","FM-15","ENHK ","V020","120,1,N,0046,1","22000,1,9,N","011265,1,N,1","+0040,1","-0050,1","99999,9","02,5,+01200,1,99,9",,,,"02,99,1,99,9,99,9,99999,9,99,9,99,9",,"10180,1,99999,9",,,,,"MET052METAR ENHK 151350Z 12009KT 9999 FEW040 04/M05 Q1018;",
"01044099999","2008-05-15T14:20:00","4","70.486675","22.139744","6.4","HASVIK, NO","FM-15","ENHK ","V020","120,1,N,0036,1","22000,1,9,N","011265,1,N,1","+9999,9","-0060,1","99999,9","02,5,+01200,1,99,9",,,,"02,99,1,99,9,99,9,99999,9,99,9,99,9",,"10180,1,99999,9",,,,,"MET053METAR ENHK 151420Z 12007KT 9999 FEW040 M04/M06 Q1018;",
"01044099999","2008-05-16T03:20:00","4","70.486675","22.139744","6.4","HASVIK, NO","FM-15","ENHK ","V020","100,1,N,0041,1","01260,1,C,N","011265,1,N,1","+0010,1","-0040,1","99999,9","07,5,+01260,1,99,9",,,,"07,99,1,99,9,99,9,99999,9,99,9,99,9",,"10169,1,99999,9",,,,,"MET052METAR ENHK 160320Z 10008KT 9999 BKN042 01/M04 Q1017;",
"01044099999","2008-05-16T03:50:00","4","70.486675","22.139744","6.4","HASVIK, NO","FM-15","ENHK ","V020","100,1,N,0046,1","01260,1,C,N","011265,1,N,1","+0020,1","-0040,1","99999,9","02,5,+00900,1,99,9","07,5,+01260,1,99,9",,,"07,99,1,99,9,99,9,99999,9,99,9,99,9",,"10169,1,99999,9",,,,,"MET059METAR ENHK 160350Z 10009KT 9999 FEW030 BKN042 02/M04 Q1017;",
"01044099999","2008-05-16T04:20:00","4","70.486675","22.139744","6.4","HASVIK, NO","FM-15","ENHK ","V020","100,1,N,0046,1","01140,1,C,N","011265,1,N,1","+0020,1","-0050,1","99999,9","02,5,+00900,1,99,9","07,5,+01140,1,99,9",,,"07,99,1,99,9,99,9,99999,9,99,9,99,9",,"10169,1,99999,9",,,,,"MET059METAR ENHK 160420Z 10009KT 9999 FEW030 BKN038 02/M05 Q1017;",
"01044099999","2008-05-16T04:50:00","4","70.486675","22.139744","6.4","HASVIK, NO","FM-15","ENHK ","V020","090,1,N,0036,1","01140,1,C,N","011265,1,N,1","+0020,1","-0050,1","99999,9","02,5,+00690,1,99,9","07,5,+01140,1,99,9",,,"07,99,1,99,9,99,9,99999,9,99,9,99,9",,"10169,1,99999,9",,,,,"MET059METAR ENHK 160450Z 09007KT 9999 FEW023 BKN038 02/M05 Q1017;",
"01044099999","2008-05-16T12:20:00","4","70.486675","22.139744","6.4","HASVIK, NO","FM-15","ENHK ","V020","070,1,N,0046,1","00480,1,C,N","011265,1,N,1","+0030,1","-0050,1","99999,9","02,5,+00300,1,99,9","04,5,+00480,1,99,9","07,5,+01200,1,99,9",,"07,99,1,99,9,99,9,99999,9,99,9,99,9",,"10169,1,99999,9","16,1",,,,"MET079METAR ENHK 161220Z 07009KT 040V100 9999 VCSH FEW010 SCT016 BKN040 03/M05 Q1017;",
"01044099999","2008-05-16T12:50:00","4","70.486675","22.139744","6.4","HASVIK, NO","FM-15","ENHK ","V020","060,1,N,0036,1","00750,1,C,N","011265,1,N,1","+0040,1","-0040,1","99999,9","02,5,+00480,1,99,9","04,5,+00750,1,99,9","07,5,+00990,1,99,9",,"07,99,1,99,9,99,9,99999,9,99,9,99,9",,"10169,1,99999,9","16,1",,,,"MET079METAR ENHK 161250Z 06007KT 030V090 9999 VCSH FEW016 SCT025 BKN033 04/M04 Q1017;",
"01044099999","2008-05-16T13:20:00","4","70.486675","22.139744","6.4","HASVIK, NO","FM-15","ENHK ","V020","130,1,N,0036,1","00780,1,C,N","011265,1,N,1","+0030,1","-0030,1","99999,9","02,5,+00540,1,99,9","04,5,+00780,1,99,9","07,5,+00990,1,99,9",,"07,99,1,99,9,99,9,99999,9,99,9,99,9",,"10169,1,99999,9",,,,,"MET066METAR ENHK 161320Z 13007KT 9999 FEW018 SCT026 BKN033 03/M03 Q1017;",
"01044099999","2008-05-16T13:50:00","4","70.486675","22.139744","6.4","HASVIK, NO","FM-15","ENHK ","V020","080,1,N,0031,1","00780,1,C,N","011265,1,N,1","+0030,1","-0050,1","99999,9","02,5,+00540,1,99,9","04,5,+00780,1,99,9","07,5,+01350,1,99,9",,"07,99,1,99,9,99,9,99999,9,99,9,99,9",,"10169,1,99999,9",,,,,"MET074METAR ENHK 161350Z 08006KT 330V210 9999 FEW018 SCT026 BKN045 03/M05 Q1017;",
"01044099999","2008-05-18T11:50:00","4","70.486675","22.139744","6.4","HASVIK, NO","FM-15","ENHK ","V020","130,1,N,0026,1","00900,1,C,N","011265,1,N,1","+0060,1","+0000,1","99999,9","02,5,+00570,1,99,9","07,5,+00900,1,99,9",,,"07,99,1,99,9,99,9,99999,9,99,9,99,9",,"10149,1,99999,9","16,1",,,,"MET072METAR ENHK 181150Z 13005KT 090V160 9999 VCSH FEW019 BKN030 06/M00 Q1015;",
"01044099999","2008-05-18T12:20:00","4","70.486675","22.139744","6.4","HASVIK, NO","FM-15","ENHK ","V020","060,1,N,0031,1","00900,1,C,N","011265,1,N,1","+0060,1","-0020,1","99999,9","02,5,+00540,1,99,9","07,5,+00900,1,99,9",,,"07,99,1,99,9,99,9,99999,9,99,9,99,9",,"10149,1,99999,9","16,1",,,,"MET072METAR ENHK 181220Z 06006KT 010V130 9999 VCSH FEW018 BKN030 06/M02 Q1015;",
"01044099999","2008-05-18T12:50:00","4","70.486675","22.139744","6.4","HASVIK, NO","FM-15","ENHK ","V020","060,1,N,0041,1","00750,1,C,N","011265,1,N,1","+0050,1","-0010,1","99999,9","02,5,+00540,1,99,9","04,5,+00750,1,99,9","07,5,+01500,1,99,9",,"07,99,1,99,9,99,9,99999,9,99,9,99,9",,"10149,1,99999,9","16,1",,,,"MET079METAR ENHK 181250Z 06008KT 020V090 9999 VCSH FEW018 SCT025 BKN050 05/M01 Q1015;",
"01044099999","2008-05-18T13:50:00","4","70.486675","22.139744","6.4","HASVIK, NO","FM-15","ENHK ","V020","110,1,N,0051,1","01020,1,C,N","011265,1,N,1","+0050,1","-0010,1","99999,9","02,5,+00600,1,99,9","07,5,+01020,1,99,9",,,"07,99,1,99,9,99,9,99999,9,99,9,99,9",,"10149,1,99999,9",,,,,"MET059METAR ENHK 181350Z 11010KT 9999 FEW020 BKN034 05/M01 Q1015;",
"01044099999","2008-05-18T14:50:00","4","70.486675","22.139744","6.4","HASVIK, NO","FM-15","ENHK ","V020","100,1,N,0067,1","01020,1,C,N","011265,1,N,1","+0050,1","-0020,1","99999,9","02,5,+00600,1,99,9","04,5,+01020,1,99,9","07,5,+02100,1,99,9",,"07,99,1,99,9,99,9,99999,9,99,9,99,9",,"10149,1,99999,9",,,,,"MET074METAR ENHK 181450Z 10013KT 080V140 9999 FEW020 SCT034 BKN070 05/M02 Q1015;",
"01044099999","2008-05-19T03:20:00","4","70.486675","22.139744","6.4","HASVIK, NO","FM-15","ENHK ","V020","110,1,N,0036,1","01500,1,C,N","011265,1,N,1","+0030,1","-0020,1","99999,9","02,5,+00840,1,99,9","04,5,+01770,5,99,9","07,5,+02700,1,99,9",,"07,99,1,99,9,99,9,99999,9,99,9,99,9",,"10169,1,99999,9",,,,,"MET066METAR ENHK 190320Z 11007KT 9999 FEW028 SCT059 BKN090 03/M02 Q1017;",
"01044099999","2008-05-19T03:50:00","4","70.486675","22.139744","6.4","HASVIK, NO","FM-15","ENHK ","V020","110,1,N,0041,1","01500,1,C,N","011265,1,N,1","+0030,1","-0010,1","99999,9","02,5,+00690,1,99,9","04,5,+01500,1,99,9","07,5,+02700,1,99,9",,"07,99,1,99,9,99,9,99999,9,99,9,99,9",,"10169,1,99999,9",,,,,"MET066METAR ENHK 190350Z 11008KT 9999 FEW023 SCT050 BKN090 03/M01 Q1017;",
"01044099999","2008-05-19T04:50:00","4","70.486675","22.139744","6.4","HASVIK, NO","FM-15","ENHK ","V020","110,1,N,0041,1","01080,1,C,N","011265,1,N,1","+0040,1","-0020,1","99999,9","02,5,+00690,1,99,9","04,5,+01080,1,99,9","07,5,+02400,1,99,9",,"07,99,1,99,9,99,9,99999,9,99,9,99,9",,"10169,1,99999,9",,,,,"MET066METAR ENHK 190450Z 11008KT 9999 FEW023 SCT036 BKN080 04/M02 Q1017;",
"01044099999","2008-05-19T06:50:00","4","70.486675","22.139744","6.4","HASVIK, NO","FM-15","ENHK ","V020","120,1,N,0031,1","01350,1,C,N","011265,1,N,1","+0040,1","-0020,1","99999,9","02,5,+00750,1,99,9","04,5,+01350,1,99,9","07,5,+02400,1,99,9",,"07,99,1,99,9,99,9,99999,9,99,9,99,9",,"10180,1,99999,9",,,,,"MET066METAR ENHK 190650Z 12006KT 9999 FEW025 SCT045 BKN080 04/M02 Q1018;",
"01044099999","2008-05-19T08:20:00","4","70.486675","22.139744","6.4","HASVIK, NO","FM-15","ENHK ","V020","140,1,N,0026,1","01200,1,C,N","011265,1,N,1","+0050,1","-0010,1","99999,9","02,5,+00690,1,99,9","04,5,+01200,1,99,9","07,5,+02400,1,99,9",,"07,99,1,99,9,99,9,99999,9,99,9,99,9",,"10180,1,99999,9",,,,,"MET066METAR ENHK 190820Z 14005KT 9999 FEW023 SCT040 BKN080 05/M01 Q1018;",
"01044099999","2008-05-19T09:20:00","4","70.486675","22.139744","6.4","HASVIK, NO","FM-15","ENHK ","V020","130,1,N,0036,1","01350,1,C,N","011265,1,N,1","+0050,1","+0000,1","99999,9","02,5,+00720,1,99,9","04,5,+01350,1,99,9","07,5,+02400,1,99,9",,"07,99,1,99,9,99,9,99999,9,99,9,99,9",,"10180,1,99999,9",,,,,"MET065METAR ENHK 190920Z 13007KT 9999 FEW024 SCT045 BKN080 05/00 Q1018;",
"01044099999","2008-05-19T10:50:00","4","70.486675","22.139744","6.4","HASVIK, NO","FM-15","ENHK ","V020","120,1,N,0046,1","01350,1,C,N","011265,1,N,1","+0060,1","-0010,1","99999,9","02,5,+00750,1,99,9","04,5,+01350,1,99,9","07,5,+02400,1,99,9",,"07,99,1,99,9,99,9,99999,9,99,9,99,9",,"10190,1,99999,9",,,,,"MET066METAR ENHK 191050Z 12009KT 9999 FEW025 SCT045 BKN080 06/M01 Q1019;",
"01044099999","2008-05-19T11:50:00","4","70.486675","22.139744","6.4","HASVIK, NO","FM-15","ENHK ","V020","110,1,N,0062,1","02700,1,C,N","011265,1,N,1","+0060,1","-0010,1","99999,9","04,5,+00900,1,99,9","07,5,+02700,1,99,9",,,"07,99,1,99,9,99,9,99999,9,99,9,99,9",,"10190,1,99999,9",,,,,"MET059METAR ENHK 191150Z 11012KT 9999 SCT030 BKN090 06/M01 Q1019;",
"01044099999","2008-05-19T12:50:00","4","70.486675","22.139744","6.4","HASVIK, NO","FM-15","ENHK ","V020","120,1,N,0062,1","02550,5,C,N","011265,1,N,1","+0050,1","-0020,1","99999,9","04,5,+00960,1,99,9","07,5,+02550,5,99,9",,,"07,99,1,99,9,99,9,99999,9,99,9,99,9",,"10190,1,99999,9",,,,,"MET059METAR ENHK 191250Z 12012KT 9999 SCT032 BKN085 05/M02 Q1019;",
"01044099999","2008-05-19T13:50:00","4","70.486675","22.139744","6.4","HASVIK, NO","FM-15","ENHK ","V020","120,1,N,0072,1","01050,1,C,N","011265,1,N,1","+0050,1","-0020,1","99999,9","02,5,+00480,1,99,9","07,5,+01050,1,99,9",,,"07,99,1,99,9,99,9,99999,9,99,9,99,9",,"10190,1,99999,9",,,,,"MET059METAR ENHK 191350Z 12014KT 9999 FEW016 BKN035 05/M02 Q1019;",
"01044099999","2008-05-20T03:20:00","4","70.486675","22.139744","6.4","HASVIK, NO","FM-15","ENHK ","V020","110,1,N,0067,1","01050,1,C,N","011265,1,N,1","+0030,1","-0030,1","99999,9","02,5,+00900,1,99,9","04,5,+01050,1,99,9","07,5,+01230,1,99,9",,"07,99,1,99,9,99,9,99999,9,99,9,99,9",,"10220,1,99999,9",,,,,"MET066METAR ENHK 200320Z 11013KT 9999 FEW030 SCT035 BKN041 03/M03 Q1022;",
"01044099999","2008-05-20T03:50:00","4","70.486675","22.139744","6.4","HASVIK, NO","FM-15","ENHK ","V020","130,1,N,0077,1","00900,1,C,N","011265,1,N,1","+0030,1","-0030,1","99999,9","02,5,+00810,1,99,9","07,5,+00900,1,99,9",,,"07,99,1,99,9,99,9,99999,9,99,9,99,9",,"10220,1,99999,9",,,,,"MET059METAR ENHK 200350Z 13015KT 9999 FEW027 BKN030 03/M03 Q1022;",
"01044099999","2008-05-20T04:20:00","4","70.486675","22.139744","6.4","HASVIK, NO","FM-15","ENHK ","V020","110,1,N,0072,1","00960,1,C,N","011265,1,N,1","+0030,1","-0020,1","99999,9","02,5,+00840,1,99,9","07,5,+00960,1,99,9",,,"07,99,1,99,9,99,9,99999,9,99,9,99,9",,"10220,1,99999,9",,,,,"MET067METAR ENHK 200420Z 11014KT 080V150 9999 FEW028 BKN032 03/M02 Q1022;",
"01044099999","2008-05-20T04:50:00","4","70.486675","22.139744","6.4","HASVIK, NO","FM-15","ENHK ","V020","120,1,N,0082,1","01050,1,C,N","011265,1,N,1","+0030,1","-0030,1","99999,9","02,5,+00840,1,99,9","07,5,+01050,1,99,9",,,"07,99,1,99,9,99,9,99999,9,99,9,99,9",,"10220,1,99999,9",,,,,"MET059METAR ENHK 200450Z 12016KT 9999 FEW028 BKN035 03/M03 Q1022;",
"01044099999","2008-05-20T11:50:00","4","70.486675","22.139744","6.4","HASVIK, NO","FM-15","ENHK ","V020","120,1,N,0082,1","01080,1,C,N","011265,1,N,1","+0030,1","-0040,1","99999,9","02,5,+00900,1,99,9","07,5,+01080,1,99,9",,,"07,99,1,99,9,99,9,99999,9,99,9,99,9",,"10230,1,99999,9",,,,,"MET059METAR ENHK 201150Z 12016KT 9999 FEW030 BKN036 03/M04 Q1023;",
"01044099999","2008-05-20T12:20:00","4","70.486675","22.139744","6.4","HASVIK, NO","FM-15","ENHK ","V020","120,1,N,0082,1","01110,1,C,N","011265,1,N,1","+0030,1","-0030,1","99999,9","02,5,+00930,1,99,9","07,5,+01110,1,99,9",,,"07,99,1,99,9,99,9,99999,9,99,9,99,9",,"10230,1,99999,9",,,,,"MET059METAR ENHK 201220Z 12016KT 9999 FEW031 BKN037 03/M03 Q1023;",
"01044099999","2008-05-20T12:50:00","4","70.486675","22.139744","6.4","HASVIK, NO","FM-15","ENHK ","V020","120,1,N,0072,1","01200,1,C,N","011265,1,N,1","+0030,1","-0040,1","99999,9","02,5,+00930,1,99,9","07,5,+01200,1,99,9",,,"07,99,1,99,9,99,9,99999,9,99,9,99,9",,"10230,1,99999,9",,,,,"MET059METAR ENHK 201250Z 12014KT 9999 FEW031 BKN040 03/M04 Q1023;",
"01044099999","2008-05-20T14:20:00","4","70.486675","22.139744","6.4","HASVIK, NO","FM-15","ENHK ","V020","120,1,N,0077,1","01230,1,C,N","011265,1,N,1","+0040,1","-0030,1","99999,9","02,5,+00900,1,99,9","07,5,+01230,1,99,9",,,"07,99,1,99,9,99,9,99999,9,99,9,99,9",,"10230,1,99999,9",,,,,"MET059METAR ENHK 201420Z 12015KT 9999 FEW030 BKN041 04/M03 Q1023;",
"01044099999","2008-05-21T03:20:00","4","70.486675","22.139744","6.4","HASVIK, NO","FM-15","ENHK ","V020","120,1,N,0067,1","01380,1,C,N","011265,1,N,1","+0020,1","-0040,1","99999,9","02,5,+00750,1,99,9","07,5,+01380,1,99,9",,,"07,99,1,99,9,99,9,99999,9,99,9,99,9",,"10261,1,99999,9",,,,,"MET059METAR ENHK 210320Z 12013KT 9999 FEW025 BKN046 02/M04 Q1026;",
"01044099999","2008-05-21T03:50:00","4","70.486675","22.139744","6.4","HASVIK, NO","FM-15","ENHK ","V020","130,1,N,0067,1","01380,1,C,N","011265,1,N,1","+0020,1","-0060,1","99999,9","02,5,+00900,1,99,9","07,5,+01380,1,99,9",,,"07,99,1,99,9,99,9,99999,9,99,9,99,9",,"10261,1,99999,9",,,,,"MET059METAR ENHK 210350Z 13013KT 9999 FEW030 BKN046 02/M06 Q1026;",
"01044099999","2008-05-21T04:20:00","4","70.486675","22.139744","6.4","HASVIK, NO","FM-15","ENHK ","V020","130,1,N,0067,1","01410,1,C,N","011265,1,N,1","+0020,1","-0050,1","99999,9","02,5,+00900,1,99,9","07,5,+01410,1,99,9",,,"07,99,1,99,9,99,9,99999,9,99,9,99,9",,"10261,1,99999,9",,,,,"MET059METAR ENHK 210420Z 13013KT 9999 FEW030 BKN047 02/M05 Q1026;",
"01044099999","2008-05-21T04:50:00","4","70.486675","22.139744","6.4","HASVIK, NO","FM-15","ENHK ","V020","120,1,N,0072,1","01440,1,C,N","011265,1,N,1","+0030,1","-0040,1","99999,9","02,5,+01050,1,99,9","07,5,+01440,1,99,9",,,"07,99,1,99,9,99,9,99999,9,99,9,99,9",,"10261,1,99999,9",,,,,"MET059METAR ENHK 210450Z 12014KT 9999 FEW035 BKN048 03/M04 Q1026;",
"01044099999","2008-05-21T05:20:00","4","70.486675","22.139744","6.4","HASVIK, NO","FM-15","ENHK ","V020","120,1,N,0062,1","01440,1,C,N","011265,1,N,1","+0030,1","-0050,1","99999,9","02,5,+01050,1,99,9","07,5,+01440,1,99,9",,,"07,99,1,99,9,99,9,99999,9,99,9,99,9",,"10261,1,99999,9",,,,,"MET059METAR ENHK 210520Z 12012KT 9999 FEW035 BKN048 03/M05 Q1026;",
"01044099999","2008-05-21T05:50:00","4","70.486675","22.139744","6.4","HASVIK, NO","FM-15","ENHK ","V020","110,1,N,0067,1","01470,1,C,N","011265,1,N,1","+0030,1","-0050,1","99999,9","02,5,+01050,1,99,9","07,5,+01470,1,99,9",,,"07,99,1,99,9,99,9,99999,9,99,9,99,9",,"10261,1,99999,9",,,,,"MET059METAR ENHK 210550Z 11013KT 9999 FEW035 BKN049 03/M05 Q1026;",
"01044099999","2008-05-21T11:50:00","4","70.486675","22.139744","6.4","HASVIK, NO","FM-15","ENHK ","V020","120,1,N,0057,1","99999,9,C,N","011265,1,N,1","+0040,1","-0040,1","99999,9","02,5,+01290,1,99,9","04,5,+01500,1,99,9",,,"04,99,1,99,9,99,9,99999,9,99,9,99,9",,"10281,1,99999,9",,,,,"MET059METAR ENHK 211150Z 12011KT 9999 FEW043 SCT050 04/M04 Q1028;","P01 015003SCOCIG"
"01044099999","2008-05-21T12:20:00","4","70.486675","22.139744","6.4","HASVIK, NO","FM-15","ENHK ","V020","110,1,N,0057,1","99999,9,C,N","011265,1,N,1","+0040,1","-0040,1","99999,9","02,5,+01230,1,99,9","04,5,+01470,1,99,9",,,"04,99,1,99,9,99,9,99999,9,99,9,99,9",,"10281,1,99999,9",,,,,"MET059METAR ENHK 211220Z 11011KT 9999 FEW041 SCT049 04/M04 Q1028;","P01 014703SCOCIG"
"01044099999","2008-05-21T12:50:00","4","70.486675","22.139744","6.4","HASVIK, NO","FM-15","ENHK ","V020","110,1,N,0057,1","99999,9,C,N","011265,1,N,1","+0040,1","-0040,1","99999,9","02,5,+01260,1,99,9","04,5,+01500,1,99,9",,,"04,99,1,99,9,99,9,99999,9,99,9,99,9",,"10281,1,99999,9",,,,,"MET059METAR ENHK 211250Z 11011KT 9999 FEW042 SCT050 04/M04 Q1028;","P01 015003SCOCIG"
"01044099999","2008-05-21T13:20:00","4","70.486675","22.139744","6.4","HASVIK, NO","FM-15","ENHK ","V020","110,1,N,0057,1","01470,1,C,N","011265,1,N,1","+0040,1","-0040,1","99999,9","02,5,+01170,1,99,9","07,5,+01470,1,99,9",,,"07,99,1,99,9,99,9,99999,9,99,9,99,9",,"10281,1,99999,9",,,,,"MET059METAR ENHK 211320Z 11011KT 9999 FEW039 BKN049 04/M04 Q1028;",
"01044099999","2008-05-21T13:50:00","4","70.486675","22.139744","6.4","HASVIK, NO","FM-15","ENHK ","V020","110,1,N,0057,1","01350,1,C,N","011265,1,N,1","+0040,1","-0040,1","99999,9","02,5,+01200,1,99,9","07,5,+01350,1,99,9",,,"07,99,1,99,9,99,9,99999,9,99,9,99,9",,"10281,1,99999,9",,,,,"MET059METAR ENHK 211350Z 11011KT 9999 FEW040 BKN045 04/M04 Q1028;",
"01044099999","2008-05-21T14:20:00","4","70.486675","22.139744","6.4","HASVIK, NO","FM-15","ENHK ","V020","120,1,N,0051,1","01560,5,C,N","011265,1,N,1","+0040,1","-0030,1","99999,9","02,5,+01230,1,99,9","07,5,+01560,5,99,9",,,"07,99,1,99,9,99,9,99999,9,99,9,99,9",,"10281,1,99999,9",,,,,"MET059METAR ENHK 211420Z 12010KT 9999 FEW041 BKN052 04/M03 Q1028;",
"01044099999","2008-05-22T03:20:00","4","70.486675","22.139744","6.4","HASVIK, NO","FM-15","ENHK ","V020","130,1,N,0057,1","99999,9,C,Y","009900,1,N,1","+0040,1","-0060,1","99999,9",,,,,,,"10301,1,99999,9",,,,,"MET046METAR ENHK 220320Z 13011KT CAVOK 04/M06 Q1030;",
"01044099999","2008-05-22T03:50:00","4","70.486675","22.139744","6.4","HASVIK, NO","FM-15","ENHK ","V020","130,1,N,0067,1","99999,9,C,Y","009900,1,N,1","+0040,1","-0050,1","99999,9",,,,,,,"10301,1,99999,9",,,,,"MET046METAR ENHK 220350Z 13013KT CAVOK 04/M05 Q1030;",
"01044099999","2008-05-22T04:20:00","4","70.486675","22.139744","6.4","HASVIK, NO","FM-15","ENHK ","V020","130,1,N,0062,1","99999,9,C,Y","009900,1,N,1","+0040,1","-0060,1","99999,9",,,,,,,"10312,1,99999,9",,,,,"MET046METAR ENHK 220420Z 13012KT CAVOK 04/M06 Q1031;",
"01044099999","2008-05-22T04:50:00","4","70.486675","22.139744","6.4","HASVIK, NO","FM-15","ENHK ","V020","130,1,N,0062,1","99999,9,C,Y","009900,1,N,1","+0040,1","-0050,1","99999,9",,,,,,,"10301,1,99999,9",,,,,"MET046METAR ENHK 220450Z 13012KT CAVOK 04/M05 Q1030;",
"01044099999","2008-05-22T05:20:00","4","70.486675","22.139744","6.4","HASVIK, NO","FM-15","ENHK ","V020","130,1,N,0057,1","99999,9,C,Y","009900,1,N,1","+0040,1","-0050,1","99999,9",,,,,,,"10312,1,99999,9",,,,,"MET046METAR ENHK 220520Z 13011KT CAVOK 04/M05 Q1031;",
"01044099999","2008-05-22T12:20:00","4","70.486675","22.139744","6.4","HASVIK, NO","FM-15","ENHK ","V020","120,1,N,0041,1","99999,9,C,Y","009900,1,N,1","+0060,1","-0030,1","99999,9",,,,,,,"10312,1,99999,9",,,,,"MET046METAR ENHK 221220Z 12008KT CAVOK 06/M03 Q1031;",
"01044099999","2008-05-22T12:50:00","4","70.486675","22.139744","6.4","HASVIK, NO","FM-15","ENHK ","V020","120,1,N,0036,1","99999,9,C,Y","009900,1,N,1","+0060,1","+0030,1","99999,9",,,,,,,"10312,1,99999,9",,,,,"MET045METAR ENHK 221250Z 12007KT CAVOK 06/03 Q1031;",
"01044099999","2008-05-22T13:20:00","4","70.486675","22.139744","6.4","HASVIK, NO","FM-15","ENHK ","V020","130,1,N,0031,1","99999,9,C,Y","009900,1,N,1","+0060,1","-0030,1","99999,9",,,,,,,"10312,1,99999,9",,,,,"MET046METAR ENHK 221320Z 13006KT CAVOK 06/M03 Q1031;",
"01044099999","2008-05-22T13:50:00","4","70.486675","22.139744","6.4","HASVIK, NO","FM-15","ENHK ","V020","130,1,N,0031,1","99999,9,C,Y","009900,1,N,1","+0070,1","-0030,1","99999,9",,,,,,,"10312,1,99999,9",,,,,"MET046METAR ENHK 221350Z 13006KT CAVOK 07/M03 Q1031;",
"01044099999","2008-05-22T14:20:00","4","70.486675","22.139744","6.4","HASVIK, NO","FM-15","ENHK ","V020","130,1,N,0031,1","99999,9,C,Y","009900,1,N,1","+0060,1","-0040,1","99999,9",,,,,,,"10312,1,99999,9",,,,,"MET046METAR ENHK 221420Z 13006KT CAVOK 06/M04 Q1031;",
"01044099999","2008-05-23T03:20:00","4","70.486675","22.139744","6.4","HASVIK, NO","FM-15","ENHK ","V020","999,9,V,0005,1","99999,9,C,Y","009900,1,N,1","+0040,1","-0020,1","99999,9",,,,,,,"10312,1,99999,9",,,,,"MET046METAR ENHK 230320Z VRB01KT CAVOK 04/M02 Q1031;",
"01044099999","2008-05-23T03:50:00","4","70.486675","22.139744","6.4","HASVIK, NO","FM-15","ENHK ","V020","330,1,N,0010,1","99999,9,C,Y","009900,1,N,1","+0040,1","-0020,1","99999,9",,,,,,,"10312,1,99999,9",,,,,"MET046METAR ENHK 230350Z 33002KT CAVOK 04/M02 Q1031;",
"01044099999","2008-05-23T04:20:00","4","70.486675","22.139744","6.4","HASVIK, NO","FM-15","ENHK ","V020","999,9,V,0005,1","99999,9,C,Y","009900,1,N,1","+0050,1","-0030,1","99999,9",,,,,,,"10312,1,99999,9",,,,,"MET044METAR ENHK 230420Z VRB01 CAVOK 05/M03 Q1031;",
"01044099999","2008-05-23T04:50:00","4","70.486675","22.139744","6.4","HASVIK, NO","FM-15","ENHK ","V020","320,1,N,0015,1","99999,9,C,Y","009900,1,N,1","+0050,1","-0020,1","99999,9",,,,,,,"10312,1,99999,9",,,,,"MET054METAR ENHK 230450Z 32003KT 270V010 CAVOK 05/M02 Q1031;",
"01044099999","2008-05-23T05:20:00","4","70.486675","22.139744","6.4","HASVIK, NO","FM-15","ENHK ","V020","310,1,N,0021,1","99999,9,C,Y","009900,1,N,1","+0050,1","-0030,1","99999,9",,,,,,,"10312,1,99999,9",,,,,"MET054METAR ENHK 230520Z 31004KT 250V020 CAVOK 05/M03 Q1031;",
"01044099999","2008-05-23T05:50:00","4","70.486675","22.139744","6.4","HASVIK, NO","FM-15","ENHK ","V020","110,1,N,0015,1","22000,1,9,N","011265,1,N,1","+0060,1","-0020,1","99999,9",,,,,"00,99,1,99,9,99,9,99999,9,99,9,99,9",,"10312,1,99999,9",,,,,"MET057METAR ENHK 230550Z 11003KT 010V150 9999 NSC 06/M02 Q1031;","Q01    003SCCGA1"
"01044099999","2008-05-23T07:50:00","4","70.486675","22.139744","6.4","HASVIK, NO","FM-15","ENHK ","V020","100,1,N,0015,1","22000,1,9,N","011265,1,N,1","+0060,1","-0030,1","99999,9","02,5,+00900,1,99,9",,,,"02,99,1,99,9,99,9,99999,9,99,9,99,9",,"10312,1,99999,9",,,,,"MET060METAR ENHK 230750Z 10003KT 350V160 9999 FEW030 06/M03 Q1031;",
"01044099999","2008-05-23T08:50:00","4","70.486675","22.139744","6.4","HASVIK, NO","FM-15","ENHK ","V020","180,1,N,0021,1","22000,1,9,N","011265,1,N,1","+0050,1","-0020,1","99999,9","02,5,+00900,1,99,9",,,,"02,99,1,99,9,99,9,99999,9,99,9,99,9",,"10312,1,99999,9",,,,,"MET060METAR ENHK 230850Z 18004KT 110V270 9999 FEW030 05/M02 Q1031;",
"01044099999","2008-05-23T09:50:00","4","70.486675","22.139744","6.4","HASVIK, NO","FM-15","ENHK ","V020","130,1,N,0026,1","22000,1,9,N","011265,1,N,1","+0070,1","-0020,1","99999,9","02,5,+00900,1,99,9",,,,"02,99,1,99,9,99,9,99999,9,99,9,99,9",,"10312,1,99999,9",,,,,"MET060METAR ENHK 230950Z 13005KT 090V170 9999 FEW030 07/M02 Q1031;",
"01044099999","2008-05-23T10:50:00","4","70.486675","22.139744","6.4","HASVIK, NO","FM-15","ENHK ","V020","210,1,N,0026,1","22000,1,9,N","011265,1,N,1","+0060,1","-0020,1","99999,9","02,5,+01020,1,99,9",,,,"02,99,1,99,9,99,9,99999,9,99,9,99,9",,"10312,1,99999,9",,,,,"MET060METAR ENHK 231050Z 21005KT 160V270 9999 FEW034 06/M02 Q1031;",
"01044099999","2008-05-23T11:20:00","4","70.486675","22.139744","6.4","HASVIK, NO","FM-15","ENHK ","V020","999,9,V,0026,1","99999,9,C,N","011265,1,N,1","+0060,1","-0030,1","99999,9","02,5,+00990,1,99,9","04,5,+01650,5,99,9",,,"04,99,1,99,9,99,9,99999,9,99,9,99,9",,"10312,1,99999,9",,,,,"MET059METAR ENHK 231120Z VRB05KT 9999 FEW033 SCT055 06/M03 Q1031;","P01 016503SCOCIG"
"01044099999","2008-05-23T11:50:00","4","70.486675","22.139744","6.4","HASVIK, NO","FM-15","ENHK ","V020","999,9,V,0015,1","99999,9,C,N","011265,1,N,1","+0060,1","-0040,1","99999,9","02,5,+00930,1,99,9","04,5,+01470,1,99,9",,,"04,99,1,99,9,99,9,99999,9,99,9,99,9",,"10312,1,99999,9",,,,,"MET059METAR ENHK 231150Z VRB03KT 9999 FEW031 SCT049 06/M04 Q1031;","P01 014703SCOCIG"
"01044099999","2008-05-23T12:20:00","4","70.486675","22.139744","6.4","HASVIK, NO","FM-15","ENHK ","V020","999,9,V,0026,1","99999,9,C,N","011265,1,N,1","+0060,1","-0040,1","99999,9","02,5,+00870,1,99,9","04,5,+01290,1,99,9",,,"04,99,1,99,9,99,9,99999,9,99,9,99,9",,"10312,1,99999,9",,,,,"MET059METAR ENHK 231220Z VRB05KT 9999 FEW029 SCT043 06/M04 Q1031;","P01 012903SCOCIG"
"01044099999","2008-05-23T12:50:00","4","70.486675","22.139744","6.4","HASVIK, NO","FM-15","ENHK ","V020","030,1,N,0026,1","99999,9,C,N","011265,1,N,1","+0060,1","-0040,1","99999,9","02,5,+00900,1,99,9","04,5,+01350,1,99,9",,,"04,99,1,99,9,99,9,99999,9,99,9,99,9",,"10312,1,99999,9",,,,,"MET067METAR ENHK 231250Z 03005KT 280V080 9999 FEW030 SCT045 06/M04 Q1031;","P01 013503SCOCIG"
"01044099999","2008-05-23T13:20:00","4","70.486675","22.139744","6.4","HASVIK, NO","FM-15","ENHK ","V020","330,1,N,0046,1","22000,1,9,N","011265,1,N,1","+0060,1","-0030,1","99999,9","04,5,+01080,1,99,9",,,,"04,99,1,99,9,99,9,99999,9,99,9,99,9",,"10312,1,99999,9",,,,,"MET052METAR ENHK 231320Z 33009KT 9999 SCT036 06/M03 Q1031;",
"01044099999","2008-05-23T13:50:00","4","70.486675","22.139744","6.4","HASVIK, NO","FM-15","ENHK ","V020","330,1,N,0046,1","22000,1,9,N","011265,1,N,1","+0060,1","-0030,1","99999,9","04,5,+01110,1,99,9",,,,"04,99,1,99,9,99,9,99999,9,99,9,99,9",,"10312,1,99999,9",,,,,"MET052METAR ENHK 231350Z 33009KT 9999 SCT037 06/M03 Q1031;",
"01044099999","2008-05-25T11:50:00","4","70.486675","22.139744","6.4","HASVIK, NO","FM-15","ENHK ","V020","999,9,V,0010,1","01740,5,C,N","011265,1,N,1","+0060,1","+0000,1","99999,9","02,5,+00960,1,99,9","07,5,+01740,5,99,9",,,"07,99,1,99,9,99,9,99999,9,99,9,99,9",,"10200,1,99999,9",,,,,"MET059METAR ENHK 251150Z VRB02KT 9999 FEW032 BKN058 06/M00 Q1020;",
"01044099999","2008-05-25T12:20:00","4","70.486675","22.139744","6.4","HASVIK, NO","FM-15","ENHK ","V020","310,1,N,0041,1","01710,5,C,N","011265,1,N,1","+0050,1","+0000,1","99999,9","02,5,+00930,1,99,9","07,5,+01710,5,99,9",,,"07,99,1,99,9,99,9,99999,9,99,9,99,9",,"10200,1,99999,9",,,,,"MET059METAR ENHK 251220Z 31008KT 9999 FEW031 BKN057 05/M00 Q1020;",
"01044099999","2008-05-25T12:50:00","4","70.486675","22.139744","6.4","HASVIK, NO","FM-15","ENHK ","V020","999,9,V,0015,1","01650,5,C,N","011265,1,N,1","+0050,1","-0010,1","99999,9","02,5,+01020,1,99,9","07,5,+01650,5,99,9",,,"07,99,1,99,9,99,9,99999,9,99,9,99,9",,"10200,1,99999,9",,,,,"MET059METAR ENHK 251250Z VRB03KT 9999 FEW034 BKN055 05/M01 Q1020;",
"01044099999","2008-05-25T13:20:00","4","70.486675","22.139744","6.4","HASVIK, NO","FM-15","ENHK ","V020","999,9,V,0010,1","01650,5,C,N","011265,1,N,1","+0050,1","-0010,1","99999,9","02,5,+00990,1,99,9","07,5,+01650,5,99,9",,,"07,99,1,99,9,99,9,99999,9,99,9,99,9",,"10190,1,99999,9",,,,,"MET059METAR ENHK 251320Z VRB02KT 9999 FEW033 BKN055 05/M01 Q1019;",
"01044099999","2008-05-26T03:20:00","4","70.486675","22.139744","6.4","HASVIK, NO","FM-15","ENHK ","V020","330,1,N,0015,1","99999,9,C,N","011265,1,N,1","+0040,1","-0020,1","99999,9","02,5,+00750,1,99,9","04,5,+02100,1,99,9",,,"04,99,1,99,9,99,9,99999,9,99,9,99,9",,"10149,1,99999,9",,,,,"MET067METAR ENHK 260320Z 33003KT 280V350 9999 FEW025 SCT070 04/M02 Q1015;","P01 021003SCOCIG"
"01044099999","2008-05-26T03:50:00","4","70.486675","22.139744","6.4","HASVIK, NO","FM-15","ENHK ","V020","999,9,V,0010,1","99999,9,C,N","011265,1,N,1","+0050,1","-0020,1","99999,9","02,5,+00540,1,99,9","04,5,+01860,5,99,9",,,"04,99,1,99,9,99,9,99999,9,99,9,99,9",,"10149,1,99999,9",,,,,"MET059METAR ENHK 260350Z VRB02KT 9999 FEW018 SCT062 05/M02 Q1015;","P01 018603SCOCIG"
"01044099999","2008-05-26T04:20:00","4","70.486675","22.139744","6.4","HASVIK, NO","FM-15","ENHK ","V020","999,9,V,0015,1","99999,9,C,N","011265,1,N,1","+0050,1","-0020,1","99999,9","02,5,+00540,1,99,9","04,5,+01860,5,99,9",,,"04,99,1,99,9,99,9,99999,9,99,9,99,9",,"10149,1,99999,9",,,,,"MET059METAR ENHK 260420Z VRB03KT 9999 FEW018 SCT062 05/M02 Q1015;","P01 018603SCOCIG"
"01044099999","2008-05-26T04:50:00","4","70.486675","22.139744","6.4","HASVIK, NO","FM-15","ENHK ","V020","060,1,N,0036,1","99999,9,C,N","011265,1,N,1","+0050,1","-0020,1","99999,9","02,5,+00600,1,99,9","04,5,+01860,5,99,9",,,"04,99,1,99,9,99,9,99999,9,99,9,99,9",,"10159,1,99999,9",,,,,"MET067METAR ENHK 260450Z 06007KT 360V090 9999 FEW020 SCT062 05/M02 Q1016;","P01 018603SCOCIG"
"01044099999","2008-05-26T05:50:00","4","70.486675","22.139744","6.4","HASVIK, NO","FM-15","ENHK ","V020","070,1,N,0031,1","00840,1,C,N","011265,1,N,1","+0050,1","-0010,1","99999,9","02,5,+00600,1,99,9","04,5,+00840,1,99,9","07,5,+01950,5,99,9",,"07,99,1,99,9,99,9,99999,9,99,9,99,9",,"10159,1,99999,9",,,,,"MET074METAR ENHK 260550Z 07006KT 030V110 9999 FEW020 SCT028 BKN065 05/M01 Q1016;",
"01044099999","2008-05-26T06:50:00","4","70.486675","22.139744","6.4","HASVIK, NO","FM-15","ENHK ","V020","010,1,N,0031,1","99999,9,C,N","011265,1,N,1","+0050,1","+0000,1","99999,9","02,5,+00600,1,99,9","04,5,+01050,1,99,9",,,"04,99,1,99,9,99,9,99999,9,99,9,99,9",,"10159,1,99999,9",,,,,"MET067METAR ENHK 260650Z 01006KT 330V060 9999 FEW020 SCT035 05/M00 Q1016;","P01 010503SCOCIG"
"01044099999","2008-05-26T07:50:00","4","70.486675","22.139744","6.4","HASVIK, NO","FM-15","ENHK ","V020","030,1,N,0026,1","00750,1,C,N","011265,1,N,1","+0060,1","+0000,1","99999,9","02,5,+00600,1,99,9","07,5,+00750,1,99,9",,,"07,99,1,99,9,99,9,99999,9,99,9,99,9",,"10169,1,99999,9","16,1",,,,"MET072METAR ENHK 260750Z 03005KT 220V120 9999 VCSH FEW020 BKN025 06/M00 Q1017;",
"01044099999","2008-05-26T08:50:00","4","70.486675","22.139744","6.4","HASVIK, NO","FM-15","ENHK ","V020","360,1,N,0051,1","00750,1,C,N","011265,1,N,1","+0050,1","-0010,1","99999,9","02,5,+00600,1,99,9","04,5,+00750,1,99,9","07,5,+01950,5,99,9",,"07,99,1,99,9,99,9,99999,9,99,9,99,9",,"10169,1,99999,9","16,1",,,,"MET079METAR ENHK 260850Z 36010KT 320V060 9999 VCSH FEW020 SCT025 BKN065 05/M01 Q1017;",
"01044099999","2008-05-26T09:50:00","4","70.486675","22.139744","6.4","HASVIK, NO","FM-15","ENHK ","V020","010,1,N,0051,1","99999,9,C,N","011265,1,N,1","+0060,1","-0020,1","99999,9","02,5,+00600,1,99,9","04,5,+00840,1,99,9",,,"04,99,1,99,9,99,9,99999,9,99,9,99,9",,"10180,1,99999,9",,,,,"MET067METAR ENHK 260950Z 01010KT 320V080 9999 FEW020 SCT028 06/M02 Q1018;","P01 008403SCOCIG"
"01044099999","2008-05-26T10:50:00","4","70.486675","22.139744","6.4","HASVIK, NO","FM-15","ENHK ","V020","350,1,N,0046,1","99999,9,C,N","011265,1,N,1","+0050,1","-0020,1","99999,9","02,5,+00630,1,99,9","04,5,+00810,1,99,9",,,"04,99,1,99,9,99,9,99999,9,99,9,99,9",,"10180,1,99999,9",,,,,"MET059METAR ENHK 261050Z 35009KT 9999 FEW021 SCT027 05/M02 Q1018;","P01 008103SCOCIG"
"01044099999","2008-05-26T11:20:00","4","70.486675","22.139744","6.4","HASVIK, NO","FM-15","ENHK ","V020","350,1,N,0036,1","22000,1,9,N","011265,1,N,1","+0050,1","-0020,1","99999,9","04,5,+00780,1,99,9",,,,"04,99,1,99,9,99,9,99999,9,99,9,99,9",,"10180,1,99999,9",,,,,"MET060METAR ENHK 261120Z 35007KT 280V040 9999 SCT026 05/M02 Q1018;",
"01044099999","2008-05-26T11:50:00","4","70.486675","22.139744","6.4","HASVIK, NO","FM-15","ENHK ","V020","340,1,N,0046,1","01050,1,C,N","011265,1,N,1","+0060,1","-0020,1","99999,9","04,5,+00810,1,99,9","07,5,+01050,1,99,9",,,"07,99,1,99,9,99,9,99999,9,99,9,99,9",,"10190,1,99999,9",,,,,"MET059METAR ENHK 261150Z 34009KT 9999 SCT027 BKN035 06/M02 Q1019;",
"01044099999","2008-05-26T12:20:00","4","70.486675","22.139744","6.4","HASVIK, NO","FM-15","ENHK ","V020","350,1,N,0041,1","99999,9,C,N","011265,1,N,1","+0060,1","-0020,1","99999,9","02,5,+00750,1,99,9","04,5,+00990,1,99,9",,,"04,99,1,99,9,99,9,99999,9,99,9,99,9",,"10190,1,99999,9",,,,,"MET059METAR ENHK 261220Z 35008KT 9999 FEW025 SCT033 06/M02 Q1019;","P01 009903SCOCIG"
"01044099999","2008-05-26T12:50:00","4","70.486675","22.139744","6.4","HASVIK, NO","FM-15","ENHK ","V020","340,1,N,0036,1","99999,9,C,N","011265,1,N,1","+0050,1","-0020,1","99999,9","02,5,+00750,1,99,9","04,5,+01020,1,99,9",,,"04,99,1,99,9,99,9,99999,9,99,9,99,9",,"10190,1,99999,9",,,,,"MET059METAR ENHK 261250Z 34007KT 9999 FEW025 SCT034 05/M02 Q1019;","P01 010203SCOCIG"
"01044099999","2008-05-26T13:20:00","4","70.486675","22.139744","6.4","HASVIK, NO","FM-15","ENHK ","V020","310,1,N,0041,1","99999,9,C,N","011265,1,N,1","+0060,1","-0020,1","99999,9","02,5,+00810,1,99,9","04,5,+01080,1,99,9",,,"04,99,1,99,9,99,9,99999,9,99,9,99,9",,"10190,1,99999,9",,,,,"MET059METAR ENHK 261320Z 31008KT 9999 FEW027 SCT036 06/M02 Q1019;","P01 010803SCOCIG"
"01044099999","2008-05-26T13:50:00","4","70.486675","22.139744","6.4","HASVIK, NO","FM-15","ENHK ","V020","310,1,N,0046,1","99999,9,C,N","011265,1,N,1","+0050,1","-0010,1","99999,9","02,5,+00810,1,99,9","04,5,+01080,1,99,9",,,"04,99,1,99,9,99,9,99999,9,99,9,99,9",,"10190,1,99999,9",,,,,"MET059METAR ENHK 261350Z 31009KT 9999 FEW027 SCT036 05/M01 Q1019;","P01 010803SCOCIG"
"01044099999","2008-05-27T03:20:00","4","70.486675","22.139744","6.4","HASVIK, NO","FM-15","ENHK ","V020","270,1,N,0077,1","00780,1,C,N","011265,1,N,1","+0050,1","+0020,1","99999,9","02,5,+00570,1,99,9","07,5,+00780,1,99,9",,,"07,99,1,99,9,99,9,99999,9,99,9,99,9",,"10149,1,99999,9","80,1",,,"0129,1","MET067METAR ENHK 270320Z 27015G25KT 9999 -SHRA FEW019 BKN026 05/02 Q1015;",
"01044099999","2008-05-27T03:50:00","4","70.486675","22.139744","6.4","HASVIK, NO","FM-15","ENHK ","V020","270,1,N,0067,1","00810,1,C,N","011265,1,N,1","+0050,1","+0020,1","99999,9","02,5,+00570,1,99,9","07,5,+00810,1,99,9",,,"07,99,1,99,9,99,9,99999,9,99,9,99,9",,"10149,1,99999,9","16,1",,,,"MET063METAR ENHK 270350Z 27013KT 9999 VCSH FEW019 BKN027 05/02 Q1015;",
"01044099999","2008-05-27T04:50:00","4","70.486675","22.139744","6.4","HASVIK, NO","FM-15","ENHK ","V020","280,1,N,0067,1","00870,1,C,N","011265,1,N,1","+0060,1","+0020,1","99999,9","02,5,+00600,1,99,9","07,5,+00870,1,99,9",,,"07,99,1,99,9,99,9,99999,9,99,9,99,9",,"10139,1,99999,9","16,1",,,,"MET063METAR ENHK 270450Z 28013KT 9999 VCSH FEW020 BKN029 06/02 Q1014;",
"01044099999","2008-05-27T05:20:00","4","70.486675","22.139744","6.4","HASVIK, NO","FM-15","ENHK ","V020","270,1,N,0067,1","00930,1,C,N","011265,1,N,1","+0060,1","+0020,1","99999,9","02,5,+00600,1,99,9","07,5,+00930,1,99,9",,,"07,99,1,99,9,99,9,99999,9,99,9,99,9",,"10139,1,99999,9","80,1",,,,"MET064METAR ENHK 270520Z 27013KT 9999 -SHRA FEW020 BKN031 06/02 Q1014;",
"01044099999","2008-05-27T05:50:00","4","70.486675","22.139744","6.4","HASVIK, NO","FM-15","ENHK ","V020","280,1,N,0077,1","00930,1,C,N","011265,1,N,1","+0050,1","+0030,1","99999,9","02,5,+00570,1,99,9","07,5,+00930,1,99,9",,,"07,99,1,99,9,99,9,99999,9,99,9,99,9",,"10139,1,99999,9","80,1",,,,"MET064METAR ENHK 270550Z 28015KT 9999 -SHRA FEW019 BKN031 05/03 Q1014;",
"01044099999","2008-05-27T06:50:00","4","70.486675","22.139744","6.4","HASVIK, NO","FM-15","ENHK ","V020","270,1,N,0072,1","01020,1,C,N","011265,1,N,1","+0060,1","+0020,1","99999,9","02,5,+00510,1,99,9","07,5,+01020,1,99,9",,,"07,99,1,99,9,99,9,99999,9,99,9,99,9",,"10129,1,99999,9","16,1",,,,"MET063METAR ENHK 270650Z 27014KT 9999 VCSH FEW017 BKN034 06/02 Q1013;",
"01044099999","2008-05-27T08:20:00","4","70.486675","22.139744","6.4","HASVIK, NO","FM-15","ENHK ","V020","270,1,N,0098,1","01020,1,C,N","011265,1,N,1","+0060,1","+0020,1","99999,9","02,5,+00570,1,99,9","07,5,+01020,1,99,9",,,"07,99,1,99,9,99,9,99999,9,99,9,99,9",,"10129,1,99999,9","80,1",,,,"MET064METAR ENHK 270820Z 27019KT 9999 -SHRA FEW019 BKN034 06/02 Q1013;",
"01044099999","2008-05-27T08:50:00","4","70.486675","22.139744","6.4","HASVIK, NO","FM-15","ENHK ","V020","260,1,N,0046,1","00870,1,C,N","011265,1,N,1","+0060,1","+0020,1","99999,9","02,5,+00570,1,99,9","07,5,+00870,1,99,9",,,"07,99,1,99,9,99,9,99999,9,99,9,99,9",,"10129,1,99999,9","16,1",,,,"MET063METAR ENHK 270850Z 26009KT 9999 VCSH FEW019 BKN029 06/02 Q1013;",
"01044099999","2008-05-27T10:50:00","4","70.486675","22.139744","6.4","HASVIK, NO","FM-15","ENHK ","V020","270,1,N,0087,1","01050,1,C,N","011265,1,N,1","+0060,1","+0030,1","99999,9","04,5,+00690,1,99,9","07,5,+01050,1,99,9",,,"07,99,1,99,9,99,9,99999,9,99,9,99,9",,"10108,1,99999,9","61,1",,,"0139,1","MET065METAR ENHK 271050Z 27017G27KT 9999 -RA SCT023 BKN035 06/03 Q1011;",
"01044099999","2008-05-27T11:20:00","4","70.486675","22.139744","6.4","HASVIK, NO","FM-15","ENHK ","V020","270,1,N,0082,1","01290,1,C,N","011265,1,N,1","+0060,1","+0020,1","99999,9","04,5,+00660,1,99,9","07,5,+01290,1,99,9",,,"07,99,1,99,9,99,9,99999,9,99,9,99,9",,"10108,1,99999,9","61,1",,,,"MET070METAR ENHK 271120Z 27016KT 240V300 9999 -RA SCT022 BKN043 06/02 Q1011;",
"01044099999","2008-05-27T12:20:00","4","70.486675","22.139744","6.4","HASVIK, NO","FM-15","ENHK ","V020","270,1,N,0087,1","01260,1,C,N","011265,1,N,1","+0060,1","+0030,1","99999,9","04,5,+00720,1,99,9","07,5,+01260,1,99,9",,,"07,99,1,99,9,99,9,99999,9,99,9,99,9",,"10108,1,99999,9","61,1",,,,"MET070METAR ENHK 271220Z 27017KT 240V300 9999 -RA SCT024 BKN042 06/03 Q1011;",
"01044099999","2008-05-27T12:50:00","4","70.486675","22.139744","6.4","HASVIK, NO","FM-15","ENHK ","V020","270,1,N,0082,1","01290,1,C,N","011265,1,N,1","+0060,1","+0030,1","99999,9","04,5,+00660,1,99,9","07,5,+01290,1,99,9",,,"07,99,1,99,9,99,9,99999,9,99,9,99,9",,"10108,1,99999,9","61,1",,,,"MET070METAR ENHK 271250Z 27016KT 250V320 9999 -RA SCT022 BKN043 06/03 Q1011;",
"01044099999","2008-05-27T13:20:00","4","70.486675","22.139744","6.4","HASVIK, NO","FM-15","ENHK ","V020","270,1,N,0077,1","01290,1,C,N","011265,1,N,1","+0060,1","+0030,1","99999,9","04,5,+00660,1,99,9","07,5,+01290,1,99,9",,,"07,99,1,99,9,99,9,99999,9,99,9,99,9",,"10102,1,99999,9","61,1",,,"0134,1","MET073METAR ENHK 271320Z 27015G26KT 240V300 9999 -RA SCT022 BKN043 06/03 Q1010;",
"01044099999","2008-05-27T13:50:00","4","70.486675","22.139744","6.4","HASVIK, NO","FM-15","ENHK ","V020","270,1,N,0072,1","01260,1,C,N","011265,1,N,1","+0060,1","+0030,1","99999,9","04,5,+00690,1,99,9","07,5,+01260,1,99,9",,,"07,99,1,99,9,99,9,99999,9,99,9,99,9",,"10102,1,99999,9","61,1",,,"0129,1","MET073METAR ENHK 271350Z 27014G25KT 230V310 9999 -RA SCT023 BKN042 06/03 Q1010;",
"01044099999","2008-05-28T03:20:00","4","70.486675","22.139744","6.4","HASVIK, NO","FM-15","ENHK ","V020","300,1,N,0103,1","99999,9,C,N","011265,1,N,1","+0050,1","+0020,1","99999,9","02,5,+00540,1,99,9","04,5,+00750,1,99,9",,,"04,99,1,99,9,99,9,99999,9,99,9,99,9",,"10108,1,99999,9","16,1",,,,"MET063METAR ENHK 280320Z 30020KT 9999 VCSH FEW018 SCT025 05/02 Q1011;","P01 007503SCOCIG"
"01044099999","2008-05-28T03:50:00","4","70.486675","22.139744","6.4","HASVIK, NO","FM-15","ENHK ","V020","290,1,N,0093,1","99999,9,C,N","011265,1,N,1","+0050,1","+0020,1","99999,9","02,5,+00570,1,99,9","04,5,+00810,1,99,9",,,"04,99,1,99,9,99,9,99999,9,99,9,99,9",,"10108,1,99999,9","16,1",,,,"MET063METAR ENHK 280350Z 29018KT 9999 VCSH FEW019 SCT027 05/02 Q1011;","P01 008103SCOCIG"
"01044099999","2008-05-28T04:20:00","4","70.486675","22.139744","6.4","HASVIK, NO","FM-15","ENHK ","V020","290,1,N,0087,1","00780,1,C,N","011265,1,N,1","+0050,1","+0020,1","99999,9","02,5,+00570,1,99,9","07,5,+00780,1,99,9",,,"07,99,1,99,9,99,9,99999,9,99,9,99,9",,"10119,1,99999,9",,,,,"MET058METAR ENHK 280420Z 29017KT 9999 FEW019 BKN026 05/02 Q1012;",
"01044099999","2008-05-28T04:50:00","4","70.486675","22.139744","6.4","HASVIK, NO","FM-15","ENHK ","V020","290,1,N,0087,1","00810,1,C,N","011265,1,N,1","+0060,1","+0020,1","99999,9","02,5,+00600,1,99,9","07,5,+00810,1,99,9",,,"07,99,1,99,9,99,9,99999,9,99,9,99,9",,"10119,1,99999,9",,,,,"MET058METAR ENHK 280450Z 29017KT 9999 FEW020 BKN027 06/02 Q1012;",
"01044099999","2008-05-28T05:20:00","4","70.486675","22.139744","6.4","HASVIK, NO","FM-15","ENHK ","V020","290,1,N,0072,1","00780,1,C,N","011265,1,N,1","+0050,1","+0020,1","99999,9","02,5,+00570,1,99,9","07,5,+00780,1,99,9",,,"07,99,1,99,9,99,9,99999,9,99,9,99,9",,"10119,1,99999,9",,,,,"MET058METAR ENHK 280520Z 29014KT 9999 FEW019 BKN026 05/02 Q1012;",
"01044099999","2008-05-28T05:50:00","4","70.486675","22.139744","6.4","HASVIK, NO","FM-15","ENHK ","V020","280,1,N,0077,1","00750,1,C,N","011265,1,N,1","+0050,1","+0030,1","99999,9","02,5,+00510,1,99,9","07,5,+00750,1,99,9",,,"07,99,1,99,9,99,9,99999,9,99,9,99,9",,"10129,1,99999,9","16,1",,,,"MET063METAR ENHK 280550Z 28015KT 9999 VCSH FEW017 BKN025 05/03 Q1013;",
"01044099999","2008-05-28T06:50:00","4","70.486675","22.139744","6.4","HASVIK, NO","FM-15","ENHK ","V020","280,1,N,0098,1","00450,1,C,N","008000,1,N,1","+0050,1","+0030,1","99999,9","04,5,+00180,1,99,9","07,5,+00450,1,99,9",,,"07,99,1,99,9,99,9,99999,9,99,9,99,9",,"10139,1,99999,9","51,1","61,1",,,"MET064METAR ENHK 280650Z 28019KT 8000 -RADZ SCT006 BKN015 05/03 Q1014;",
"01044099999","2008-05-28T07:50:00","4","70.486675","22.139744","6.4","HASVIK, NO","FM-15","ENHK ","V020","270,1,N,0072,1","00390,1,C,N","011265,1,N,1","+0050,1","+0040,1","99999,9","02,5,+00150,1,99,9","07,5,+00390,1,99,9",,,"07,99,1,99,9,99,9,99999,9,99,9,99,9",,"10139,1,99999,9","16,1",,,,"MET063METAR ENHK 280750Z 27014KT 9999 VCSH FEW005 BKN013 05/04 Q1014;",
"01044099999","2008-05-28T08:50:00","4","70.486675","22.139744","6.4","HASVIK, NO","FM-15","ENHK ","V020","270,1,N,0087,1","00450,1,C,N","011265,1,N,1","+0050,1","+0040,1","99999,9","04,5,+00180,1,99,9","07,5,+00450,1,99,9",,,"07,99,1,99,9,99,9,99999,9,99,9,99,9",,"10149,1,99999,9","51,1","61,1",,,"MET064METAR ENHK 280850Z 27017KT 9999 -RADZ SCT006 BKN015 05/04 Q1015;",
"01044099999","2008-05-28T10:20:00","4","70.486675","22.139744","6.4","HASVIK, NO","FM-15","ENHK ","V020","280,1,N,0057,1","00840,1,C,N","011265,1,N,1","+0060,1","+0040,1","99999,9","04,5,+00240,1,99,9","07,5,+00840,1,99,9",,,"07,99,1,99,9,99,9,99999,9,99,9,99,9",,"10159,1,99999,9",,,,,"MET058METAR ENHK 281020Z 28011KT 9999 SCT008 BKN028 06/04 Q1016;",
"01044099999","2008-05-28T11:20:00","4","70.486675","22.139744","6.4","HASVIK, NO","FM-15","ENHK ","V020","300,1,N,0057,1","00780,1,C,N","011265,1,N,1","+0060,1","+0040,1","99999,9","04,5,+00300,1,99,9","07,5,+00780,1,99,9",,,"07,99,1,99,9,99,9,99999,9,99,9,99,9",,"10159,1,99999,9",,,,,"MET058METAR ENHK 281120Z 30011KT 9999 SCT010 BKN026 06/04 Q1016;",
"01044099999","2008-05-28T11:50:00","4","70.486675","22.139744","6.4","HASVIK, NO","FM-15","ENHK ","V020","290,1,N,0046,1","00600,1,C,N","011265,1,N,1","+0070,1","+0040,1","99999,9","02,5,+00300,1,99,9","04,5,+00600,1,99,9","07,5,+01020,1,99,9",,"07,99,1,99,9,99,9,99999,9,99,9,99,9",,"10169,1,99999,9",,,,,"MET065METAR ENHK 281150Z 29009KT 9999 FEW010 SCT020 BKN034 07/04 Q1017;",
"01044099999","2008-05-28T12:20:00","4","70.486675","22.139744","6.4","HASVIK, NO","FM-15","ENHK ","V020","280,1,N,0041,1","00720,1,C,N","011265,1,N,1","+0060,1","+0040,1","99999,9","02,5,+00300,1,99,9","07,5,+00720,1,99,9",,,"07,99,1,99,9,99,9,99999,9,99,9,99,9",,"10169,1,99999,9",,,,,"MET058METAR ENHK 281220Z 28008KT 9999 FEW010 BKN024 06/04 Q1017;",
"01044099999","2008-05-28T12:50:00","4","70.486675","22.139744","6.4","HASVIK, NO","FM-15","ENHK ","V020","280,1,N,0051,1","00750,1,C,N","011265,1,N,1","+0060,1","+0040,1","99999,9","04,5,+00330,1,99,9","07,5,+00750,1,99,9",,,"07,99,1,99,9,99,9,99999,9,99,9,99,9",,"10169,1,99999,9",,,,,"MET058METAR ENHK 281250Z 28010KT 9999 SCT011 BKN025 06/04 Q1017;",
"01044099999","2008-05-28T13:20:00","4","70.486675","22.139744","6.4","HASVIK, NO","FM-15","ENHK ","V020","280,1,N,0051,1","00600,1,C,N","011265,1,N,1","+0060,1","+0040,1","99999,9","02,5,+00300,1,99,9","04,5,+00600,1,99,9","07,5,+00900,1,99,9",,"07,99,1,99,9,99,9,99999,9,99,9,99,9",,"10169,1,99999,9",,,,,"MET065METAR ENHK 281320Z 28010KT 9999 FEW010 SCT020 BKN030 06/04 Q1017;",
"01044099999","2008-05-28T13:50:00","4","70.486675","22.139744","6.4","HASVIK, NO","FM-15","ENHK ","V020","280,1,N,0051,1","00510,1,C,N","011265,1,N,1","+0070,1","+0030,1","99999,9","02,5,+00300,1,99,9","04,5,+00510,1,99,9","07,5,+00900,1,99,9",,"07,99,1,99,9,99,9,99999,9,99,9,99,9",,"10180,1,99999,9",,,,,"MET065METAR ENHK 281350Z 28010KT 9999 FEW010 SCT017 BKN030 07/03 Q1018;",
"01044099999","2008-05-28T14:20:00","4","70.486675","22.139744","6.4","HASVIK, NO","FM-15","ENHK ","V020","300,1,N,0041,1","00540,1,C,N","011265,1,N,1","+0070,1","+0040,1","99999,9","02,5,+00360,1,99,9","04,5,+00540,1,99,9","07,5,+01020,1,99,9",,"07,99,1,99,9,99,9,99999,9,99,9,99,9",,"10180,1,99999,9",,,,,"MET065METAR ENHK 281420Z 30008KT 9999 FEW012 SCT018 BKN034 07/04 Q1018;",
"01044099999","2008-05-29T03:20:00","4","70.486675","22.139744","6.4","HASVIK, NO","FM-15","ENHK ","V020","270,1,N,0072,1","00210,1,C,N","007000,1,N,1","+0060,1","+0050,1","99999,9","04,5,+00150,1,99,9","07,5,+00210,1,99,9",,,"07,99,1,99,9,99,9,99999,9,99,9,99,9",,"10169,1,99999,9","51,1","61,1",,,"MET072METAR ENHK 290320Z 27014KT 250V310 7000 -RADZ SCT005 BKN007 06/05 Q1017;",
"01044099999","2008-05-29T03:50:00","4","70.486675","22.139744","6.4","HASVIK, NO","FM-15","ENHK ","V020","280,1,N,0067,1","00210,1,C,N","006000,1,N,1","+0060,1","+0050,1","99999,9","04,5,+00150,1,99,9","07,5,+00210,1,99,9",,,"07,99,1,99,9,99,9,99999,9,99,9,99,9",,"10169,1,99999,9","51,1","61,1",,,"MET072METAR ENHK 290350Z 28013KT 250V310 6000 -RADZ SCT005 BKN007 06/05 Q1017;",
"01044099999","2008-05-29T04:50:00","4","70.486675","22.139744","6.4","HASVIK, NO","FM-15","ENHK ","V020","280,1,N,0057,1","00210,1,C,N","005000,1,N,1","+0060,1","+0050,1","99999,9","04,5,+00150,1,99,9","07,5,+00210,1,99,9",,,"07,99,1,99,9,99,9,99999,9,99,9,99,9",,"10169,1,99999,9","51,1","61,1",,,"MET072METAR ENHK 290450Z 28011KT 240V310 5000 -RADZ SCT005 BKN007 06/05 Q1017;",
"01044099999","2008-05-29T05:20:00","4","70.486675","22.139744","6.4","HASVIK, NO","FM-15","ENHK ","V020","290,1,N,0057,1","00420,1,C,N","011265,1,N,1","+0060,1","+0050,1","99999,9","02,5,+00180,1,99,9","04,5,+00420,1,99,9","07,5,+00600,1,99,9",,"07,99,1,99,9,99,9,99999,9,99,9,99,9",,"10169,1,99999,9","61,1",,,,"MET077METAR ENHK 290520Z 29011KT 260V330 9999 -RA FEW006 SCT014 BKN020 06/05 Q1017;",
"01044099999","2008-05-29T05:50:00","4","70.486675","22.139744","6.4","HASVIK, NO","FM-15","ENHK ","V020","270,1,N,0077,1","00450,1,C,N","011265,1,N,1","+0060,1","+0050,1","99999,9","02,5,+00210,1,99,9","04,5,+00450,1,99,9","07,5,+00660,1,99,9",,"07,99,1,99,9,99,9,99999,9,99,9,99,9",,"10169,1,99999,9","61,1",,,,"MET077METAR ENHK 290550Z 27015KT 240V310 9999 -RA FEW007 SCT015 BKN022 06/05 Q1017;",
"01044099999","2008-05-29T06:50:00","4","70.486675","22.139744","6.4","HASVIK, NO","FM-15","ENHK ","V020","270,1,N,0057,1","00660,1,C,N","011265,1,N,1","+0070,1","+0040,1","99999,9","02,5,+00300,1,99,9","07,5,+00660,1,99,9",,,"07,99,1,99,9,99,9,99999,9,99,9,99,9",,"10169,1,99999,9","16,1",,,,"MET076METAR ENHK 290650Z 27011KT 210V310 9999 VCSH FEW010 BKN022 07/04 Q1017 RERA;",
"01044099999","2008-05-29T07:50:00","4","70.486675","22.139744","6.4","HASVIK, NO","FM-15","ENHK ","V020","290,1,N,0051,1","00720,1,C,N","011265,1,N,1","+0070,1","+0050,1","99999,9","02,5,+00300,1,99,9","07,5,+00720,1,99,9",,,"07,99,1,99,9,99,9,99999,9,99,9,99,9",,"10169,1,99999,9","61,1",,,,"MET070METAR ENHK 290750Z 29010KT 260V330 9999 -RA FEW010 BKN024 07/05 Q1017;",
"01044099999","2008-05-29T08:50:00","4","70.486675","22.139744","6.4","HASVIK, NO","FM-15","ENHK ","V020","280,1,N,0057,1","00750,1,C,N","011265,1,N,1","+0080,1","+0050,1","99999,9","02,5,+00300,1,99,9","04,5,+00750,1,99,9","07,5,+02250,5,99,9",,"07,99,1,99,9,99,9,99999,9,99,9,99,9",,"10159,1,99999,9","16,1",,,,"MET083METAR ENHK 290850Z 28011KT 250V320 9999 VCSH FEW010 SCT025 BKN075 08/05 Q1016 RERA;",
"01044099999","2008-05-29T09:50:00","4","70.486675","22.139744","6.4","HASVIK, NO","FM-15","ENHK ","V020","290,1,N,0046,1","00750,1,C,N","011265,1,N,1","+0080,1","+0050,1","99999,9","02,5,+00450,1,99,9","04,5,+00750,1,99,9","07,5,+01800,1,99,9",,"07,99,1,99,9,99,9,99999,9,99,9,99,9",,"10159,1,99999,9","61,1",,,,"MET077METAR ENHK 290950Z 29009KT 260V320 9999 -RA FEW015 SCT025 BKN060 08/05 Q1016;",
"01044099999","2008-05-29T10:20:00","4","70.486675","22.139744","6.4","HASVIK, NO","FM-15","ENHK ","V020","290,1,N,0067,1","00660,1,C,N","011265,1,N,1","+9999,9","+9999,9","99999,9","04,5,+00240,1,99,9","07,5,+00660,1,99,9",,,"07,99,1,99,9,99,9,99999,9,99,9,99,9",,"10169,1,99999,9","63,1",,,"0118,1","MET074METAR ENHK 291020Z 29013G23KT 250V330 9999 RA SCT008 BKN022 M07/M05 Q1017;","Q01 -00703ATOT  "
"01044099999","2008-05-29T11:20:00","4","70.486675","22.139744","6.4","HASVIK, NO","FM-15","ENHK ","V020","300,1,N,0093,1","00600,1,C,N","011265,1,N,1","+0060,1","+0050,1","99999,9","04,5,+00300,1,99,9","07,5,+00600,1,99,9",,,"07,99,1,99,9,99,9,99999,9,99,9,99,9",,"10169,1,99999,9","63,1",,,,"MET061METAR ENHK 291120Z 30018KT 9999 RA SCT010 BKN020 06/05 Q1017;",
"01044099999","2008-05-29T11:50:00","4","70.486675","22.139744","6.4","HASVIK, NO","FM-15","ENHK ","V020","300,1,N,0087,1","00300,1,C,N","011265,1,N,1","+0060,1","+0040,1","99999,9","04,5,+00180,1,99,9","07,5,+00300,1,99,9",,,"07,99,1,99,9,99,9,99999,9,99,9,99,9",,"10169,1,99999,9","63,1",,,,"MET061METAR ENHK 291150Z 30017KT 9999 RA SCT006 BKN010 06/04 Q1017;",
"01044099999","2008-05-29T12:20:00","4","70.486675","22.139744","6.4","HASVIK, NO","FM-15","ENHK ","V020","290,1,N,0093,1","00240,1,C,N","011265,1,N,1","+0060,1","+0040,1","99999,9","02,5,+00180,1,99,9","04,5,+00240,1,99,9","07,5,+00540,1,99,9",,"07,99,1,99,9,99,9,99999,9,99,9,99,9",,"10169,1,99999,9","61,1",,,,"MET069METAR ENHK 291220Z 29018KT 9999 -RA FEW006 SCT008 BKN018 06/04 Q1017;",
"01044099999","2008-05-29T12:50:00","4","70.486675","22.139744","6.4","HASVIK, NO","FM-15","ENHK ","V020","300,1,N,0103,1","00600,1,C,N","011265,1,N,1","+0060,1","+0040,1","99999,9","04,5,+00300,1,99,9","07,5,+00600,1,99,9",,,"07,99,1,99,9,99,9,99999,9,99,9,99,9",,"10180,1,99999,9",,,,,"MET063METAR ENHK 291250Z 30020KT 9999 SCT010 BKN020 06/04 Q1018 RERA;",
"01044099999","2008-05-29T13:20:00","4","70.486675","22.139744","6.4","HASVIK, NO","FM-15","ENHK ","V020","300,1,N,0093,1","00840,1,C,N","011265,1,N,1","+0060,1","+0040,1","99999,9","04,5,+00360,1,99,9","07,5,+00840,1,99,9",,,"07,99,1,99,9,99,9,99999,9,99,9,99,9",,"10180,1,99999,9",,,,,"MET058METAR ENHK 291320Z 30018KT 9999 SCT012 BKN028 06/04 Q1018;",
"01044099999","2008-05-29T13:50:00","4","70.486675","22.139744","6.4","HASVIK, NO","FM-15","ENHK ","V020","300,1,N,0103,1","00750,1,C,N","011265,1,N,1","+0060,1","+0040,1","99999,9","02,5,+00270,1,99,9","04,5,+00750,1,99,9","07,5,+01110,1,99,9",,"07,99,1,99,9,99,9,99999,9,99,9,99,9",,"10180,1,99999,9",,,,,"MET065METAR ENHK 291350Z 30020KT 9999 FEW009 SCT025 BKN037 06/04 Q1018;",
"01044099999","2008-05-30T03:20:00","4","70.486675","22.139744","6.4","HASVIK, NO","FM-15","ENHK ","V020","320,1,N,0067,1","00420,1,C,N","011265,1,N,1","+0050,1","+0030,1","99999,9","04,5,+00270,1,99,9","07,5,+00420,1,99,9",,,"07,99,1,99,9,99,9,99999,9,99,9,99,9",,"10220,1,99999,9","61,1",,,,"MET062METAR ENHK 300320Z 32013KT 9999 -RA SCT009 BKN014 05/03 Q1022;",
"01044099999","2008-05-30T03:50:00","4","70.486675","22.139744","6.4","HASVIK, NO","FM-15","ENHK ","V020","320,1,N,0067,1","00330,1,C,N","011265,1,N,1","+0050,1","+0030,1","99999,9","02,5,+00240,1,99,9","04,5,+00330,1,99,9","07,5,+00450,1,99,9",,"07,99,1,99,9,99,9,99999,9,99,9,99,9",,"10220,1,99999,9","61,1",,,,"MET069METAR ENHK 300350Z 32013KT 9999 -RA FEW008 SCT011 BKN015 05/03 Q1022;",
"01044099999","2008-05-30T05:50:00","4","70.486675","22.139744","6.4","HASVIK, NO","FM-15","ENHK ","V020","320,1,N,0057,1","00390,1,C,N","011265,1,N,1","+0050,1","+0030,1","99999,9","04,5,+00270,1,99,9","07,5,+00390,1,99,9",,,"07,99,1,99,9,99,9,99999,9,99,9,99,9",,"10230,1,99999,9","61,1",,,,"MET062METAR ENHK 300550Z 32011KT 9999 -RA SCT009 BKN013 05/03 Q1023;",
"01044099999","2008-05-30T09:50:00","4","70.486675","22.139744","6.4","HASVIK, NO","FM-15","ENHK ","V020","300,1,N,0062,1","00750,1,C,N","011265,1,N,1","+0070,1","+0040,1","99999,9","04,5,+00390,1,99,9","07,5,+00750,1,99,9",,,"07,99,1,99,9,99,9,99999,9,99,9,99,9",,"10230,1,99999,9",,,,,"MET058METAR ENHK 300950Z 30012KT 9999 SCT013 BKN025 07/04 Q1023;",
"01044099999","2008-05-30T10:20:00","4","70.486675","22.139744","6.4","HASVIK, NO","FM-15","ENHK ","V020","300,1,N,0051,1","00480,1,C,N","011265,1,N,1","+0070,1","+0040,1","99999,9","02,5,+00390,1,99,9","04,5,+00480,1,99,9","07,5,+00960,1,99,9",,"07,99,1,99,9,99,9,99999,9,99,9,99,9",,"10230,1,99999,9",,,,,"MET065METAR ENHK 301020Z 30010KT 9999 FEW013 SCT016 BKN032 07/04 Q1023;",
"01044099999","2008-05-30T11:20:00","4","70.486675","22.139744","6.4","HASVIK, NO","FM-15","ENHK ","V020","320,1,N,0036,1","00780,1,C,N","011265,1,N,1","+0070,1","+0030,1","99999,9","02,5,+00360,1,99,9","07,5,+00780,1,99,9",,,"07,99,1,99,9,99,9,99999,9,99,9,99,9",,"10230,1,99999,9",,,,,"MET058METAR ENHK 301120Z 32007KT 9999 FEW012 BKN026 07/03 Q1023;",
"01044099999","2008-05-30T11:50:00","4","70.486675","22.139744","6.4","HASVIK, NO","FM-15","ENHK ","V020","310,1,N,0021,1","00600,1,C,N","011265,1,N,1","+0070,1","+0030,1","99999,9","02,5,+00480,1,99,9","04,5,+00600,1,99,9","07,5,+00870,1,99,9",,"07,99,1,99,9,99,9,99999,9,99,9,99,9",,"10230,1,99999,9",,,,,"MET073METAR ENHK 301150Z 31004KT 260V360 9999 FEW016 SCT020 BKN029 07/03 Q1023;",
"01044099999","2008-05-30T12:20:00","4","70.486675","22.139744","6.4","HASVIK, NO","FM-15","ENHK ","V020","300,1,N,0021,1","00660,1,C,N","011265,1,N,1","+0070,1","+0030,1","99999,9","02,5,+00480,1,99,9","04,5,+00660,1,99,9","07,5,+00870,1,99,9",,"07,99,1,99,9,99,9,99999,9,99,9,99,9",,"10230,1,99999,9",,,,,"MET073METAR ENHK 301220Z 30004KT 200V360 9999 FEW016 SCT022 BKN029 07/03 Q1023;",
"01044099999","2008-05-30T12:50:00","4","70.486675","22.139744","6.4","HASVIK, NO","FM-15","ENHK ","V020","300,1,N,0015,1","00750,1,C,N","011265,1,N,1","+0070,1","+0030,1","99999,9","02,5,+00600,1,99,9","07,5,+00750,1,99,9",,,"07,99,1,99,9,99,9,99999,9,99,9,99,9",,"10230,1,99999,9",,,,,"MET066METAR ENHK 301250Z 30003KT 270V360 9999 FEW020 BKN025 07/03 Q1023;",
"01044099999","2008-05-30T13:50:00","4","70.486675","22.139744","6.4","HASVIK, NO","FM-15","ENHK ","V020","290,1,N,0021,1","00780,1,C,N","011265,1,N,1","+0030,1","+0030,1","99999,9","07,5,+00780,1,99,9",,,,"07,99,1,99,9,99,9,99999,9,99,9,99,9",,"10220,1,99999,9",,,,,"MET059METAR ENHK 301350Z 29004KT 240V340 9999 BKN026 03/03 Q1022;",
"01044099999","2008-06-01T07:20:00","4","70.486675","22.139744","6.4","HASVIK, NO","FM-15","ENHK ","V020","330,1,N,0026,1","00270,1,C,N","011265,1,N,1","+0080,1","+0060,1","99999,9","02,5,+00120,1,99,9","04,5,+00270,1,99,9","07,5,+00600,1,99,9",,"07,99,1,99,9,99,9,99999,9,99,9,99,9",,"10159,1,99999,9","41,1","61,1",,,"MET074METAR ENHK 010720Z 33005KT 9999 -RA BCFG FEW004 SCT009 BKN020 08/06 Q1016;",
"01044099999","2008-06-01T07:50:00","4","70.486675","22.139744","6.4","HASVIK, NO","FM-15","ENHK ","V020","310,1,N,0015,1","00240,1,C,N","008000,1,N,1","+0080,1","+0060,1","99999,9","02,5,+00120,1,99,9","04,5,+00240,1,99,9","07,5,+00900,1,99,9",,"07,99,1,99,9,99,9,99999,9,99,9,99,9",,"10159,1,99999,9","51,1","61,1",,,"MET080METAR ENHK 010750Z 31003KT 270V350 8000E -DZRA FEW004 SCT008 BKN030 08/06 Q1016;",
"01044099999","2008-06-01T12:50:00","4","70.486675","22.139744","6.4","HASVIK, NO","FM-15","ENHK ","V020","130,1,N,0015,1","00660,1,C,N","011265,1,N,1","+0080,1","+0070,1","99999,9","07,5,+00660,1,99,9",,,,"07,99,1,99,9,99,9,99999,9,99,9,99,9",,"10149,1,99999,9",,,,,"MET059METAR ENHK 011250Z 13003KT 090V150 9999 BKN022 08/07 Q1015;",
"01044099999","2008-06-01T13:50:00","4","70.486675","22.139744","6.4","HASVIK, NO","FM-15","ENHK ","V020","300,1,N,0026,1","00660,1,C,N","011265,1,N,1","+0090,1","+0070,1","99999,9","04,5,+00420,1,99,9","07,5,+00660,1,99,9",,,"07,99,1,99,9,99,9,99999,9,99,9,99,9",,"10149,1,99999,9","16,1",,,,"MET071METAR ENHK 011350Z 30005KT 270V330 9999 VCSH SCT014 BKN022 09/07 Q1015;",
"01044099999","2008-06-02T03:20:00","4","70.486675","22.139744","6.4","HASVIK, NO","FM-15","ENHK ","V020","290,1,N,0077,1","00120,1,C,N","008000,1,N,1","+0070,1","+0060,1","99999,9","07,5,+00120,1,99,9",,,,"07,99,1,99,9,99,9,99999,9,99,9,99,9",,"10169,1,99999,9","51,1","61,1",,,"MET057METAR ENHK 020320Z 29015KT 8000 -RADZ BKN004 07/06 Q1017;",
"01044099999","2008-06-02T03:50:00","4","70.486675","22.139744","6.4","HASVIK, NO","FM-15","ENHK ","V020","290,1,N,0072,1","00300,1,C,N","011265,1,N,1","+0070,1","+0060,1","99999,9","04,5,+00120,1,99,9","07,5,+00300,1,99,9",,,"07,99,1,99,9,99,9,99999,9,99,9,99,9",,"10169,1,99999,9","51,1","61,1",,,"MET064METAR ENHK 020350Z 29014KT 9999 -RADZ SCT004 BKN010 07/06 Q1017;",
"01044099999","2008-06-02T04:20:00","4","70.486675","22.139744","6.4","HASVIK, NO","FM-15","ENHK ","V020","300,1,N,0082,1","00930,1,C,N","011265,1,N,1","+0070,1","+0060,1","99999,9","04,5,+00150,1,99,9","07,5,+00930,1,99,9",,,"07,99,1,99,9,99,9,99999,9,99,9,99,9",,"10180,1,99999,9","61,1",,,,"MET062METAR ENHK 020420Z 30016KT 9999 -RA SCT005 BKN031 07/06 Q1018;",
"01044099999","2008-06-02T04:50:00","4","70.486675","22.139744","6.4","HASVIK, NO","FM-15","ENHK ","V020","290,1,N,0072,1","00150,1,C,N","011265,1,N,1","+0070,1","+0060,1","99999,9","07,5,+00150,1,99,9",,,,"07,99,1,99,9,99,9,99999,9,99,9,99,9",,"10180,1,99999,9","61,1",,,,"MET055METAR ENHK 020450Z 29014KT 9999 -RA BKN005 07/06 Q1018;",
"01044099999","2008-06-02T05:20:00","4","70.486675","22.139744","6.4","HASVIK, NO","FM-15","ENHK ","V020","300,1,N,0093,1","00150,1,C,N","011265,1,N,1","+0060,1","+0050,1","99999,9","07,5,+00150,1,99,9",,,,"07,99,1,99,9,99,9,99999,9,99,9,99,9",,"10180,1,99999,9","61,1",,,,"MET055METAR ENHK 020520Z 30018KT 9999 -RA BKN005 06/05 Q1018;",
"01044099999","2008-06-02T05:50:00","4","70.486675","22.139744","6.4","HASVIK, NO","FM-15","ENHK ","V020","300,1,N,0093,1","00360,1,C,N","011265,1,N,1","+0060,1","+0050,1","99999,9","04,5,+00210,1,99,9","07,5,+00360,1,99,9",,,"07,99,1,99,9,99,9,99999,9,99,9,99,9",,"10190,1,99999,9",,,,,"MET058METAR ENHK 020550Z 30018KT 9999 SCT007 BKN012 06/05 Q1019;",
"01044099999","2008-06-02T12:20:00","4","70.486675","22.139744","6.4","HASVIK, NO","FM-15","ENHK ","V020","280,1,N,0077,1","00870,1,C,N","011265,1,N,1","+0070,1","+0040,1","99999,9","02,5,+00480,1,99,9","07,5,+00870,1,99,9",,,"07,99,1,99,9,99,9,99999,9,99,9,99,9",,"10230,1,99999,9",,,,,"MET058METAR ENHK 021220Z 28015KT 9999 FEW016 BKN029 07/04 Q1023;",
"01044099999","2008-06-02T12:50:00","4","70.486675","22.139744","6.4","HASVIK, NO","FM-15","ENHK ","V020","280,1,N,0087,1","00900,1,C,N","011265,1,N,1","+0070,1","+0040,1","99999,9","02,5,+00480,1,99,9","07,5,+00900,1,99,9",,,"07,99,1,99,9,99,9,99999,9,99,9,99,9",,"10230,1,99999,9",,,,,"MET058METAR ENHK 021250Z 28017KT 9999 FEW016 BKN030 07/04 Q1023;",
"01044099999","2008-06-02T13:20:00","4","70.486675","22.139744","6.4","HASVIK, NO","FM-15","ENHK ","V020","280,1,N,0093,1","00930,1,C,N","011265,1,N,1","+0070,1","+0040,1","99999,9","02,5,+00570,1,99,9","07,5,+00930,1,99,9",,,"07,99,1,99,9,99,9,99999,9,99,9,99,9",,"10230,1,99999,9",,,,,"MET058METAR ENHK 021320Z 28018KT 9999 FEW019 BKN031 07/04 Q1023;",
"01044099999","2008-06-02T13:50:00","4","70.486675","22.139744","6.4","HASVIK, NO","FM-15","ENHK ","V020","290,1,N,0077,1","00960,1,C,N","011265,1,N,1","+0070,1","+0040,1","99999,9","02,5,+00660,1,99,9","07,5,+00960,1,99,9",,,"07,99,1,99,9,99,9,99999,9,99,9,99,9",,"10230,1,99999,9",,,,,"MET058METAR ENHK 021350Z 29015KT 9999 FEW022 BKN032 07/04 Q1023;",
"01044099999","2008-06-03T03:20:00","4","70.486675","22.139744","6.4","HASVIK, NO","FM-15","ENHK ","V020","300,1,N,0072,1","00630,1,C,N","011265,1,N,1","+0060,1","+0040,1","99999,9","02,5,+00450,1,99,9","07,5,+00630,1,99,9",,,"07,99,1,99,9,99,9,99999,9,99,9,99,9",,"10251,1,99999,9",,,,,"MET058METAR ENHK 030320Z 30014KT 9999 FEW015 BKN021 06/04 Q1025;",
"01044099999","2008-06-03T03:50:00","4","70.486675","22.139744","6.4","HASVIK, NO","FM-15","ENHK ","V020","310,1,N,0082,1","00660,1,C,N","011265,1,N,1","+0070,1","+0040,1","99999,9","02,5,+00450,1,99,9","07,5,+00660,1,99,9",,,"07,99,1,99,9,99,9,99999,9,99,9,99,9",,"10251,1,99999,9",,,,,"MET058METAR ENHK 030350Z 31016KT 9999 FEW015 BKN022 07/04 Q1025;",
"01044099999","2008-06-03T04:20:00","4","70.486675","22.139744","6.4","HASVIK, NO","FM-15","ENHK ","V020","310,1,N,0077,1","00630,1,C,N","011265,1,N,1","+0060,1","+0040,1","99999,9","02,5,+00480,1,99,9","07,5,+00630,1,99,9",,,"07,99,1,99,9,99,9,99999,9,99,9,99,9",,"10251,1,99999,9",,,,,"MET058METAR ENHK 030420Z 31015KT 9999 FEW016 BKN021 06/04 Q1025;",
"01044099999","2008-06-03T05:20:00","4","70.486675","22.139744","6.4","HASVIK, NO","FM-15","ENHK ","V020","310,1,N,0087,1","00660,1,C,N","011265,1,N,1","+0070,1","+0040,1","99999,9","02,5,+00450,1,99,9","07,5,+00660,1,99,9",,,"07,99,1,99,9,99,9,99999,9,99,9,99,9",,"10251,1,99999,9",,,,,"MET058METAR ENHK 030520Z 31017KT 9999 FEW015 BKN022 07/04 Q1025;",
"01044099999","2008-06-03T06:20:00","4","70.486675","22.139744","6.4","HASVIK, NO","FM-15","ENHK ","V020","310,1,N,0077,1","00660,1,C,N","011265,1,N,1","+0070,1","+0040,1","99999,9","07,5,+00660,1,99,9",,,,"07,99,1,99,9,99,9,99999,9,99,9,99,9",,"10251,1,99999,9",,,,,"MET051METAR ENHK 030620Z 31015KT 9999 BKN022 07/04 Q1025;",
"01044099999","2008-06-03T06:50:00","4","70.486675","22.139744","6.4","HASVIK, NO","FM-15","ENHK ","V020","310,1,N,0072,1","00630,1,C,N","011265,1,N,1","+0070,1","+0030,1","99999,9","07,5,+00630,1,99,9",,,,"07,99,1,99,9,99,9,99999,9,99,9,99,9",,"10251,1,99999,9",,,,,"MET051METAR ENHK 030650Z 31014KT 9999 BKN021 07/03 Q1025;",
"01044099999","2008-06-03T07:50:00","4","70.486675","22.139744","6.4","HASVIK, NO","FM-15","ENHK ","V020","300,1,N,0057,1","00600,1,C,N","011265,1,N,1","+0070,1","+0040,1","99999,9","07,5,+00600,1,99,9",,,,"07,99,1,99,9,99,9,99999,9,99,9,99,9",,"10251,1,99999,9",,,,,"MET051METAR ENHK 030750Z 30011KT 9999 BKN020 07/04 Q1025;",
"01044099999","2008-06-03T09:50:00","4","70.486675","22.139744","6.4","HASVIK, NO","FM-15","ENHK ","V020","310,1,N,0051,1","00750,1,C,N","011265,1,N,1","+0070,1","+0040,1","99999,9","02,5,+00390,1,99,9","07,5,+00750,1,99,9",,,"07,99,1,99,9,99,9,99999,9,99,9,99,9",,"10261,1,99999,9",,,,,"MET058METAR ENHK 030950Z 31010KT 9999 FEW013 BKN025 07/04 Q1026;",
"01044099999","2008-06-03T11:20:00","4","70.486675","22.139744","6.4","HASVIK, NO","FM-15","ENHK ","V020","300,1,N,0051,1","00510,1,C,N","011265,1,N,1","+0070,1","+0040,1","99999,9","02,5,+00300,1,99,9","07,5,+00510,1,99,9",,,"07,99,1,99,9,99,9,99999,9,99,9,99,9",,"10251,1,99999,9",,,,,"MET058METAR ENHK 031120Z 30010KT 9999 FEW010 BKN017 07/04 Q1025;",
"01044099999","2008-06-03T12:20:00","4","70.486675","22.139744","6.4","HASVIK, NO","FM-15","ENHK ","V020","310,1,N,0046,1","00600,1,C,N","011265,1,N,1","+0070,1","+0050,1","99999,9","02,5,+00300,1,99,9","07,5,+00600,1,99,9",,,"07,99,1,99,9,99,9,99999,9,99,9,99,9",,"10261,1,99999,9","16,1",,,,"MET063METAR ENHK 031220Z 31009KT 9999 VCSH FEW010 BKN020 07/05 Q1026;",
"01044099999","2008-06-03T12:50:00","4","70.486675","22.139744","6.4","HASVIK, NO","FM-15","ENHK ","V020","320,1,N,0062,1","00600,1,C,N","011265,1,N,1","+0070,1","+0050,1","99999,9","02,5,+00270,1,99,9","07,5,+00600,1,99,9",,,"07,99,1,99,9,99,9,99999,9,99,9,99,9",,"10261,1,99999,9",,,,,"MET058METAR ENHK 031250Z 32012KT 9999 FEW009 BKN020 07/05 Q1026;",
"01044099999","2008-06-03T13:50:00","4","70.486675","22.139744","6.4","HASVIK, NO","FM-15","ENHK ","V020","330,1,N,0051,1","00690,1,C,N","011265,1,N,1","+0070,1","+0040,1","99999,9","02,5,+00300,1,99,9","07,5,+00690,1,99,9",,,"07,99,1,99,9,99,9,99999,9,99,9,99,9",,"10261,1,99999,9",,,,,"MET058METAR ENHK 031350Z 33010KT 9999 FEW010 BKN023 07/04 Q1026;",
"01044099999","2008-06-03T14:50:00","4","70.486675","22.139744","6.4","HASVIK, NO","FM-15","ENHK ","V020","330,1,N,0041,1","00630,1,C,N","011265,1,N,1","+0070,1","+0040,1","99999,9","02,5,+00300,1,99,9","07,5,+00630,1,99,9",,,"07,99,1,99,9,99,9,99999,9,99,9,99,9",,"10261,1,99999,9",,,,,"MET058METAR ENHK 031450Z 33008KT 9999 FEW010 BKN021 07/04 Q1026;",
"01044099999","2008-06-04T03:20:00","4","70.486675","22.139744","6.4","HASVIK, NO","FM-15","ENHK ","V020","999,9,V,0010,1","00510,1,C,N","011265,1,N,1","+0060,1","+0030,1","99999,9","02,5,+00330,1,99,9","07,5,+00510,1,99,9",,,"07,99,1,99,9,99,9,99999,9,99,9,99,9",,"10251,1,99999,9",,,,,"MET058METAR ENHK 040320Z VRB02KT 9999 FEW011 BKN017 06/03 Q1025;",
"01044099999","2008-06-04T03:50:00","4","70.486675","22.139744","6.4","HASVIK, NO","FM-15","ENHK ","V020","999,9,V,0015,1","00630,1,C,N","011265,1,N,1","+0060,1","+0030,1","99999,9","07,5,+00630,1,99,9",,,,"07,99,1,99,9,99,9,99999,9,99,9,99,9",,"10251,1,99999,9",,,,,"MET051METAR ENHK 040350Z VRB03KT 9999 BKN021 06/03 Q1025;",
"01044099999","2008-06-04T04:20:00","4","70.486675","22.139744","6.4","HASVIK, NO","FM-15","ENHK ","V020","120,1,N,0026,1","00660,1,C,N","011265,1,N,1","+0060,1","+0030,1","99999,9","02,5,+00360,1,99,9","07,5,+00660,1,99,9",,,"07,99,1,99,9,99,9,99999,9,99,9,99,9",,"10251,1,99999,9",,,,,"MET058METAR ENHK 040420Z 12005KT 9999 FEW012 BKN022 06/03 Q1025;",
"01044099999","2008-06-04T04:50:00","4","70.486675","22.139744","6.4","HASVIK, NO","FM-15","ENHK ","V020","110,1,N,0031,1","00600,1,C,N","011265,1,N,1","+0060,1","+0030,1","99999,9","02,5,+00390,1,99,9","07,5,+00600,1,99,9",,,"07,99,1,99,9,99,9,99999,9,99,9,99,9",,"10251,1,99999,9",,,,,"MET058METAR ENHK 040450Z 11006KT 9999 FEW013 BKN020 06/03 Q1025;",
"01044099999","2008-06-04T05:50:00","4","70.486675","22.139744","6.4","HASVIK, NO","FM-15","ENHK ","V020","120,1,N,0036,1","00570,1,C,N","011265,1,N,1","+0060,1","+0030,1","99999,9","07,5,+00570,1,99,9",,,,"07,99,1,99,9,99,9,99999,9,99,9,99,9",,"10251,1,99999,9",,,,,"MET051METAR ENHK 040550Z 12007KT 9999 BKN019 06/03 Q1025;",
"01044099999","2008-06-04T06:20:00","4","70.486675","22.139744","6.4","HASVIK, NO","FM-15","ENHK ","V020","120,1,N,0041,1","00660,1,C,N","011265,1,N,1","+0060,1","+0030,1","99999,9","07,5,+00660,1,99,9",,,,"07,99,1,99,9,99,9,99999,9,99,9,99,9",,"10251,1,99999,9",,,,,"MET051METAR ENHK 040620Z 12008KT 9999 BKN022 06/03 Q1025;",
"01044099999","2008-06-04T06:50:00","4","70.486675","22.139744","6.4","HASVIK, NO","FM-15","ENHK ","V020","120,1,N,0041,1","22000,1,9,N","011265,1,N,1","+0070,1","+0030,1","99999,9","04,5,+00750,1,99,9",,,,"04,99,1,99,9,99,9,99999,9,99,9,99,9",,"10251,1,99999,9",,,,,"MET051METAR ENHK 040650Z 12008KT 9999 SCT025 07/03 Q1025;",
"01044099999","2008-06-04T08:20:00","4","70.486675","22.139744","6.4","HASVIK, NO","FM-15","ENHK ","V020","130,1,N,0031,1","99999,9,C,N","011265,1,N,1","+0070,1","+0030,1","99999,9","02,5,+00750,1,99,9","04,5,+01860,5,99,9",,,"04,99,1,99,9,99,9,99999,9,99,9,99,9",,"10251,1,99999,9",,,,,"MET058METAR ENHK 040820Z 13006KT 9999 FEW025 SCT062 07/03 Q1025;","P01 018603SCOCIG"
"01044099999","2008-06-04T08:50:00","4","70.486675","22.139744","6.4","HASVIK, NO","FM-15","ENHK ","V020","130,1,N,0041,1","22000,1,9,N","011265,1,N,1","+0070,1","+0040,1","99999,9","02,5,+00810,1,99,9",,,,"02,99,1,99,9,99,9,99999,9,99,9,99,9",,"10251,1,99999,9",,,,,"MET051METAR ENHK 040850Z 13008KT 9999 FEW027 07/04 Q1025;",
"01044099999","2008-06-04T09:50:00","4","70.486675","22.139744","6.4","HASVIK, NO","FM-15","ENHK ","V020","130,1,N,0041,1","99999,9,C,Y","009900,1,N,1","+0080,1","+0040,1","99999,9",,,,,,,"10251,1,99999,9",,,,,"MET045METAR ENHK 040950Z 13008KT CAVOK 08/04 Q1025;",
"01044099999","2008-06-04T11:50:00","4","70.486675","22.139744","6.4","HASVIK, NO","FM-15","ENHK ","V020","130,1,N,0026,1","22000,1,9,N","011265,1,N,1","+0080,1","+0040,1","99999,9","02,5,+01200,1,99,9",,,,"02,99,1,99,9,99,9,99999,9,99,9,99,9",,"10251,1,99999,9",,,,,"MET059METAR ENHK 041150Z 13005KT 110V170 9999 FEW040 08/04 Q1025;",
"01044099999","2008-06-04T12:50:00","4","70.486675","22.139744","6.4","HASVIK, NO","FM-15","ENHK ","V020","130,1,N,0021,1","99999,9,C,Y","009900,1,N,1","+0090,1","+0050,1","99999,9",,,,,,,"10251,1,99999,9",,,,,"MET053METAR ENHK 041250Z 13004KT 090V160 CAVOK 09/05 Q1025;",
"01044099999","2008-06-04T13:50:00","4","70.486675","22.139744","6.4","HASVIK, NO","FM-15","ENHK ","V020","310,1,N,0026,1","99999,9,C,Y","009900,1,N,1","+0080,1","+0030,1","99999,9",,,,,,,"10251,1,99999,9",,,,,"MET045METAR ENHK 041350Z 31005KT CAVOK 08/03 Q1025;",
"01044099999","2008-06-05T03:20:00","4","70.486675","22.139744","6.4","HASVIK, NO","FM-15","ENHK ","V020","360,1,N,0036,1","00420,1,C,N","011265,1,N,1","+0060,1","+0030,1","99999,9","02,5,+00300,1,99,9","04,5,+00420,1,99,9","07,5,+01200,1,99,9",,"07,99,1,99,9,99,9,99999,9,99,9,99,9",,"10230,1,99999,9","80,1",,,,"MET079METAR ENHK 050320Z 36007KT 340V040 9999 -SHRA FEW010 SCT014 BKN040 06/03 Q1023;",
"01044099999","2008-06-05T03:50:00","4","70.486675","22.139744","6.4","HASVIK, NO","FM-15","ENHK ","V020","130,1,N,0015,1","01200,1,C,N","011265,1,N,1","+0060,1","+0030,1","99999,9","02,5,+00420,1,99,9","04,5,+01200,1,99,9","07,5,+02010,5,99,9",,"07,99,1,99,9,99,9,99999,9,99,9,99,9",,"10230,1,99999,9",,,,,"MET073METAR ENHK 050350Z 13003KT 070V200 9999 FEW014 SCT040 BKN067 06/03 Q1023;",
"01044099999","2008-06-05T04:50:00","4","70.486675","22.139744","6.4","HASVIK, NO","FM-15","ENHK ","V020","210,1,N,0021,1","02550,5,C,N","011265,1,N,1","+0060,1","+0030,1","99999,9","02,5,+00600,1,99,9","07,5,+02550,5,99,9",,,"07,99,1,99,9,99,9,99999,9,99,9,99,9",,"10230,1,99999,9",,,,,"MET066METAR ENHK 050450Z 21004KT 170V250 9999 FEW020 BKN085 06/03 Q1023;",
"01044099999","2008-06-05T05:50:00","4","70.486675","22.139744","6.4","HASVIK, NO","FM-15","ENHK ","V020","330,1,N,0036,1","00900,1,C,N","011265,1,N,1","+0060,1","+0030,1","99999,9","02,5,+00390,1,99,9","04,5,+00900,1,99,9","07,5,+02250,5,99,9",,"07,99,1,99,9,99,9,99999,9,99,9,99,9",,"10230,1,99999,9",,,,,"MET073METAR ENHK 050550Z 33007KT 300V360 9999 FEW013 SCT030 BKN075 06/03 Q1023;",
"01044099999","2008-06-05T06:50:00","4","70.486675","22.139744","6.4","HASVIK, NO","FM-15","ENHK ","V020","360,1,N,0041,1","02250,5,C,N","011265,1,N,1","+0070,1","+0030,1","99999,9","02,5,+00510,1,99,9","07,5,+02250,5,99,9",,,"07,99,1,99,9,99,9,99999,9,99,9,99,9",,"10240,1,99999,9",,,,,"MET066METAR ENHK 050650Z 36008KT 330V030 9999 FEW017 BKN075 07/03 Q1024;",
"01044099999","2008-06-05T07:20:00","4","70.486675","22.139744","6.4","HASVIK, NO","FM-15","ENHK ","V020","060,1,N,0021,1","02310,5,C,N","011265,1,N,1","+0070,1","+0030,1","99999,9","02,5,+00480,1,99,9","07,5,+02310,5,99,9",,,"07,99,1,99,9,99,9,99999,9,99,9,99,9",,"10240,1,99999,9",,,,,"MET066METAR ENHK 050720Z 06004KT 340V200 9999 FEW016 BKN077 07/03 Q1024;",
"01044099999","2008-06-05T07:50:00","4","70.486675","22.139744","6.4","HASVIK, NO","FM-15","ENHK ","V020","350,1,N,0031,1","02250,5,C,N","011265,1,N,1","+0070,1","+0030,1","99999,9","02,5,+00570,1,99,9","07,5,+02250,5,99,9",,,"07,99,1,99,9,99,9,99999,9,99,9,99,9",,"10240,1,99999,9",,,,,"MET066METAR ENHK 050750Z 35006KT 310V040 9999 FEW019 BKN075 07/03 Q1024;",
"01044099999","2008-06-05T08:50:00","4","70.486675","22.139744","6.4","HASVIK, NO","FM-15","ENHK ","V020","320,1,N,0036,1","02250,5,C,N","011265,1,N,1","+0070,1","+0030,1","99999,9","02,5,+00600,1,99,9","07,5,+02250,5,99,9",,,"07,99,1,99,9,99,9,99999,9,99,9,99,9",,"10240,1,99999,9",,,,,"MET066METAR ENHK 050850Z 32007KT 290V010 9999 FEW020 BKN075 07/03 Q1024;",
"01044099999","2008-06-05T09:20:00","4","70.486675","22.139744","6.4","HASVIK, NO","FM-15","ENHK ","V020","330,1,N,0041,1","02100,1,C,N","011265,1,N,1","+0070,1","+0030,1","99999,9","02,5,+00600,1,99,9","07,5,+02100,1,99,9",,,"07,99,1,99,9,99,9,99999,9,99,9,99,9",,"10240,1,99999,9",,,,,"MET058METAR ENHK 050920Z 33008KT 9999 FEW020 BKN070 07/03 Q1024;",
"01044099999","2008-06-05T09:50:00","4","70.486675","22.139744","6.4","HASVIK, NO","FM-15","ENHK ","V020","320,1,N,0041,1","01200,1,C,N","011265,1,N,1","+0070,1","+0030,1","99999,9","02,5,+00660,1,99,9","04,5,+01200,1,99,9","07,5,+01860,5,99,9",,"07,99,1,99,9,99,9,99999,9,99,9,99,9",,"10240,1,99999,9",,,,,"MET073METAR ENHK 050950Z 32008KT 290V350 9999 FEW022 SCT040 BKN062 07/03 Q1024;",
"01044099999","2008-06-05T10:50:00","4","70.486675","22.139744","6.4","HASVIK, NO","FM-15","ENHK ","V020","310,1,N,0041,1","00540,1,C,N","011265,1,N,1","+0070,1","+0040,1","99999,9","02,5,+00450,1,99,9","04,5,+00540,1,99,9","07,5,+01800,1,99,9",,"07,99,1,99,9,99,9,99999,9,99,9,99,9",,"10240,1,99999,9",,,,,"MET073METAR ENHK 051050Z 31008KT 290V350 9999 FEW015 SCT018 BKN060 07/04 Q1024;",
"01044099999","2008-06-05T11:50:00","4","70.486675","22.139744","6.4","HASVIK, NO","FM-15","ENHK ","V020","310,1,N,0036,1","00450,1,C,N","011265,1,N,1","+0070,1","+0050,1","99999,9","02,5,+00270,1,99,9","04,5,+00450,1,99,9","07,5,+01770,5,99,9",,"07,99,1,99,9,99,9,99999,9,99,9,99,9",,"10240,1,99999,9",,,,,"MET065METAR ENHK 051150Z 31007KT 9999 FEW009 SCT015 BKN059 07/05 Q1024;",
"01044099999","2008-06-05T12:20:00","4","70.486675","22.139744","6.4","HASVIK, NO","FM-15","ENHK ","V020","290,1,N,0046,1","00450,1,C,N","011265,1,N,1","+0060,1","+0040,1","99999,9","02,5,+00270,1,99,9","04,5,+00450,1,99,9","07,5,+01800,1,99,9",,"07,99,1,99,9,99,9,99999,9,99,9,99,9",,"10240,1,99999,9",,,,,"MET065METAR ENHK 051220Z 29009KT 9999 FEW009 SCT015 BKN060 06/04 Q1024;",
"01044099999","2008-06-05T12:50:00","4","70.486675","22.139744","6.4","HASVIK, NO","FM-15","ENHK ","V020","290,1,N,0046,1","01710,5,C,N","011265,1,N,1","+0070,1","+0050,1","99999,9","04,5,+00300,1,99,9","07,5,+01710,5,99,9",,,"07,99,1,99,9,99,9,99999,9,99,9,99,9",,"10240,1,99999,9",,,,,"MET058METAR ENHK 051250Z 29009KT 9999 SCT010 BKN057 07/05 Q1024;",
"01044099999","2008-06-05T13:20:00","4","70.486675","22.139744","6.4","HASVIK, NO","FM-15","ENHK ","V020","310,1,N,0046,1","01740,5,C,N","011265,1,N,1","+0070,1","+0040,1","99999,9","04,5,+00300,1,99,9","07,5,+01740,5,99,9",,,"07,99,1,99,9,99,9,99999,9,99,9,99,9",,"10240,1,99999,9",,,,,"MET058METAR ENHK 051320Z 31009KT 9999 SCT010 BKN058 07/04 Q1024;",
"01044099999","2008-06-05T13:50:00","4","70.486675","22.139744","6.4","HASVIK, NO","FM-15","ENHK ","V020","310,1,N,0046,1","01710,5,C,N","011265,1,N,1","+0070,1","+0040,1","99999,9","04,5,+00300,1,99,9","07,5,+01710,5,99,9",,,"07,99,1,99,9,99,9,99999,9,99,9,99,9",,"10240,1,99999,9",,,,,"MET058METAR ENHK 051350Z 31009KT 9999 SCT010 BKN057 07/04 Q1024;",
"01044099999","2008-06-06T03:20:00","4","70.486675","22.139744","6.4","HASVIK, NO","FM-15","ENHK ","V020","999,9,V,0005,1","01110,1,C,N","011265,1,N,1","+0060,1","+0010,1","99999,9","02,5,+00660,1,99,9","07,5,+01110,1,99,9",,,"07,99,1,99,9,99,9,99999,9,99,9,99,9",,"10261,1,99999,9",,,,,"MET058METAR ENHK 060320Z VRB01KT 9999 FEW022 BKN037 06/01 Q1026;",
"01044099999","2008-06-06T03:50:00","4","70.486675","22.139744","6.4","HASVIK, NO","FM-15","ENHK ","V020","350,1,N,0021,1","01080,1,C,N","011265,1,N,1","+0060,1","+0010,1","99999,9","02,5,+00690,1,99,9","07,5,+01080,1,99,9",,,"07,99,1,99,9,99,9,99999,9,99,9,99,9",,"10261,1,99999,9",,,,,"MET066METAR ENHK 060350Z 35004KT 300V040 9999 FEW023 BKN036 06/01 Q1026;",
"01044099999","2008-06-06T04:20:00","4","70.486675","22.139744","6.4","HASVIK, NO","FM-15","ENHK ","V020","350,1,N,0031,1","01110,1,C,N","011265,1,N,1","+0060,1","+0020,1","99999,9","02,5,+00690,1,99,9","07,5,+01110,1,99,9",,,"07,99,1,99,9,99,9,99999,9,99,9,99,9",,"10261,1,99999,9",,,,,"MET058METAR ENHK 060420Z 35006KT 9999 FEW023 BKN037 06/02 Q1026;",
"01044099999","2008-06-06T04:50:00","4","70.486675","22.139744","6.4","HASVIK, NO","FM-15","ENHK ","V020","350,1,N,0036,1","01110,1,C,N","011265,1,N,1","+0060,1","+0020,1","99999,9","02,5,+00690,1,99,9","07,5,+01110,1,99,9",,,"07,99,1,99,9,99,9,99999,9,99,9,99,9",,"10261,1,99999,9",,,,,"MET058METAR ENHK 060450Z 35007KT 9999 FEW023 BKN037 06/02 Q1026;",
"01044099999","2008-06-06T05:20:00","4","70.486675","22.139744","6.4","HASVIK, NO","FM-15","ENHK ","V020","350,1,N,0026,1","99999,9,C,N","011265,1,N,1","+0060,1","+0010,1","99999,9","02,5,+00720,1,99,9","04,5,+01140,1,99,9",,,"04,99,1,99,9,99,9,99999,9,99,9,99,9",,"10261,1,99999,9",,,,,"MET058METAR ENHK 060520Z 35005KT 9999 FEW024 SCT038 06/01 Q1026;","P01 011403SCOCIG"
"01044099999","2008-06-06T12:50:00","4","70.486675","22.139744","6.4","HASVIK, NO","FM-15","ENHK ","V020","120,1,N,0026,1","22000,1,9,N","011265,1,N,1","+0080,1","+0010,1","99999,9","02,5,+00720,1,99,9",,,,"02,99,1,99,9,99,9,99999,9,99,9,99,9",,"10271,1,99999,9",,,,,"MET051METAR ENHK 061250Z 12005KT 9999 FEW024 08/01 Q1027;",
"01044099999","2008-06-06T13:50:00","4","70.486675","22.139744","6.4","HASVIK, NO","FM-15","ENHK ","V020","130,1,N,0036,1","22000,1,9,N","011265,1,N,1","+0070,1","+0020,1","99999,9","02,5,+00750,1,99,9",,,,"02,99,1,99,9,99,9,99999,9,99,9,99,9",,"10271,1,99999,9",,,,,"MET051METAR ENHK 061350Z 13007KT 9999 FEW025 07/02 Q1027;",
"01044099999","2008-06-06T14:20:00","4","70.486675","22.139744","6.4","HASVIK, NO","FM-15","ENHK ","V020","120,1,N,0051,1","22000,1,9,N","011265,1,N,1","+0080,1","+0020,1","99999,9","02,5,+00750,1,99,9",,,,"02,99,1,99,9,99,9,99999,9,99,9,99,9",,"10271,1,99999,9",,,,,"MET051METAR ENHK 061420Z 12010KT 9999 FEW025 08/02 Q1027;",
"01044099999","2008-06-08T11:50:00","4","70.486675","22.139744","6.4","HASVIK, NO","FM-15","ENHK ","V020","150,1,N,0026,1","01140,1,C,N","011265,1,N,1","+0040,1","+0000,1","99999,9","02,5,+00750,1,99,9","07,5,+01140,1,99,9",,,"07,99,1,99,9,99,9,99999,9,99,9,99,9",,"10169,1,99999,9","16,1",,,,"MET071METAR ENHK 081150Z 15005KT 120V180 9999 VCSH FEW025 BKN038 04/00 Q1017;",
"01044099999","2008-06-08T12:50:00","4","70.486675","22.139744","6.4","HASVIK, NO","FM-15","ENHK ","V020","130,1,N,0041,1","00720,1,C,N","011265,1,N,1","+0040,1","+0000,1","99999,9","02,5,+00540,1,99,9","04,5,+00720,1,99,9","07,5,+00930,1,99,9",,"07,99,1,99,9,99,9,99999,9,99,9,99,9",,"10159,1,99999,9","16,1",,,,"MET071METAR ENHK 081250Z 13008KT 9999 VCSH FEW018 SCT024 BKN031 04/M00 Q1016;",
"01044099999","2008-06-08T13:20:00","4","70.486675","22.139744","6.4","HASVIK, NO","FM-15","ENHK ","V020","120,1,N,0057,1","00600,1,C,N","011265,1,N,1","+0030,1","+0000,1","99999,9","02,5,+00300,1,99,9","04,5,+00600,1,99,9","07,5,+00930,1,99,9",,"07,99,1,99,9,99,9,99999,9,99,9,99,9",,"10159,1,99999,9","16,1",,,,"MET070METAR ENHK 081320Z 12011KT 9999 VCSH FEW010 SCT020 BKN031 03/00 Q1016;",
"01044099999","2008-06-08T13:50:00","4","70.486675","22.139744","6.4","HASVIK, NO","FM-15","ENHK ","V020","120,1,N,0046,1","00600,1,C,N","011265,1,N,1","+0030,1","+0010,1","99999,9","02,5,+00300,1,99,9","04,5,+00600,1,99,9","07,5,+00930,1,99,9",,"07,99,1,99,9,99,9,99999,9,99,9,99,9",,"10159,1,99999,9","61,1",,,,"MET077METAR ENHK 081350Z 12009KT 090V150 9999 -RA FEW010 SCT020 BKN031 03/01 Q1016;",
"01044099999","2008-06-09T03:20:00","4","70.486675","22.139744","6.4","HASVIK, NO","FM-15","ENHK ","V020","110,1,N,0067,1","22000,1,9,N","011265,1,N,1","+0040,1","-0030,1","99999,9","02,5,+00900,1,99,9",,,,"02,99,1,99,9,99,9,99999,9,99,9,99,9",,"10119,1,99999,9",,,,,"MET052METAR ENHK 090320Z 11013KT 9999 FEW030 04/M03 Q1012;",
"01044099999","2008-06-09T03:50:00","4","70.486675","22.139744","6.4","HASVIK, NO","FM-15","ENHK ","V020","110,1,N,0072,1","22000,1,9,N","011265,1,N,1","+0040,1","-0030,1","99999,9","02,5,+00900,1,99,9",,,,"02,99,1,99,9,99,9,99999,9,99,9,99,9",,"10119,1,99999,9",,,,,"MET060METAR ENHK 090350Z 11014KT 090V150 9999 FEW030 04/M03 Q1012;",
"01044099999","2008-06-09T04:50:00","4","70.486675","22.139744","6.4","HASVIK, NO","FM-15","ENHK ","V020","110,1,N,0077,1","22000,1,9,N","011265,1,N,1","+0050,1","-0030,1","99999,9","02,5,+01050,1,99,9",,,,"02,99,1,99,9,99,9,99999,9,99,9,99,9",,"10119,1,99999,9",,,,,"MET052METAR ENHK 090450Z 11015KT 9999 FEW035 05/M03 Q1012;",
"01044099999","2008-06-09T10:20:00","4","70.486675","22.139744","6.4","HASVIK, NO","FM-15","ENHK ","V020","110,1,N,0057,1","22000,1,9,N","011265,1,N,1","+0070,1","-0040,1","99999,9","02,5,+00900,1,99,9",,,,"02,99,1,99,9,99,9,99999,9,99,9,99,9",,"10129,1,99999,9",,,,,"MET060METAR ENHK 091020Z 11011KT 070V140 9999 FEW030 07/M04 Q1013;",
"01044099999","2008-06-09T11:50:00","4","70.486675","22.139744","6.4","HASVIK, NO","FM-15","ENHK ","V020","110,1,N,0057,1","22000,1,9,N","011265,1,N,1","+0070,1","-0040,1","99999,9","02,5,+00900,1,99,9",,,,"02,99,1,99,9,99,9,99999,9,99,9,99,9",,"10129,1,99999,9",,,,,"MET060METAR ENHK 091150Z 11011KT 080V140 9999 FEW030 07/M04 Q1013;",
"01044099999","2008-06-09T12:20:00","4","70.486675","22.139744","6.4","HASVIK, NO","FM-15","ENHK ","V020","110,1,N,0051,1","22000,1,9,N","011265,1,N,1","+0070,1","-0050,1","99999,9","02,5,+00900,1,99,9",,,,"02,99,1,99,9,99,9,99999,9,99,9,99,9",,"10139,1,99999,9",,,,,"MET060METAR ENHK 091220Z 11010KT 080V140 9999 FEW030 07/M05 Q1014;",
"01044099999","2008-06-09T12:50:00","4","70.486675","22.139744","6.4","HASVIK, NO","FM-15","ENHK ","V020","110,1,N,0046,1","22000,1,9,N","011265,1,N,1","+0070,1","-0050,1","99999,9","02,5,+00900,1,99,9",,,,"02,99,1,99,9,99,9,99999,9,99,9,99,9",,"10129,1,99999,9",,,,,"MET052METAR ENHK 091250Z 11009KT 9999 FEW030 07/M05 Q1013;",
"01044099999","2008-06-09T13:50:00","4","70.486675","22.139744","6.4","HASVIK, NO","FM-15","ENHK ","V020","110,1,N,0046,1","99999,9,C,N","011265,1,N,1","+0070,1","-0060,1","99999,9","02,5,+00960,1,99,9","04,5,+02400,1,99,9",,,"04,99,1,99,9,99,9,99999,9,99,9,99,9",,"10129,1,99999,9",,,,,"MET059METAR ENHK 091350Z 11009KT 9999 FEW032 SCT080 07/M06 Q1013;","P01 024003SCOCIG"
"01044099999","2008-06-10T03:20:00","4","70.486675","22.139744","6.4","HASVIK, NO","FM-15","ENHK ","V020","110,1,N,0041,1","00870,1,C,N","011265,1,N,1","+0060,1","-0010,1","99999,9","07,5,+00870,1,99,9",,,,"07,99,1,99,9,99,9,99999,9,99,9,99,9",,"10102,1,99999,9",,,,,"MET052METAR ENHK 100320Z 11008KT 9999 BKN029 06/M01 Q1010;",
"01044099999","2008-06-10T03:50:00","4","70.486675","22.139744","6.4","HASVIK, NO","FM-15","ENHK ","V020","100,1,N,0041,1","00900,1,C,N","011265,1,N,1","+0060,1","-0010,1","99999,9","07,5,+00900,1,99,9",,,,"07,99,1,99,9,99,9,99999,9,99,9,99,9",,"10102,1,99999,9",,,,,"MET052METAR ENHK 100350Z 10008KT 9999 BKN030 06/M01 Q1010;",
"01044099999","2008-06-10T04:50:00","4","70.486675","22.139744","6.4","HASVIK, NO","FM-15","ENHK ","V020","110,1,N,0062,1","00900,1,C,N","011265,1,N,1","+0060,1","+0000,1","99999,9","02,5,+00780,1,99,9","07,5,+00900,1,99,9",,,"07,99,1,99,9,99,9,99999,9,99,9,99,9",,"10091,1,99999,9",,,,,"MET059METAR ENHK 100450Z 11012KT 9999 FEW026 BKN030 06/M00 Q1009;",
"01044099999","2008-06-10T05:20:00","4","70.486675","22.139744","6.4","HASVIK, NO","FM-15","ENHK ","V020","110,1,N,0062,1","00960,1,C,N","011265,1,N,1","+0060,1","+0000,1","99999,9","02,5,+00780,1,99,9","07,5,+00960,1,99,9",,,"07,99,1,99,9,99,9,99999,9,99,9,99,9",,"10091,1,99999,9",,,,,"MET059METAR ENHK 100520Z 11012KT 9999 FEW026 BKN032 06/M00 Q1009;",
"01044099999","2008-06-10T06:50:00","4","70.486675","22.139744","6.4","HASVIK, NO","FM-15","ENHK ","V020","100,1,N,0057,1","00870,1,C,N","011265,1,N,1","+0060,1","+0000,1","99999,9","02,5,+00750,1,99,9","07,5,+00870,1,99,9",,,"07,99,1,99,9,99,9,99999,9,99,9,99,9",,"10091,1,99999,9",,,,,"MET059METAR ENHK 100650Z 10011KT 9999 FEW025 BKN029 06/M00 Q1009;",
"01044099999","2008-06-10T10:50:00","4","70.486675","22.139744","6.4","HASVIK, NO","FM-15","ENHK ","V020","110,1,N,0062,1","00960,1,C,N","011265,1,N,1","+0060,1","+0000,1","99999,9","02,5,+00450,1,99,9","07,5,+00960,1,99,9",,,"07,99,1,99,9,99,9,99999,9,99,9,99,9",,"10081,1,99999,9",,,,,"MET058METAR ENHK 101050Z 11012KT 9999 FEW015 BKN032 06/00 Q1008;",
"01044099999","2008-06-10T11:20:00","4","70.486675","22.139744","6.4","HASVIK, NO","FM-15","ENHK ","V020","110,1,N,0062,1","00960,1,C,N","011265,1,N,1","+0060,1","+0000,1","99999,9","02,5,+00480,1,99,9","07,5,+00960,1,99,9",,,"07,99,1,99,9,99,9,99999,9,99,9,99,9",,"10071,1,99999,9",,,,,"MET059METAR ENHK 101120Z 11012KT 9999 FEW016 BKN032 06/M00 Q1007;",
"01044099999","2008-06-10T14:20:00","4","70.486675","22.139744","6.4","HASVIK, NO","FM-15","ENHK ","V020","110,1,N,0072,1","01050,1,C,N","011265,1,N,1","+0070,1","-0010,1","99999,9","02,5,+00630,1,99,9","07,5,+01050,1,99,9","07,5,+02460,5,99,9",,"07,99,1,99,9,99,9,99999,9,99,9,99,9",,"10071,1,99999,9",,,,,"MET066METAR ENHK 101420Z 11014KT 9999 FEW021 BKN035 BKN082 07/M01 Q1007;",
"01044099999","2008-06-11T03:20:00","4","70.486675","22.139744","6.4","HASVIK, NO","FM-15","ENHK ","V020","110,1,N,0036,1","00930,1,C,N","011265,1,N,1","+0060,1","+0000,1","99999,9","07,5,+00930,1,99,9",,,,"07,99,1,99,9,99,9,99999,9,99,9,99,9",,"10061,1,99999,9",,,,,"MET051METAR ENHK 110320Z 11007KT 9999 BKN031 06/00 Q1006;",
"01044099999","2008-06-11T03:50:00","4","70.486675","22.139744","6.4","HASVIK, NO","FM-15","ENHK ","V020","120,1,N,0031,1","00810,1,C,N","011265,1,N,1","+0060,1","+0000,1","99999,9","07,5,+00810,1,99,9",,,,"07,99,1,99,9,99,9,99999,9,99,9,99,9",,"10061,1,99999,9",,,,,"MET052METAR ENHK 110350Z 12006KT 9999 BKN027 06/M00 Q1006;",
"01044099999","2008-06-11T04:20:00","4","70.486675","22.139744","6.4","HASVIK, NO","FM-15","ENHK ","V020","080,1,N,0031,1","00780,1,C,N","011265,1,N,1","+0060,1","+0000,1","99999,9","07,5,+00780,1,99,9",,,,"07,99,1,99,9,99,9,99999,9,99,9,99,9",,"10061,1,99999,9",,,,,"MET060METAR ENHK 110420Z 08006KT 040V120 9999 BKN026 06/M00 Q1006;",
"01044099999","2008-06-11T04:50:00","4","70.486675","22.139744","6.4","HASVIK, NO","FM-15","ENHK ","V020","070,1,N,0026,1","00780,1,C,N","011265,1,N,1","+0060,1","-0010,1","99999,9","02,5,+00480,1,99,9","07,5,+00780,1,99,9",,,"07,99,1,99,9,99,9,99999,9,99,9,99,9",,"10061,1,99999,9",,,,,"MET067METAR ENHK 110450Z 07005KT 050V110 9999 FEW016 BKN026 06/M01 Q1006;",
"01044099999","2008-06-11T05:20:00","4","70.486675","22.139744","6.4","HASVIK, NO","FM-15","ENHK ","V020","110,1,N,0031,1","00750,1,C,N","011265,1,N,1","+0060,1","+0000,1","99999,9","02,5,+00480,1,99,9","07,5,+00750,1,99,9",,,"07,99,1,99,9,99,9,99999,9,99,9,99,9",,"10051,1,99999,9",,,,,"MET067METAR ENHK 110520Z 11006KT 090V150 9999 FEW016 BKN025 06/M00 Q1005;",
"01044099999","2008-06-11T05:50:00","4","70.486675","22.139744","6.4","HASVIK, NO","FM-15","ENHK ","V020","120,1,N,0046,1","00810,1,C,N","011265,1,N,1","+0060,1","+0000,1","99999,9","02,5,+00480,1,99,9","07,5,+00810,1,99,9",,,"07,99,1,99,9,99,9,99999,9,99,9,99,9",,"10051,1,99999,9",,,,,"MET058METAR ENHK 110550Z 12009KT 9999 FEW016 BKN027 06/00 Q1005;",
"01044099999","2008-06-11T06:20:00","4","70.486675","22.139744","6.4","HASVIK, NO","FM-15","ENHK ","V020","080,1,N,0041,1","00780,1,C,N","011265,1,N,1","+0060,1","-0010,1","99999,9","02,5,+00450,1,99,9","07,5,+00780,1,99,9",,,"07,99,1,99,9,99,9,99999,9,99,9,99,9",,"10051,1,99999,9",,,,,"MET067METAR ENHK 110620Z 08008KT 050V110 9999 FEW015 BKN026 06/M01 Q1005;",
"01044099999","2008-06-11T06:50:00","4","70.486675","22.139744","6.4","HASVIK, NO","FM-15","ENHK ","V020","090,1,N,0036,1","00870,1,C,N","011265,1,N,1","+0060,1","-0010,1","99999,9","02,5,+00600,1,99,9","07,5,+00870,1,99,9",,,"07,99,1,99,9,99,9,99999,9,99,9,99,9",,"10051,1,99999,9",,,,,"MET067METAR ENHK 110650Z 09007KT 060V160 9999 FEW020 BKN029 06/M01 Q1005;",
"01044099999","2008-06-11T07:50:00","4","70.486675","22.139744","6.4","HASVIK, NO","FM-15","ENHK ","V020","120,1,N,0051,1","22000,1,9,N","011265,1,N,1","+0070,1","+0000,1","99999,9","04,5,+00900,1,99,9",,,,"04,99,1,99,9,99,9,99999,9,99,9,99,9",,"10051,1,99999,9",,,,,"MET052METAR ENHK 110750Z 12010KT 9999 SCT030 07/M00 Q1005;",
"01044099999","2008-06-11T09:20:00","4","70.486675","22.139744","6.4","HASVIK, NO","FM-15","ENHK ","V020","130,1,N,0046,1","00900,1,C,N","011265,1,N,1","+0070,1","+0000,1","99999,9","02,5,+00600,1,99,9","07,5,+00900,1,99,9",,,"07,99,1,99,9,99,9,99999,9,99,9,99,9",,"10051,1,99999,9",,,,,"MET067METAR ENHK 110920Z 13009KT 110V170 9999 FEW020 BKN030 07/M00 Q1005;",
"01044099999","2008-06-11T09:50:00","4","70.486675","22.139744","6.4","HASVIK, NO","FM-15","ENHK ","V020","120,1,N,0046,1","00960,1,C,N","011265,1,N,1","+0070,1","+0000,1","99999,9","02,5,+00600,1,99,9","07,5,+00960,1,99,9",,,"07,99,1,99,9,99,9,99999,9,99,9,99,9",,"10051,1,99999,9",,,,,"MET059METAR ENHK 110950Z 12009KT 9999 FEW020 BKN032 07/M00 Q1005;",
"01044099999","2008-06-11T10:20:00","4","70.486675","22.139744","6.4","HASVIK, NO","FM-15","ENHK ","V020","120,1,N,0057,1","00990,1,C,N","011265,1,N,1","+0070,1","+0000,1","99999,9","02,5,+00540,1,99,9","07,5,+00990,1,99,9","07,5,+02010,5,99,9",,"07,99,1,99,9,99,9,99999,9,99,9,99,9",,"10051,1,99999,9",,,,,"MET066METAR ENHK 111020Z 12011KT 9999 FEW018 BKN033 BKN067 07/M00 Q1005;",
"01044099999","2008-06-11T11:50:00","4","70.486675","22.139744","6.4","HASVIK, NO","FM-15","ENHK ","V020","130,1,N,0051,1","01500,1,C,N","011265,1,N,1","+0070,1","+0000,1","99999,9","02,5,+00720,1,99,9","04,5,+01500,1,99,9","07,5,+02550,5,99,9",,"07,99,1,99,9,99,9,99999,9,99,9,99,9",,"10051,1,99999,9",,,,,"MET073METAR ENHK 111150Z 13010KT 100V160 9999 FEW024 SCT050 BKN085 07/00 Q1005;",
"01044099999","2008-06-11T13:50:00","4","70.486675","22.139744","6.4","HASVIK, NO","FM-15","ENHK ","V020","130,1,N,0041,1","02100,1,C,N","011265,1,N,1","+0070,1","+0000,1","99999,9","02,5,+00660,1,99,9","07,5,+02100,1,99,9",,,"07,99,1,99,9,99,9,99999,9,99,9,99,9",,"10051,1,99999,9",,,,,"MET058METAR ENHK 111350Z 13008KT 9999 FEW022 BKN070 07/00 Q1005;",
"01044099999","2008-06-12T03:20:00","4","70.486675","22.139744","6.4","HASVIK, NO","FM-15","ENHK ","V020","130,1,N,0036,1","99999,9,C,N","011265,1,N,1","+0060,1","+0010,1","99999,9","02,5,+00750,1,99,9","04,5,+02400,1,99,9",,,"04,99,1,99,9,99,9,99999,9,99,9,99,9",,"10031,1,99999,9",,,,,"MET058METAR ENHK 120320Z 13007KT 9999 FEW025 SCT080 06/01 Q1003;","P01 024003SCOCIG"
"01044099999","2008-06-12T03:50:00","4","70.486675","22.139744","6.4","HASVIK, NO","FM-15","ENHK ","V020","130,1,N,0036,1","99999,9,C,N","011265,1,N,1","+0060,1","+0010,1","99999,9","02,5,+00600,1,99,9","04,5,+00780,1,99,9","04,5,+02400,1,99,9",,"04,99,1,99,9,99,9,99999,9,99,9,99,9",,"10031,1,99999,9",,,,,"MET073METAR ENHK 120350Z 13007KT 090V150 9999 FEW020 SCT026 SCT080 06/01 Q1003;","P01 007803SCOCIG"
"01044099999","2008-06-12T04:50:00","4","70.486675","22.139744","6.4","HASVIK, NO","FM-15","ENHK ","V020","130,1,N,0041,1","99999,9,C,N","011265,1,N,1","+0070,1","+0010,1","99999,9","02,5,+00600,1,99,9","04,5,+02400,1,99,9",,,"04,99,1,99,9,99,9,99999,9,99,9,99,9",,"10031,1,99999,9",,,,,"MET058METAR ENHK 120450Z 13008KT 9999 FEW020 SCT080 07/01 Q1003;","P01 024003SCOCIG"
"01044099999","2008-06-15T11:50:00","4","70.486675","22.139744","6.4","HASVIK, NO","FM-15","ENHK ","V020","340,1,N,0036,1","00900,1,C,N","011265,1,N,1","+9999,9","+9999,9","99999,9","02,5,+00720,1,99,9","07,5,+00900,1,99,9",,,"07,99,1,99,9,99,9,99999,9,99,9,99,9",,"10091,1,99999,9",,,,,"MET066METAR ENHK 151150Z 34007KT 280V030 9999 FEW024 BKN030 ///// Q1009;",
"01044099999","2008-06-15T12:20:00","4","70.486675","22.139744","6.4","HASVIK, NO","FM-15","ENHK ","V020","340,1,N,0036,1","01170,1,C,N","011265,1,N,1","+9999,9","+9999,9","99999,9","02,5,+00720,1,99,9","07,5,+01170,1,99,9",,,"07,99,1,99,9,99,9,99999,9,99,9,99,9",,"10091,1,99999,9",,,,,"MET058METAR ENHK 151220Z 34007KT 9999 FEW024 BKN039 ///// Q1009;",
"01044099999","2008-06-15T12:50:00","4","70.486675","22.139744","6.4","HASVIK, NO","FM-15","ENHK ","V020","350,1,N,0046,1","01230,1,C,N","011265,1,N,1","+9999,9","+9999,9","99999,9","02,5,+00750,1,99,9","07,5,+01230,1,99,9",,,"07,99,1,99,9,99,9,99999,9,99,9,99,9",,"10091,1,99999,9",,,,,"MET058METAR ENHK 151250Z 35009KT 9999 FEW025 BKN041 ///// Q1009;",
"01044099999","2008-06-15T13:20:00","4","70.486675","22.139744","6.4","HASVIK, NO","FM-15","ENHK ","V020","999,9,N,0046,1","01290,1,C,N","011265,1,N,1","+9999,9","+9999,9","99999,9","07,5,+01290,1,99,9",,,,"07,99,1,99,9,99,9,99999,9,99,9,99,9",,"10091,1,99999,9",,,,,"MET051METAR ENHK 151320Z 35409KT 9999 BKN043 ///// Q1009;",
"01044099999","2008-06-15T13:50:00","4","70.486675","22.139744","6.4","HASVIK, NO","FM-15","ENHK ","V020","999,9,N,0046,1","01260,1,C,N","011265,1,N,1","+9999,9","+9999,9","99999,9","07,5,+01260,1,99,9",,,,"07,99,1,99,9,99,9,99999,9,99,9,99,9",,"10091,1,99999,9",,,,,"MET051METAR ENHK 151350Z 35409KT 9999 BKN042 ///// Q1009;",
"01044099999","2008-06-16T03:20:00","4","70.486675","22.139744","6.4","HASVIK, NO","FM-15","ENHK ","V020","340,1,N,0031,1","99999,9,C,N","011265,1,N,1","+9999,9","+9999,9","99999,9","02,5,+00750,1,99,9","04,5,+01800,1,99,9",,,"04,99,1,99,9,99,9,99999,9,99,9,99,9",,"10091,1,99999,9",,,,,"MET066METAR ENHK 160320Z 34006KT 300V030 9999 FEW025 SCT060 --/-- Q1009;","P01 018003SCOCIG"
"01044099999","2008-06-16T03:50:00","4","70.486675","22.139744","6.4","HASVIK, NO","FM-15","ENHK ","V020","240,1,N,0026,1","22000,1,9,N","011265,1,N,1","+9999,9","+9999,9","99999,9","02,5,+00750,1,99,9",,,,"02,99,1,99,9,99,9,99999,9,99,9,99,9",,"10091,1,99999,9",,,,,"MET059METAR ENHK 160350Z 24005KT 300V020 9999 FEW025 --/-- Q1009;",
"01044099999","2008-06-16T04:50:00","4","70.486675","22.139744","6.4","HASVIK, NO","FM-15","ENHK ","V020","350,1,N,0026,1","22000,1,9,N","011265,1,N,1","+9999,9","+9999,9","99999,9","02,5,+00750,1,99,9",,,,"02,99,1,99,9,99,9,99999,9,99,9,99,9",,"10091,1,99999,9",,,,,"MET051METAR ENHK 160450Z 35005KT 9999 FEW025 --/-- Q1009;",
"01044099999","2008-06-16T11:50:00","4","70.486675","22.139744","6.4","HASVIK, NO","FM-15","ENHK ","V020","310,1,N,0057,1","22000,1,9,N","011265,1,N,1","+9999,9","+9999,9","99999,9","02,5,+00930,1,99,9",,,,"02,99,1,99,9,99,9,99999,9,99,9,99,9",,"10081,1,99999,9",,,,,"MET051METAR ENHK 161150Z 31011KT 9999 FEW031 ///// Q1008;",
"01044099999","2008-06-16T12:20:00","4","70.486675","22.139744","6.4","HASVIK, NO","FM-15","ENHK ","V020","320,1,N,0067,1","22000,1,9,N","011265,1,N,1","+9999,9","+9999,9","99999,9","02,5,+00900,1,99,9",,,,"02,99,1,99,9,99,9,99999,9,99,9,99,9",,"10081,1,99999,9",,,,,"MET051METAR ENHK 161220Z 32013KT 9999 FEW030 ///// Q1008;",
"01044099999","2008-06-16T12:50:00","4","70.486675","22.139744","6.4","HASVIK, NO","FM-15","ENHK ","V020","320,1,N,0062,1","22000,1,9,N","011265,1,N,1","+9999,9","+9999,9","99999,9","02,5,+01050,1,99,9",,,,"02,99,1,99,9,99,9,99999,9,99,9,99,9",,"10081,1,99999,9",,,,,"MET051METAR ENHK 161250Z 32012KT 9999 FEW035 ///// Q1008;",
"01044099999","2008-06-16T13:20:00","4","70.486675","22.139744","6.4","HASVIK, NO","FM-15","ENHK ","V020","310,1,N,0062,1","22000,1,9,N","011265,1,N,1","+9999,9","+9999,9","99999,9","02,5,+01020,1,99,9",,,,"02,99,1,99,9,99,9,99999,9,99,9,99,9",,"10081,1,99999,9",,,,,"MET051METAR ENHK 161320Z 31012KT 9999 FEW034 ///// Q1008;",
"01044099999","2008-06-16T13:50:00","4","70.486675","22.139744","6.4","HASVIK, NO","FM-15","ENHK ","V020","320,1,N,0057,1","22000,1,9,N","011265,1,N,1","+9999,9","+9999,9","99999,9","02,5,+00990,1,99,9",,,,"02,99,1,99,9,99,9,99999,9,99,9,99,9",,"10081,1,99999,9",,,,,"MET051METAR ENHK 161350Z 32011KT 9999 FEW033 ///// Q1008;",
"01044099999","2008-06-17T03:20:00","4","70.486675","22.139744","6.4","HASVIK, NO","FM-15","ENHK ","V020","270,1,N,0026,1","00840,1,C,N","011265,1,N,1","+9999,9","+9999,9","99999,9","07,5,+00840,1,99,9",,,,"07,99,1,99,9,99,9,99999,9,99,9,99,9",,"10071,1,99999,9",,,,,"MET051METAR ENHK 170320Z 27005KT 9999 BKN028 --/-- Q1007;",
"01044099999","2008-06-17T03:50:00","4","70.486675","22.139744","6.4","HASVIK, NO","FM-15","ENHK ","V020","270,1,N,0026,1","00780,1,C,N","011265,1,N,1","+9999,9","+9999,9","99999,9","07,5,+00780,1,99,9",,,,"07,99,1,99,9,99,9,99999,9,99,9,99,9",,"10071,1,99999,9",,,,,"MET059METAR ENHK 170350Z 27005KT 240V300 9999 BKN026 --/-- Q1007;",
"01044099999","2008-06-17T04:50:00","4","70.486675","22.139744","6.4","HASVIK, NO","FM-15","ENHK ","V020","340,1,N,0041,1","00600,1,C,N","011265,1,N,1","+9999,9","+9999,9","99999,9","02,5,+00270,1,99,9","04,5,+00600,1,99,9","07,5,+01050,1,99,9",,"07,99,1,99,9,99,9,99999,9,99,9,99,9",,"10081,1,99999,9","80,1",,,,"MET079METAR ENHK 170450Z 34008KT 310V010 9999 -SHRA FEW009 SCT020 BKN035 --/-- Q1008;",
"01044099999","2008-06-17T05:50:00","4","70.486675","22.139744","6.4","HASVIK, NO","FM-15","ENHK ","V020","350,1,N,0021,1","01050,1,C,N","011265,1,N,1","+9999,9","+9999,9","99999,9","04,5,+00660,1,99,9","07,5,+01050,1,99,9",,,"07,99,1,99,9,99,9,99999,9,99,9,99,9",,"10071,1,99999,9",,,,,"MET066METAR ENHK 170550Z 35004KT 310V040 9999 SCT022 BKN035 --/-- Q1007;",
"01044099999","2008-06-17T06:50:00","4","70.486675","22.139744","6.4","HASVIK, NO","FM-15","ENHK ","V020","340,1,N,0026,1","01020,1,C,N","011265,1,N,1","+9999,9","+9999,9","99999,9","02,5,+00660,1,99,9","07,5,+01020,1,99,9",,,"07,99,1,99,9,99,9,99999,9,99,9,99,9",,"10081,1,99999,9",,,,,"MET066METAR ENHK 170650Z 34005KT 300V020 9999 FEW022 BKN034 --/-- Q1008;",
"01044099999","2008-06-17T08:50:00","4","70.486675","22.139744","6.4","HASVIK, NO","FM-15","ENHK ","V020","320,1,N,0031,1","01140,1,C,N","011265,1,N,1","+9999,9","+9999,9","99999,9","02,5,+00660,1,99,9","07,5,+01140,1,99,9",,,"07,99,1,99,9,99,9,99999,9,99,9,99,9",,"10081,1,99999,9",,,,,"MET066METAR ENHK 170850Z 32006KT 270V020 9999 FEW022 BKN038 --/-- Q1008;",
"01044099999","2008-06-17T09:50:00","4","70.486675","22.139744","6.4","HASVIK, NO","FM-15","ENHK ","V020","310,1,N,0036,1","01110,1,C,N","011265,1,N,1","+9999,9","+9999,9","99999,9","02,5,+00750,1,99,9","07,5,+01110,1,99,9",,,"07,99,1,99,9,99,9,99999,9,99,9,99,9",,"10081,1,99999,9",,,,,"MET058METAR ENHK 170950Z 31007KT 9999 FEW025 BKN037 --/-- Q1008;",
"01044099999","2008-06-17T12:50:00","4","70.486675","22.139744","6.4","HASVIK, NO","FM-15","ENHK ","V020","330,1,N,0036,1","01050,1,C,N","011265,1,N,1","+9999,9","+9999,9","99999,9","02,5,+00780,1,99,9","07,5,+01050,1,99,9",,,"07,99,1,99,9,99,9,99999,9,99,9,99,9",,"10081,1,99999,9",,,,,"MET058METAR ENHK 171250Z 33007KT 9999 FEW026 BKN035 ///// Q1008;",
"01044099999","2008-06-17T13:20:00","4","70.486675","22.139744","6.4","HASVIK, NO","FM-15","ENHK ","V020","340,1,N,0031,1","01080,1,C,N","011265,1,N,1","+9999,9","+9999,9","99999,9","02,5,+00780,1,99,9","07,5,+01080,1,99,9",,,"07,99,1,99,9,99,9,99999,9,99,9,99,9",,"10081,1,99999,9",,,,,"MET066METAR ENHK 171320Z 34006KT 270V030 9999 FEW026 BKN036 ///// Q1008;",
"01044099999","2008-06-17T13:50:00","4","70.486675","22.139744","6.4","HASVIK, NO","FM-15","ENHK ","V020","999,9,V,0010,1","01050,1,C,N","011265,1,N,1","+9999,9","+9999,9","99999,9","02,5,+00780,1,99,9","07,5,+01050,1,99,9",,,"07,99,1,99,9,99,9,99999,9,99,9,99,9",,"10081,1,99999,9",,,,,"MET058METAR ENHK 171350Z VRB02KT 9999 FEW026 BKN035 ///// Q1008;",
"01044099999","2008-06-18T03:20:00","4","70.486675","22.139744","6.4","HASVIK, NO","FM-15","ENHK ","V020","140,1,N,0010,1","01920,5,C,N","011265,1,N,1","+9999,9","+9999,9","99999,9","04,5,+00900,1,99,9","07,5,+01920,5,99,9",,,"07,99,1,99,9,99,9,99999,9,99,9,99,9",,"10071,1,99999,9",,,,,"MET058METAR ENHK 180320Z 14002KT 9999 SCT030 BKN064 --/-- Q1007;",
"01044099999","2008-06-18T03:50:00","4","70.486675","22.139744","6.4","HASVIK, NO","FM-15","ENHK ","V020","999,9,V,0010,1","01590,5,C,N","011265,1,N,1","+9999,9","+9999,9","99999,9","04,5,+00900,1,99,9","07,5,+01590,5,99,9",,,"07,99,1,99,9,99,9,99999,9,99,9,99,9",,"10071,1,99999,9",,,,,"MET058METAR ENHK 180350Z VRB02KT 9999 SCT030 BKN053 --/-- Q1007;",
"01044099999","2008-06-18T04:20:00","4","70.486675","22.139744","6.4","HASVIK, NO","FM-15","ENHK ","V020","140,1,N,0031,1","01710,5,C,N","011265,1,N,1","+9999,9","+9999,9","99999,9","04,5,+00900,1,99,9","07,5,+01710,5,99,9",,,"07,99,1,99,9,99,9,99999,9,99,9,99,9",,"10071,1,99999,9",,,,,"MET058METAR ENHK 180420Z 14006KT 9999 SCT030 BKN057 --/-- Q1007;",
"01044099999","2008-06-18T04:50:00","4","70.486675","22.139744","6.4","HASVIK, NO","FM-15","ENHK ","V020","130,1,N,0026,1","01650,5,C,N","011265,1,N,1","+9999,9","+9999,9","99999,9","04,5,+00990,1,99,9","07,5,+01650,5,99,9",,,"07,99,1,99,9,99,9,99999,9,99,9,99,9",,"10071,1,99999,9",,,,,"MET066METAR ENHK 180450Z 13005KT 100V160 9999 SCT033 BKN055 --/-- Q1007;",
"01044099999","2008-06-18T05:50:00","4","70.486675","22.139744","6.4","HASVIK, NO","FM-15","ENHK ","V020","120,1,N,0015,1","01950,5,C,N","011265,1,N,1","+9999,9","+9999,9","99999,9","04,5,+00840,1,99,9","07,5,+01950,5,99,9",,,"07,99,1,99,9,99,9,99999,9,99,9,99,9",,"10071,1,99999,9",,,,,"MET058METAR ENHK 180550Z 12003KT 9999 SCT028 BKN065 --/-- Q1007;",
"01044099999","2008-06-18T06:50:00","4","70.486675","22.139744","6.4","HASVIK, NO","FM-15","ENHK ","V020","120,1,N,0041,1","01800,1,C,N","011265,1,N,1","+9999,9","+9999,9","99999,9","02,5,+00900,1,99,9","04,5,+01800,1,99,9","07,5,+02700,1,99,9",,"07,99,1,99,9,99,9,99999,9,99,9,99,9",,"10071,1,99999,9",,,,,"MET073METAR ENHK 180650Z 12008KT 090V150 9999 FEW030 SCT060 BKN090 --/-- Q1007;",
"01044099999","2008-06-18T07:50:00","4","70.486675","22.139744","6.4","HASVIK, NO","FM-15","ENHK ","V020","110,1,N,0051,1","00720,1,C,N","011265,1,N,1","+9999,9","+9999,9","99999,9","02,5,+00450,1,99,9","04,5,+00720,1,99,9","07,5,+02580,5,99,9",,"07,99,1,99,9,99,9,99999,9,99,9,99,9",,"10071,1,99999,9","80,1",,,,"MET071METAR ENHK 180750Z 11010KT 9999 -SHRA FEW015 SCT024 BKN086 --/-- Q1007;",
"01044099999","2008-06-18T09:50:00","4","70.486675","22.139744","6.4","HASVIK, NO","FM-15","ENHK ","V020","120,1,N,0036,1","01500,1,C,N","011265,1,N,1","+0070,1","+0030,1","99999,9","04,5,+00720,1,99,9","07,5,+01500,1,99,9",,,"07,99,1,99,9,99,9,99999,9,99,9,99,9",,"10071,1,99999,9","80,1",,,,"MET064METAR ENHK 180950Z 12007KT 9999 -SHRA SCT024 BKN050 07/03 Q1007;",
"01044099999","2008-06-18T13:20:00","4","70.486675","22.139744","6.4","HASVIK, NO","FM-15","ENHK ","V020","120,1,N,0036,1","00720,1,C,N","011265,1,N,1","+0070,1","+0040,1","99999,9","02,5,+00420,1,99,9","07,5,+00720,1,99,9",,,"07,99,1,99,9,99,9,99999,9,99,9,99,9",,"10071,1,99999,9","61,1",,,,"MET062METAR ENHK 181320Z 12007KT 9999 -RA FEW014 BKN024 07/04 Q1007;",
"01044099999","2008-06-18T14:20:00","4","70.486675","22.139744","6.4","HASVIK, NO","FM-15","ENHK ","V020","130,1,N,0026,1","00660,1,C,N","011265,1,N,1","+0070,1","+0040,1","99999,9","02,5,+00420,1,99,9","07,5,+00660,1,99,9",,,"07,99,1,99,9,99,9,99999,9,99,9,99,9",,"10071,1,99999,9",,,,,"MET066METAR ENHK 181420Z 13005KT 090V150 9999 FEW014 BKN022 07/04 Q1007;",
"01044099999","2008-06-19T03:20:00","4","70.486675","22.139744","6.4","HASVIK, NO","FM-15","ENHK ","V020","110,1,N,0046,1","00480,1,C,N","011265,1,N,1","+0070,1","+0040,1","99999,9","02,5,+00360,1,99,9","07,5,+00480,1,99,9",,,"07,99,1,99,9,99,9,99999,9,99,9,99,9",,"10081,1,99999,9",,,,,"MET058METAR ENHK 190320Z 11009KT 9999 FEW012 BKN016 07/04 Q1008;",
"01044099999","2008-06-19T03:50:00","4","70.486675","22.139744","6.4","HASVIK, NO","FM-15","ENHK ","V020","110,1,N,0051,1","00660,1,C,N","011265,1,N,1","+0070,1","+0040,1","99999,9","02,5,+00480,1,99,9","07,5,+00660,1,99,9",,,"07,99,1,99,9,99,9,99999,9,99,9,99,9",,"10081,1,99999,9",,,,,"MET058METAR ENHK 190350Z 11010KT 9999 FEW016 BKN022 07/04 Q1008;",
"01044099999","2008-06-19T04:20:00","4","70.486675","22.139744","6.4","HASVIK, NO","FM-15","ENHK ","V020","110,1,N,0057,1","00750,1,C,N","011265,1,N,1","+0070,1","+0040,1","99999,9","02,5,+00480,1,99,9","07,5,+00750,1,99,9",,,"07,99,1,99,9,99,9,99999,9,99,9,99,9",,"10081,1,99999,9",,,,,"MET058METAR ENHK 190420Z 11011KT 9999 FEW016 BKN025 07/04 Q1008;",
"01044099999","2008-06-19T04:50:00","4","70.486675","22.139744","6.4","HASVIK, NO","FM-15","ENHK ","V020","110,1,N,0057,1","00720,1,C,N","011265,1,N,1","+0070,1","+0040,1","99999,9","02,5,+00480,1,99,9","07,5,+00720,1,99,9",,,"07,99,1,99,9,99,9,99999,9,99,9,99,9",,"10081,1,99999,9",,,,,"MET058METAR ENHK 190450Z 11011KT 9999 FEW016 BKN024 07/04 Q1008;",
"01044099999","2008-06-19T05:20:00","4","70.486675","22.139744","6.4","HASVIK, NO","FM-15","ENHK ","V020","110,1,N,0051,1","00870,1,C,N","011265,1,N,1","+0070,1","+0040,1","99999,9","02,5,+00510,1,99,9","07,5,+00870,1,99,9",,,"07,99,1,99,9,99,9,99999,9,99,9,99,9",,"10081,1,99999,9",,,,,"MET058METAR ENHK 190520Z 11010KT 9999 FEW017 BKN029 07/04 Q1008;",
"01044099999","2008-06-19T05:50:00","4","70.486675","22.139744","6.4","HASVIK, NO","FM-15","ENHK ","V020","110,1,N,0057,1","00840,1,C,N","011265,1,N,1","+0070,1","+0040,1","99999,9","02,5,+00480,1,99,9","07,5,+00840,1,99,9",,,"07,99,1,99,9,99,9,99999,9,99,9,99,9",,"10081,1,99999,9",,,,,"MET058METAR ENHK 190550Z 11011KT 9999 FEW016 BKN028 07/04 Q1008;",
"01044099999","2008-06-19T06:50:00","4","70.486675","22.139744","6.4","HASVIK, NO","FM-15","ENHK ","V020","110,1,N,0062,1","00870,1,C,N","011265,1,N,1","+0080,1","+0040,1","99999,9","02,5,+00540,1,99,9","07,5,+00870,1,99,9",,,"07,99,1,99,9,99,9,99999,9,99,9,99,9",,"10081,1,99999,9",,,,,"MET058METAR ENHK 190650Z 11012KT 9999 FEW018 BKN029 08/04 Q1008;",
"01044099999","2008-06-19T08:20:00","4","70.486675","22.139744","6.4","HASVIK, NO","FM-15","ENHK ","V020","110,1,N,0062,1","01590,5,C,N","011265,1,N,1","+0080,1","+0040,1","99999,9","02,5,+00810,1,99,9","07,5,+01590,5,99,9",,,"07,99,1,99,9,99,9,99999,9,99,9,99,9",,"10081,1,99999,9",,,,,"MET058METAR ENHK 190820Z 11012KT 9999 FEW027 BKN053 08/04 Q1008;",
"01044099999","2008-06-19T09:20:00","4","70.486675","22.139744","6.4","HASVIK, NO","FM-15","ENHK ","V020","110,1,N,0067,1","01620,5,C,N","011265,1,N,1","+0090,1","+0040,1","99999,9","02,5,+00870,1,99,9","07,5,+01620,5,99,9",,,"07,99,1,99,9,99,9,99999,9,99,9,99,9",,"10081,1,99999,9",,,,,"MET058METAR ENHK 190920Z 11013KT 9999 FEW029 BKN054 09/04 Q1008;",
"01044099999","2008-06-19T09:50:00","4","70.486675","22.139744","6.4","HASVIK, NO","FM-15","ENHK ","V020","110,1,N,0062,1","01590,5,C,N","011265,1,N,1","+0090,1","+0040,1","99999,9","02,5,+00930,1,99,9","07,5,+01590,5,99,9",,,"07,99,1,99,9,99,9,99999,9,99,9,99,9",,"10081,1,99999,9",,,,,"MET058METAR ENHK 190950Z 11012KT 9999 FEW031 BKN053 09/04 Q1008;",
"01044099999","2008-06-19T10:20:00","4","70.486675","22.139744","6.4","HASVIK, NO","FM-15","ENHK ","V020","110,1,N,0057,1","00900,1,C,N","011265,1,N,1","+0090,1","+0040,1","99999,9","02,5,+00660,1,99,9","04,5,+00900,1,99,9","07,5,+01860,5,99,9",,"07,99,1,99,9,99,9,99999,9,99,9,99,9",,"10081,1,99999,9",,,,,"MET065METAR ENHK 191020Z 11011KT 9999 FEW022 SCT030 BKN062 09/04 Q1008;",
"01044099999","2008-06-19T10:50:00","4","70.486675","22.139744","6.4","HASVIK, NO","FM-15","ENHK ","V020","110,1,N,0062,1","01770,5,C,N","011265,1,N,1","+0090,1","+0040,1","99999,9","02,5,+00900,1,99,9","07,5,+01770,5,99,9",,,"07,99,1,99,9,99,9,99999,9,99,9,99,9",,"10081,1,99999,9",,,,,"MET058METAR ENHK 191050Z 11012KT 9999 FEW030 BKN059 09/04 Q1008;",
"01044099999","2008-06-19T11:50:00","4","70.486675","22.139744","6.4","HASVIK, NO","FM-15","ENHK ","V020","110,1,N,0051,1","01500,1,C,N","011265,1,N,1","+0090,1","+0050,1","99999,9","02,5,+00450,1,99,9","07,5,+01500,1,99,9",,,"07,99,1,99,9,99,9,99999,9,99,9,99,9",,"10081,1,99999,9",,,,,"MET058METAR ENHK 191150Z 11010KT 9999 FEW015 BKN050 09/05 Q1008;",
"01044099999","2008-06-19T12:20:00","4","70.486675","22.139744","6.4","HASVIK, NO","FM-15","ENHK ","V020","120,1,N,0046,1","01050,1,C,N","011265,1,N,1","+0080,1","+0050,1","99999,9","02,5,+00540,1,99,9","04,5,+01050,1,99,9","07,5,+01500,1,99,9",,"07,99,1,99,9,99,9,99999,9,99,9,99,9",,"10081,1,99999,9","61,1",,,,"MET069METAR ENHK 191220Z 12009KT 9999 -RA FEW018 SCT035 BKN050 08/05 Q1008;",
"01044099999","2008-06-19T12:50:00","4","70.486675","22.139744","6.4","HASVIK, NO","FM-15","ENHK ","V020","120,1,N,0041,1","01500,1,C,N","011265,1,N,1","+0070,1","+0040,1","99999,9","04,5,+00600,1,99,9","07,5,+01500,1,99,9",,,"07,99,1,99,9,99,9,99999,9,99,9,99,9",,"10081,1,99999,9","61,1",,,,"MET062METAR ENHK 191250Z 12008KT 9999 -RA SCT020 BKN050 07/04 Q1008;",
"01044099999","2008-06-19T13:50:00","4","70.486675","22.139744","6.4","HASVIK, NO","FM-15","ENHK ","V020","110,1,N,0036,1","00630,1,C,N","011265,1,N,1","+0070,1","+0050,1","99999,9","02,5,+00450,1,99,9","04,5,+00630,1,99,9","07,5,+01350,1,99,9",,"07,99,1,99,9,99,9,99999,9,99,9,99,9",,"10081,1,99999,9","63,1",,,,"MET068METAR ENHK 191350Z 11007KT 9999 RA FEW015 SCT021 BKN045 07/05 Q1008;",
"01044099999","2008-06-19T14:50:00","4","70.486675","22.139744","6.4","HASVIK, NO","FM-15","ENHK ","V020","100,1,N,0015,1","00720,1,C,N","011265,1,N,1","+0070,1","+0040,1","99999,9","02,5,+00450,1,99,9","04,5,+00720,1,99,9","07,5,+00930,1,99,9",,"07,99,1,99,9,99,9,99999,9,99,9,99,9",,"10081,1,99999,9","63,1",,,,"MET068METAR ENHK 191450Z 10003KT 9999 RA FEW015 SCT024 BKN031 07/04 Q1008;",
"01044099999","2008-06-20T03:20:00","4","70.486675","22.139744","6.4","HASVIK, NO","FM-15","ENHK ","V020","110,1,N,0072,1","01260,1,C,N","011265,1,N,1","+0070,1","+0050,1","99999,9","02,5,+00750,1,99,9","07,5,+01260,1,99,9",,,"07,99,1,99,9,99,9,99999,9,99,9,99,9",,"10071,1,99999,9",,,,,"MET058METAR ENHK 200320Z 11014KT 9999 FEW025 BKN042 07/05 Q1007;",
"01044099999","2008-06-20T03:50:00","4","70.486675","22.139744","6.4","HASVIK, NO","FM-15","ENHK ","V020","110,1,N,0072,1","01290,1,C,N","011265,1,N,1","+0070,1","+0050,1","99999,9","02,5,+00750,1,99,9","07,5,+01290,1,99,9",,,"07,99,1,99,9,99,9,99999,9,99,9,99,9",,"10071,1,99999,9",,,,,"MET058METAR ENHK 200350Z 11014KT 9999 FEW025 BKN043 07/05 Q1007;",
"01044099999","2008-06-20T04:20:00","4","70.486675","22.139744","6.4","HASVIK, NO","FM-15","ENHK ","V020","110,1,N,0072,1","01260,1,C,N","011265,1,N,1","+0070,1","+0050,1","99999,9","02,5,+00750,1,99,9","07,5,+01260,1,99,9",,,"07,99,1,99,9,99,9,99999,9,99,9,99,9",,"10071,1,99999,9",,,,,"MET058METAR ENHK 200420Z 11014KT 9999 FEW025 BKN042 07/05 Q1007;",
"01044099999","2008-06-20T04:50:00","4","70.486675","22.139744","6.4","HASVIK, NO","FM-15","ENHK ","V020","110,1,N,0077,1","01320,1,C,N","011265,1,N,1","+0080,1","+0050,1","99999,9","02,5,+00810,1,99,9","07,5,+01320,1,99,9",,,"07,99,1,99,9,99,9,99999,9,99,9,99,9",,"10071,1,99999,9",,,,,"MET058METAR ENHK 200450Z 11015KT 9999 FEW027 BKN044 08/05 Q1007;",
"01044099999","2008-06-20T05:50:00","4","70.486675","22.139744","6.4","HASVIK, NO","FM-15","ENHK ","V020","110,1,N,0077,1","99999,9,C,N","011265,1,N,1","+0080,1","+0040,1","99999,9","02,5,+00840,1,99,9","04,5,+01350,1,99,9",,,"04,99,1,99,9,99,9,99999,9,99,9,99,9",,"10071,1,99999,9",,,,,"MET058METAR ENHK 200550Z 11015KT 9999 FEW028 SCT045 08/04 Q1007;","P01 013503SCOCIG"
"01044099999","2008-06-20T06:20:00","4","70.486675","22.139744","6.4","HASVIK, NO","FM-15","ENHK ","V020","110,1,N,0098,1","01890,5,C,N","011265,1,N,1","+0080,1","+0040,1","99999,9","04,5,+01320,1,99,9","07,5,+01890,5,99,9",,,"07,99,1,99,9,99,9,99999,9,99,9,99,9",,"10071,1,99999,9",,,,,"MET058METAR ENHK 200620Z 11019KT 9999 SCT044 BKN063 08/04 Q1007;",
"01044099999","2008-06-20T06:50:00","4","70.486675","22.139744","6.4","HASVIK, NO","FM-15","ENHK ","V020","100,1,N,0087,1","01920,5,C,N","011265,1,N,1","+0080,1","+0040,1","99999,9","04,5,+01290,1,99,9","07,5,+01920,5,99,9",,,"07,99,1,99,9,99,9,99999,9,99,9,99,9",,"10071,1,99999,9",,,,,"MET058METAR ENHK 200650Z 10017KT 9999 SCT043 BKN064 08/04 Q1007;",
"01044099999","2008-06-20T08:20:00","4","70.486675","22.139744","6.4","HASVIK, NO","FM-15","ENHK ","V020","110,1,N,0093,1","22000,1,9,N","011265,1,N,1","+0090,1","+0050,1","99999,9","04,5,+01380,1,99,9",,,,"04,99,1,99,9,99,9,99999,9,99,9,99,9",,"10071,1,99999,9",,,,,"MET051METAR ENHK 200820Z 11018KT 9999 SCT046 09/05 Q1007;",
"01044099999","2008-06-20T09:20:00","4","70.486675","22.139744","6.4","HASVIK, NO","FM-15","ENHK ","V020","110,1,N,0093,1","22000,1,9,N","011265,1,N,1","+0090,1","+0040,1","99999,9","02,5,+01320,1,99,9",,,,"02,99,1,99,9,99,9,99999,9,99,9,99,9",,"10071,1,99999,9",,,,,"MET051METAR ENHK 200920Z 11018KT 9999 FEW044 09/04 Q1007;",
"01044099999","2008-06-20T09:50:00","4","70.486675","22.139744","6.4","HASVIK, NO","FM-15","ENHK ","V020","100,1,N,0093,1","22000,1,9,N","011265,1,N,1","+0100,1","+0040,1","99999,9","02,5,+01290,1,99,9",,,,"02,99,1,99,9,99,9,99999,9,99,9,99,9",,"10071,1,99999,9",,,,,"MET051METAR ENHK 200950Z 10018KT 9999 FEW043 10/04 Q1007;",
"01044099999","2008-06-20T10:50:00","4","70.486675","22.139744","6.4","HASVIK, NO","FM-15","ENHK ","V020","100,1,N,0103,1","22000,1,9,N","011265,1,N,1","+0100,1","+0050,1","99999,9","02,5,+00900,1,99,9",,,,"02,99,1,99,9,99,9,99999,9,99,9,99,9",,"10061,1,99999,9",,,,,"MET059METAR ENHK 201050Z 10020KT 080V140 9999 FEW030 10/05 Q1006;",
"01044099999","2008-06-20T11:20:00","4","70.486675","22.139744","6.4","HASVIK, NO","FM-15","ENHK ","V020","110,1,N,0108,1","22000,1,9,N","011265,1,N,1","+0100,1","+0050,1","99999,9","02,5,+00900,1,99,9",,,,"02,99,1,99,9,99,9,99999,9,99,9,99,9",,"10061,1,99999,9",,,,,"MET051METAR ENHK 201120Z 11021KT 9999 FEW030 10/05 Q1006;",
"01044099999","2008-06-20T11:50:00","4","70.486675","22.139744","6.4","HASVIK, NO","FM-15","ENHK ","V020","110,1,N,0108,1","00930,1,C,N","011265,1,N,1","+0110,1","+0050,1","99999,9","07,5,+00930,1,99,9",,,,"07,99,1,99,9,99,9,99999,9,99,9,99,9",,"10061,1,99999,9",,,,,"MET051METAR ENHK 201150Z 11021KT 9999 BKN031 11/05 Q1006;",
"01044099999","2008-06-20T12:20:00","4","70.486675","22.139744","6.4","HASVIK, NO","FM-15","ENHK ","V020","110,1,N,0108,1","00930,1,C,N","011265,1,N,1","+0110,1","+0050,1","99999,9","07,5,+00930,1,99,9",,,,"07,99,1,99,9,99,9,99999,9,99,9,99,9",,"10061,1,99999,9",,,,,"MET051METAR ENHK 201220Z 11021KT 9999 BKN031 11/05 Q1006;",
"01044099999","2008-06-20T12:50:00","4","70.486675","22.139744","6.4","HASVIK, NO","FM-15","ENHK ","V020","110,1,N,0093,1","22000,1,9,N","011265,1,N,1","+0110,1","+0060,1","99999,9","04,5,+00900,1,99,9",,,,"04,99,1,99,9,99,9,99999,9,99,9,99,9",,"10061,1,99999,9",,,,,"MET051METAR ENHK 201250Z 11018KT 9999 SCT030 11/06 Q1006;",
"01044099999","2008-06-20T13:20:00","4","70.486675","22.139744","6.4","HASVIK, NO","FM-15","ENHK ","V020","110,1,N,0103,1","22000,1,9,N","011265,1,N,1","+0110,1","+0050,1","99999,9","02,5,+00900,1,99,9",,,,"02,99,1,99,9,99,9,99999,9,99,9,99,9",,"10061,1,99999,9",,,,,"MET051METAR ENHK 201320Z 11020KT 9999 FEW030 11/05 Q1006;",
"01044099999","2008-06-20T13:50:00","4","70.486675","22.139744","6.4","HASVIK, NO","FM-15","ENHK ","V020","110,1,N,0103,1","99999,9,C,N","011265,1,N,1","+0120,1","+0050,1","99999,9","02,5,+00900,1,99,9","04,5,+01800,1,99,9",,,"04,99,1,99,9,99,9,99999,9,99,9,99,9",,"10061,1,99999,9",,,,,"MET058METAR ENHK 201350Z 11020KT 9999 FEW030 SCT060 12/05 Q1006;","P01 018003SCOCIG"
"01044099999","2008-06-22T11:50:00","4","70.486675","22.139744","6.4","HASVIK, NO","FM-15","ENHK ","V020","300,1,N,0021,1","00540,1,C,N","011265,1,N,1","+0080,1","+0060,1","99999,9","02,5,+00360,1,99,9","04,5,+00540,1,99,9","07,5,+00900,1,99,9",,"07,99,1,99,9,99,9,99999,9,99,9,99,9",,"10081,1,99999,9","61,1",,,,"MET077METAR ENHK 221150Z 30004KT 250V360 9999 -RA FEW012 SCT018 BKN030 08/06 Q1008;",
"01044099999","2008-06-22T12:20:00","4","70.486675","22.139744","6.4","HASVIK, NO","FM-15","ENHK ","V020","300,1,N,0026,1","00540,1,C,N","011265,1,N,1","+0080,1","+0060,1","99999,9","02,5,+00360,1,99,9","04,5,+00540,1,99,9","07,5,+00840,1,99,9",,"07,99,1,99,9,99,9,99999,9,99,9,99,9",,"10081,1,99999,9",,,,,"MET065METAR ENHK 221220Z 30005KT 9999 FEW012 SCT018 BKN028 08/06 Q1008;",
"01044099999","2008-06-22T12:50:00","4","70.486675","22.139744","6.4","HASVIK, NO","FM-15","ENHK ","V020","290,1,N,0031,1","00570,1,C,N","011265,1,N,1","+0080,1","+0060,1","99999,9","02,5,+00360,1,99,9","07,5,+00570,1,99,9",,,"07,99,1,99,9,99,9,99999,9,99,9,99,9",,"10081,1,99999,9",,,,,"MET058METAR ENHK 221250Z 29006KT 9999 FEW012 BKN019 08/06 Q1008;",
"01044099999","2008-06-22T13:20:00","4","70.486675","22.139744","6.4","HASVIK, NO","FM-15","ENHK ","V020","310,1,N,0041,5","00570,1,C,N","011265,1,N,1","+0080,1","+0060,1","99999,9","02,5,+00360,1,99,9","07,5,+00570,1,99,9",,,"07,99,1,99,9,99,9,99999,9,99,9,99,9",,"10081,1,99999,9",,,,,"MET056METAR ENHK 221320Z 31008 9999 FEW012 BKN019 08/06 Q1008;",
"01044099999","2008-06-22T13:50:00","4","70.486675","22.139744","6.4","HASVIK, NO","FM-15","ENHK ","V020","320,1,N,0041,1","00540,1,C,N","011265,1,N,1","+0080,1","+0060,1","99999,9","02,5,+00360,1,99,9","07,5,+00540,1,99,9",,,"07,99,1,99,9,99,9,99999,9,99,9,99,9",,"10081,1,99999,9",,,,,"MET058METAR ENHK 221350Z 32008KT 9999 FEW012 BKN018 08/06 Q1008;",
"01044099999","2008-06-22T14:20:00","4","70.486675","22.139744","6.4","HASVIK, NO","FM-15","ENHK ","V020","320,1,N,0041,1","00540,1,C,N","011265,1,N,1","+0080,1","+0060,1","99999,9","02,5,+00420,1,99,9","07,5,+00540,1,99,9",,,"07,99,1,99,9,99,9,99999,9,99,9,99,9",,"10081,1,99999,9",,,,,"MET058METAR ENHK 221420Z 32008KT 9999 FEW014 BKN018 08/06 Q1008;",
"01044099999","2008-06-23T04:20:00","4","70.486675","22.139744","6.4","HASVIK, NO","FM-15","ENHK ","V020","999,9,V,0010,1","00360,1,C,N","011265,1,N,1","+0070,1","+0060,1","99999,9","02,5,+00180,1,99,9","04,5,+00360,1,99,9","07,5,+01320,1,99,9",,"07,99,1,99,9,99,9,99999,9,99,9,99,9",,"10051,1,99999,9",,,,,"MET065METAR ENHK 230420Z VRB02KT 9999 FEW006 SCT012 BKN044 07/06 Q1005;",
"01044099999","2008-06-23T04:50:00","4","70.486675","22.139744","6.4","HASVIK, NO","FM-15","ENHK ","V020","999,9,V,0005,1","00390,1,C,N","011265,1,N,1","+0070,1","+0060,1","99999,9","02,5,+00210,1,99,9","04,5,+00390,1,99,9","07,5,+01380,1,99,9",,"07,99,1,99,9,99,9,99999,9,99,9,99,9",,"10041,1,99999,9",,,,,"MET065METAR ENHK 230450Z VRB01KT 9999 FEW007 SCT013 BKN046 07/06 Q1004;",
"01044099999","2008-06-23T05:50:00","4","70.486675","22.139744","6.4","HASVIK, NO","FM-15","ENHK ","V020","120,1,N,0036,1","00330,1,C,N","011265,1,N,1","+0070,1","+0060,1","99999,9","02,5,+00210,1,99,9","04,5,+00330,1,99,9","07,5,+00870,1,99,9",,"07,99,1,99,9,99,9,99999,9,99,9,99,9",,"10041,1,99999,9",,,,,"MET065METAR ENHK 230550Z 12007KT 9999 FEW007 SCT011 BKN029 07/06 Q1004;",
"01044099999","2008-06-23T08:50:00","4","70.486675","22.139744","6.4","HASVIK, NO","FM-15","ENHK ","V020","120,1,N,0036,1","00780,1,C,N","011265,1,N,1","+0080,1","+0060,1","99999,9","02,5,+00270,1,99,9","04,5,+00780,1,99,9","07,5,+01650,5,99,9",,"07,99,1,99,9,99,9,99999,9,99,9,99,9",,"10031,1,99999,9",,,,,"MET065METAR ENHK 230850Z 12007KT 9999 FEW009 SCT026 BKN055 08/06 Q1003;",
"01044099999","2008-06-23T09:20:00","4","70.486675","22.139744","6.4","HASVIK, NO","FM-15","ENHK ","V020","120,1,N,0041,1","00750,1,C,N","011265,1,N,1","+0080,1","+0070,1","99999,9","02,5,+00330,1,99,9","04,5,+00750,1,99,9","07,5,+01710,5,99,9",,"07,99,1,99,9,99,9,99999,9,99,9,99,9",,"10031,1,99999,9",,,,,"MET065METAR ENHK 230920Z 12008KT 9999 FEW011 SCT025 BKN057 08/07 Q1003;",
"01044099999","2008-06-23T10:20:00","4","70.486675","22.139744","6.4","HASVIK, NO","FM-15","ENHK ","V020","120,1,N,0051,1","22000,1,9,N","011265,1,N,1","+0090,1","+0070,1","99999,9","04,5,+00750,1,99,9",,,,"04,99,1,99,9,99,9,99999,9,99,9,99,9",,"10031,1,99999,9",,,,,"MET051METAR ENHK 231020Z 12010KT 9999 SCT025 09/07 Q1003;",
"01044099999","2008-06-23T10:50:00","4","70.486675","22.139744","6.4","HASVIK, NO","FM-15","ENHK ","V020","120,1,N,0051,1","22000,1,9,N","011265,1,N,1","+0090,1","+0070,1","99999,9","04,5,+00750,1,99,9",,,,"04,99,1,99,9,99,9,99999,9,99,9,99,9",,"10020,1,99999,9",,,,,"MET051METAR ENHK 231050Z 12010KT 9999 SCT025 09/07 Q1002;",
"01044099999","2008-06-23T11:20:00","4","70.486675","22.139744","6.4","HASVIK, NO","FM-15","ENHK ","V020","120,1,N,0051,1","22000,1,9,N","011265,1,N,1","+0100,1","+0070,1","99999,9","04,5,+00750,1,99,9",,,,"04,99,1,99,9,99,9,99999,9,99,9,99,9",,"10020,1,99999,9",,,,,"MET051METAR ENHK 231120Z 12010KT 9999 SCT025 10/07 Q1002;",
"01044099999","2008-06-23T11:50:00","4","70.486675","22.139744","6.4","HASVIK, NO","FM-15","ENHK ","V020","120,1,N,0051,1","22000,1,9,N","011265,1,N,1","+0100,1","+0070,1","99999,9","02,5,+00750,1,99,9",,,,"02,99,1,99,9,99,9,99999,9,99,9,99,9",,"10020,1,99999,9",,,,,"MET051METAR ENHK 231150Z 12010KT 9999 FEW025 10/07 Q1002;",
"01044099999","2008-06-23T12:20:00","4","70.486675","22.139744","6.4","HASVIK, NO","FM-15","ENHK ","V020","120,1,N,0062,1","22000,1,9,N","011265,1,N,1","+0100,1","+0070,1","99999,9","02,5,+00750,1,99,9",,,,"02,99,1,99,9,99,9,99999,9,99,9,99,9",,"10020,1,99999,9",,,,,"MET051METAR ENHK 231220Z 12012KT 9999 FEW025 10/07 Q1002;",
"01044099999","2008-06-23T12:50:00","4","70.486675","22.139744","6.4","HASVIK, NO","FM-15","ENHK ","V020","110,1,N,0062,1","22000,1,9,N","011265,1,N,1","+0110,1","+0070,1","99999,9","02,5,+00750,1,99,9",,,,"02,99,1,99,9,99,9,99999,9,99,9,99,9",,"10020,1,99999,9",,,,,"MET051METAR ENHK 231250Z 11012KT 9999 FEW025 11/07 Q1002;",
"01044099999","2008-06-23T13:20:00","4","70.486675","22.139744","6.4","HASVIK, NO","FM-15","ENHK ","V020","120,1,N,0057,1","99999,9,C,Y","009900,1,N,1","+0110,1","+0070,1","99999,9",,,,,,,"10020,1,99999,9",,,,,"MET045METAR ENHK 231320Z 12011KT CAVOK 11/07 Q1002;",
"01044099999","2008-06-23T14:20:00","4","70.486675","22.139744","6.4","HASVIK, NO","FM-15","ENHK ","V020","130,1,N,0041,1","99999,9,C,Y","009900,1,N,1","+0100,1","+0080,1","99999,9",,,,,,,"10010,1,99999,9",,,,,"MET045METAR ENHK 231420Z 13008KT CAVOK 10/08 Q1001;",
"01044099999","2008-06-23T14:50:00","4","70.486675","22.139744","6.4","HASVIK, NO","FM-15","ENHK ","V020","130,1,N,0046,1","99999,9,C,Y","009900,1,N,1","+0100,1","+0070,1","99999,9",,,,,,,"10010,1,99999,9",,,,,"MET045METAR ENHK 231450Z 13009KT CAVOK 10/07 Q1001;",
"01044099999","2008-06-23T20:50:00","4","70.486675","22.139744","6.4","HASVIK, NO","FM-15","ENHK ","V020","120,1,N,0062,1","99999,9,C,Y","009900,1,N,1","+0100,1","+0070,1","99999,9",,,,,,,"10000,1,99999,9",,,,,"MET045METAR ENHK 232050Z 12012KT CAVOK 10/07 Q1000;",
"01044099999","2008-06-23T21:20:00","4","70.486675","22.139744","6.4","HASVIK, NO","FM-15","ENHK ","V020","140,1,N,0051,1","99999,9,C,Y","009900,1,N,1","+0100,1","+0070,1","99999,9",,,,,,,"09990,1,99999,9",,,,,"MET045METAR ENHK 232120Z 14010KT CAVOK 10/07 Q0999;",
"01044099999","2008-06-23T21:50:00","4","70.486675","22.139744","6.4","HASVIK, NO","FM-15","ENHK ","V020","140,1,N,0046,1","99999,9,C,Y","009900,1,N,1","+0100,1","+0080,1","99999,9",,,,,,,"09990,1,99999,9",,,,,"MET045METAR ENHK 232150Z 14009KT CAVOK 10/08 Q0999;",
"01044099999","2008-06-24T03:20:00","4","70.486675","22.139744","6.4","HASVIK, NO","FM-15","ENHK ","V020","100,1,N,0067,1","99999,9,C,Y","009900,1,N,1","+0130,1","+0080,1","99999,9",,,,,,,"09990,1,99999,9",,,,,"MET045METAR ENHK 240320Z 10013KT CAVOK 13/08 Q0999;",
"01044099999","2008-06-24T03:50:00","4","70.486675","22.139744","6.4","HASVIK, NO","FM-15","ENHK ","V020","110,1,N,0072,1","99999,9,C,Y","009900,1,N,1","+0130,1","+0080,1","99999,9",,,,,,,"09980,1,99999,9",,,,,"MET045METAR ENHK 240350Z 11014KT CAVOK 13/08 Q0998;",
"01044099999","2008-06-24T04:20:00","4","70.486675","22.139744","6.4","HASVIK, NO","FM-15","ENHK ","V020","110,1,N,0062,1","99999,9,C,Y","009900,1,N,1","+0130,1","+0080,1","99999,9",,,,,,,"09980,1,99999,9",,,,,"MET045METAR ENHK 240420Z 11012KT CAVOK 13/08 Q0998;",
"01044099999","2008-06-24T04:50:00","4","70.486675","22.139744","6.4","HASVIK, NO","FM-15","ENHK ","V020","120,1,N,0067,1","99999,9,C,Y","009900,1,N,1","+0130,1","+0080,1","99999,9",,,,,,,"09980,1,99999,9",,,,,"MET045METAR ENHK 240450Z 12013KT CAVOK 13/08 Q0998;",
"01044099999","2008-06-24T05:20:00","4","70.486675","22.139744","6.4","HASVIK, NO","FM-15","ENHK ","V020","110,1,N,0062,1","99999,9,C,Y","009900,1,N,1","+0130,1","+0080,1","99999,9",,,,,,,"09980,1,99999,9",,,,,"MET045METAR ENHK 240520Z 11012KT CAVOK 13/08 Q0998;",
"01044099999","2008-06-24T05:50:00","4","70.486675","22.139744","6.4","HASVIK, NO","FM-15","ENHK ","V020","100,1,N,0062,1","99999,9,C,Y","009900,1,N,1","+0130,1","+0080,1","99999,9",,,,,,,"09990,1,99999,9",,,,,"MET045METAR ENHK 240550Z 10012KT CAVOK 13/08 Q0999;",
"01044099999","2008-06-24T06:50:00","4","70.486675","22.139744","6.4","HASVIK, NO","FM-15","ENHK ","V020","100,1,N,0057,1","99999,9,C,Y","009900,1,N,1","+0140,1","+0080,1","99999,9",,,,,,,"09990,1,99999,9",,,,,"MET045METAR ENHK 240650Z 10011KT CAVOK 14/08 Q0999;",
"01044099999","2008-06-24T07:20:00","4","70.486675","22.139744","6.4","HASVIK, NO","FM-15","ENHK ","V020","090,1,N,0057,1","01500,1,C,N","011265,1,N,1","+0140,1","+0080,1","99999,9","02,5,+01110,1,99,9","04,5,+01770,5,99,9","07,5,+02610,5,99,9",,"07,99,1,99,9,99,9,99999,9,99,9,99,9",,"09980,1,99999,9",,,,,"MET065METAR ENHK 240720Z 09011KT 9999 FEW037 SCT059 BKN087 14/08 Q0998;",
"01044099999","2008-06-24T07:50:00","4","70.486675","22.139744","6.4","HASVIK, NO","FM-15","ENHK ","V020","090,1,N,0057,1","02550,5,C,N","011265,1,N,1","+0140,1","+0080,1","99999,9","02,5,+01170,1,99,9","07,5,+02550,5,99,9",,,"07,99,1,99,9,99,9,99999,9,99,9,99,9",,"09990,1,99999,9",,,,,"MET058METAR ENHK 240750Z 09011KT 9999 FEW039 BKN085 14/08 Q0999;",
"01044099999","2008-06-24T08:50:00","4","70.486675","22.139744","6.4","HASVIK, NO","FM-15","ENHK ","V020","090,1,N,0041,1","02100,1,C,N","011265,1,N,1","+0140,1","+0080,1","99999,9","02,5,+01260,1,99,9","07,5,+02100,1,99,9",,,"07,99,1,99,9,99,9,99999,9,99,9,99,9",,"09990,1,99999,9",,,,,"MET058METAR ENHK 240850Z 09008KT 9999 FEW042 BKN070 14/08 Q0999;",
"01044099999","2008-06-24T09:20:00","4","70.486675","22.139744","6.4","HASVIK, NO","FM-15","ENHK ","V020","110,1,N,0041,1","02160,5,C,N","011265,1,N,1","+0150,1","+0090,1","99999,9","02,5,+01170,1,99,9","07,5,+02160,5,99,9",,,"07,99,1,99,9,99,9,99999,9,99,9,99,9",,"09990,1,99999,9","80,1",,,,"MET064METAR ENHK 240920Z 11008KT 9999 -SHRA FEW039 BKN072 15/09 Q0999;",
"01044099999","2008-06-24T09:50:00","4","70.486675","22.139744","6.4","HASVIK, NO","FM-15","ENHK ","V020","150,1,N,0036,1","02190,5,C,N","011265,1,N,1","+0120,1","+0090,1","99999,9","02,5,+01110,1,99,9","07,5,+02190,5,99,9",,,"07,99,1,99,9,99,9,99999,9,99,9,99,9",,"09990,1,99999,9",,,,,"MET058METAR ENHK 240950Z 15007KT 9999 FEW037 BKN073 12/09 Q0999;",
"01044099999","2008-06-24T10:20:00","4","70.486675","22.139744","6.4","HASVIK, NO","FM-15","ENHK ","V020","150,1,N,0036,1","02250,5,C,N","011265,1,N,1","+0130,1","+0090,1","99999,9","02,5,+01110,1,99,9","07,5,+02250,5,99,9",,,"07,99,1,99,9,99,9,99999,9,99,9,99,9",,"09990,1,99999,9",,,,,"MET058METAR ENHK 241020Z 15007KT 9999 FEW037 BKN075 13/09 Q0999;",
"01044099999","2008-06-24T10:50:00","4","70.486675","22.139744","6.4","HASVIK, NO","FM-15","ENHK ","V020","150,1,N,0031,1","02250,5,C,N","011265,1,N,1","+0130,1","+0090,1","99999,9","02,5,+01110,1,99,9","07,5,+02250,5,99,9",,,"07,99,1,99,9,99,9,99999,9,99,9,99,9",,"09990,1,99999,9","61,1",,,,"MET062METAR ENHK 241050Z 15006KT 9999 -RA FEW037 BKN075 13/09 Q0999;",
"01044099999","2008-06-24T11:20:00","4","70.486675","22.139744","6.4","HASVIK, NO","FM-15","ENHK ","V020","150,1,N,0026,1","02250,5,C,N","011265,1,N,1","+0160,1","+0100,1","99999,9","02,5,+01110,1,99,9","07,5,+02250,5,99,9",,,"07,99,1,99,9,99,9,99999,9,99,9,99,9",,"09990,1,99999,9",,,,,"MET058METAR ENHK 241120Z 15005KT 9999 FEW037 BKN075 16/10 Q0999;",
"01044099999","2008-06-24T11:50:00","4","70.486675","22.139744","6.4","HASVIK, NO","FM-15","ENHK ","V020","150,1,N,0031,1","02250,5,C,N","011265,1,N,1","+0150,1","+0090,1","99999,9","02,5,+01110,1,99,9","07,5,+02250,5,99,9",,,"07,99,1,99,9,99,9,99999,9,99,9,99,9",,"09990,1,99999,9",,,,,"MET058METAR ENHK 241150Z 15006KT 9999 FEW037 BKN075 15/09 Q0999;",
"01044099999","2008-06-24T12:20:00","4","70.486675","22.139744","6.4","HASVIK, NO","FM-15","ENHK ","V020","999,9,V,0010,1","02250,5,C,N","011265,1,N,1","+0140,1","+0100,1","99999,9","04,5,+01110,1,99,9","07,5,+02250,5,99,9",,,"07,99,1,99,9,99,9,99999,9,99,9,99,9",,"09990,1,99999,9","61,1",,,,"MET062METAR ENHK 241220Z VRB02KT 9999 -RA SCT037 BKN075 14/10 Q0999;",
"01044099999","2008-06-24T12:50:00","4","70.486675","22.139744","6.4","HASVIK, NO","FM-15","ENHK ","V020","290,1,N,0026,1","02250,5,C,N","011265,1,N,1","+0150,1","+0100,1","99999,9","04,5,+01050,1,99,9","07,5,+02250,5,99,9",,,"07,99,1,99,9,99,9,99999,9,99,9,99,9",,"09990,1,99999,9","61,1",,,,"MET062METAR ENHK 241250Z 29005KT 9999 -RA SCT035 BKN075 15/10 Q0999;",
"01044099999","2008-06-24T13:20:00","4","70.486675","22.139744","6.4","HASVIK, NO","FM-15","ENHK ","V020","320,1,N,0036,1","02250,5,C,N","011265,1,N,1","+0130,1","+0100,1","99999,9","04,5,+01050,1,99,9","07,5,+02250,5,99,9",,,"07,99,1,99,9,99,9,99999,9,99,9,99,9",,"09990,1,99999,9","61,1",,,,"MET062METAR ENHK 241320Z 32007KT 9999 -RA SCT035 BKN075 13/10 Q0999;",
"01044099999","2008-06-24T13:50:00","4","70.486675","22.139744","6.4","HASVIK, NO","FM-15","ENHK ","V020","300,1,N,0026,1","01050,1,C,N","008000,1,N,1","+0120,1","+0090,1","99999,9","02,5,+00750,1,99,9","04,5,+01050,1,99,9","07,5,+02250,5,99,9",,"07,99,1,99,9,99,9,99999,9,99,9,99,9",,"10000,1,99999,9","63,1",,,,"MET076METAR ENHK 241350Z 30005KT 160V060 8000 RA FEW025 SCT035 BKN075 12/09 Q1000;",
"01044099999","2008-06-24T14:20:00","4","70.486675","22.139744","6.4","HASVIK, NO","FM-15","ENHK ","V020","999,9,V,0005,1","02250,5,C,N","011265,1,N,1","+0110,1","+0090,1","99999,9","04,5,+01050,1,99,9","07,5,+02250,5,99,9",,,"07,99,1,99,9,99,9,99999,9,99,9,99,9",,"10000,1,99999,9","63,1",,,,"MET061METAR ENHK 241420Z VRB01KT 9999 RA SCT035 BKN075 11/09 Q1000;",
"01044099999","2008-06-24T14:50:00","4","70.486675","22.139744","6.4","HASVIK, NO","FM-15","ENHK ","V020","999,9,V,0010,1","02250,5,C,N","011265,1,N,1","+0120,1","+0100,1","99999,9","04,5,+01050,1,99,9","07,5,+02250,5,99,9",,,"07,99,1,99,9,99,9,99999,9,99,9,99,9",,"10000,1,99999,9","61,1",,,,"MET062METAR ENHK 241450Z VRB02KT 9999 -RA SCT035 BKN075 12/10 Q1000;",
"01044099999","2008-06-25T03:20:00","4","70.486675","22.139744","6.4","HASVIK, NO","FM-15","ENHK ","V020","320,1,N,0046,1","00180,1,9,N","005000,1,N,1","+0080,1","+0080,1","99999,9","09,1,+00180,1,99,9",,,,"09,99,1,99,9,99,9,00025,1,99,9,99,9",,"09990,1,99999,9",,,,,"MET050METAR ENHK 250320Z 32009KT 5000 VV006 08/08 Q0999;",
"01044099999","2008-06-25T03:50:00","4","70.486675","22.139744","6.4","HASVIK, NO","FM-15","ENHK ","V020","330,1,N,0046,1","00150,1,9,N","005000,1,N,1","+0080,1","+0080,1","99999,9","09,1,+00150,1,99,9",,,,"09,99,1,99,9,99,9,00025,1,99,9,99,9",,"09990,1,99999,9","63,1",,,,"MET053METAR ENHK 250350Z 33009KT 5000 RA VV005 08/08 Q0999;",
"01044099999","2008-06-25T04:20:00","4","70.486675","22.139744","6.4","HASVIK, NO","FM-15","ENHK ","V020","320,1,N,0046,1","00150,1,9,N","003000,1,N,1","+0080,1","+0080,1","99999,9","09,1,+00150,1,99,9",,,,"09,99,1,99,9,99,9,00025,1,99,9,99,9",,"09990,1,99999,9","63,1",,,,"MET053METAR ENHK 250420Z 32009KT 3000 RA VV005 08/08 Q0999;",
"01044099999","2008-06-25T05:20:00","4","70.486675","22.139744","6.4","HASVIK, NO","FM-15","ENHK ","V020","300,1,N,0036,1","00150,1,9,N","005000,1,N,1","+0090,1","+0080,1","99999,9","09,1,+00150,1,99,9",,,,"09,99,1,99,9,99,9,00025,1,99,9,99,9",,"10000,1,99999,9","61,1",,,,"MET054METAR ENHK 250520Z 30007KT 5000 -RA VV005 09/08 Q1000;",
"01044099999","2008-06-25T05:50:00","4","70.486675","22.139744","6.4","HASVIK, NO","FM-15","ENHK ","V020","300,1,N,0026,1","00150,1,9,N","005000,1,N,1","+0090,1","+0080,1","99999,9","09,1,+00150,1,99,9",,,,"09,99,1,99,9,99,9,00025,1,99,9,99,9",,"10000,1,99999,9",,,,,"MET050METAR ENHK 250550Z 30005KT 5000 VV005 09/08 Q1000;",
"01044099999","2008-06-25T06:20:00","4","70.486675","22.139744","6.4","HASVIK, NO","FM-15","ENHK ","V020","330,1,N,0031,1","00150,1,9,N","005000,1,N,1","+0090,1","+0080,1","99999,9","09,1,+00150,1,99,9",,,,"09,99,1,99,9,99,9,00025,1,99,9,99,9",,"10000,1,99999,9",,,,,"MET050METAR ENHK 250620Z 33006KT 5000 VV005 09/08 Q1000;",
"01044099999","2008-06-25T11:50:00","4","70.486675","22.139744","6.4","HASVIK, NO","FM-15","ENHK ","V020","330,1,N,0046,1","00600,1,C,N","011265,1,N,1","+0100,1","+0080,1","99999,9","02,5,+00450,1,99,9","07,5,+00600,1,99,9",,,"07,99,1,99,9,99,9,99999,9,99,9,99,9",,"10010,1,99999,9",,,,,"MET058METAR ENHK 251150Z 33009KT 9999 FEW015 BKN020 10/08 Q1001;",
"01044099999","2008-06-25T12:20:00","4","70.486675","22.139744","6.4","HASVIK, NO","FM-15","ENHK ","V020","350,1,N,0041,1","00450,1,C,N","011265,1,N,1","+0100,1","+0080,1","99999,9","02,5,+00300,1,99,9","04,5,+00450,1,99,9","07,5,+00600,1,99,9",,"07,99,1,99,9,99,9,99999,9,99,9,99,9",,"10000,1,99999,9",,,,,"MET065METAR ENHK 251220Z 35008KT 9999 FEW010 SCT015 BKN020 10/08 Q1000;",
"01044099999","2008-06-25T12:50:00","4","70.486675","22.139744","6.4","HASVIK, NO","FM-15","ENHK ","V020","330,1,N,0036,1","00600,1,C,N","011265,1,N,1","+0100,1","+0080,1","99999,9","04,5,+00450,1,99,9","07,5,+00600,1,99,9",,,"07,99,1,99,9,99,9,99999,9,99,9,99,9",,"10010,1,99999,9",,,,,"MET057METAR ENHK 251250Z 33007KT 9999SCT015 BKN020 10/08 Q1001;",
"01044099999","2008-06-25T13:20:00","4","70.486675","22.139744","6.4","HASVIK, NO","FM-15","ENHK ","V020","330,1,N,0046,1","00600,1,C,N","011265,1,N,1","+0100,1","+0080,1","99999,9","04,5,+00450,1,99,9","07,5,+00600,1,99,9",,,"07,99,1,99,9,99,9,99999,9,99,9,99,9",,"10010,1,99999,9",,,,,"MET058METAR ENHK 251320Z 33009KT 9999 SCT015 BKN020 10/08 Q1001;",
"01044099999","2008-06-25T13:50:00","4","70.486675","22.139744","6.4","HASVIK, NO","FM-15","ENHK ","V020","330,1,N,0046,1","00600,1,C,N","011265,1,N,1","+0100,1","+0080,1","99999,9","04,5,+00450,1,99,9","07,5,+00600,1,99,9",,,"07,99,1,99,9,99,9,99999,9,99,9,99,9",,"10020,1,99999,9",,,,,"MET058METAR ENHK 251350Z 33009KT 9999 SCT015 BKN020 10/08 Q1002;",
"01044099999","2008-06-25T14:20:00","4","70.486675","22.139744","6.4","HASVIK, NO","FM-15","ENHK ","V020","340,1,N,0041,1","00600,1,C,N","011265,1,N,1","+0100,1","+0080,1","99999,9","04,5,+00450,1,99,9","07,5,+00600,1,99,9",,,"07,99,1,99,9,99,9,99999,9,99,9,99,9",,"10020,1,99999,9",,,,,"MET058METAR ENHK 251420Z 34008KT 9999 SCT015 BKN020 10/08 Q1002;",
"01044099999","2008-06-26T03:20:00","4","70.486675","22.139744","6.4","HASVIK, NO","FM-15","ENHK ","V020","290,1,N,0031,1","00300,1,C,N","011265,1,N,1","+0080,1","+0080,1","99999,9","04,5,+00150,1,99,9","07,5,+00300,1,99,9",,,"07,99,1,99,9,99,9,99999,9,99,9,99,9",,"10020,1,99999,9","61,1",,,,"MET062METAR ENHK 260320Z 29006KT 9999 -RA SCT005 BKN010 08/08 Q1002;",
"01044099999","2008-06-26T03:50:00","4","70.486675","22.139744","6.4","HASVIK, NO","FM-15","ENHK ","V020","290,1,N,0031,1","00300,1,C,N","011265,1,N,1","+0080,1","+0080,1","99999,9","04,5,+00150,1,99,9","07,5,+00300,1,99,9",,,"07,99,1,99,9,99,9,99999,9,99,9,99,9",,"10020,1,99999,9","51,1",,,,"MET062METAR ENHK 260350Z 29006KT 9999 -DZ SCT005 BKN010 08/08 Q1002;",
"01044099999","2008-06-26T04:20:00","4","70.486675","22.139744","6.4","HASVIK, NO","FM-15","ENHK ","V020","290,1,N,0031,1","00180,1,9,N","011265,1,N,1","+0080,1","+0080,1","99999,9","09,1,+00180,1,99,9",,,,"09,99,1,99,9,99,9,00025,1,99,9,99,9",,"10020,1,99999,9","51,1",,,,"MET054METAR ENHK 260420Z 29006KT 9999 -DZ VV006 08/08 Q1002;",
"01044099999","2008-06-26T04:50:00","4","70.486675","22.139744","6.4","HASVIK, NO","FM-15","ENHK ","V020","290,1,N,0031,1","00300,1,C,N","011265,1,N,1","+0080,1","+0080,1","99999,9","04,5,+00150,1,99,9","07,5,+00300,1,99,9",,,"07,99,1,99,9,99,9,99999,9,99,9,99,9",,"10020,1,99999,9",,,,,"MET058METAR ENHK 260450Z 29006KT 9999 SCT005 BKN010 08/08 Q1002;",
"01044099999","2008-06-26T05:20:00","4","70.486675","22.139744","6.4","HASVIK, NO","FM-15","ENHK ","V020","300,1,N,0031,1","00300,1,C,N","011265,1,N,1","+0080,1","+0080,1","99999,9","04,5,+00150,1,99,9","07,5,+00300,1,99,9",,,"07,99,1,99,9,99,9,99999,9,99,9,99,9",,"10020,1,99999,9",,,,,"MET058METAR ENHK 260520Z 30006KT 9999 SCT005 BKN010 08/08 Q1002;",
"01044099999","2008-06-26T05:50:00","4","70.486675","22.139744","6.4","HASVIK, NO","FM-15","ENHK ","V020","300,1,N,0031,1","00300,1,C,N","011265,1,N,1","+0090,1","+0080,1","99999,9","04,5,+00150,1,99,9","07,5,+00300,1,99,9",,,"07,99,1,99,9,99,9,99999,9,99,9,99,9",,"10020,1,99999,9","51,1",,,,"MET062METAR ENHK 260550Z 30006KT 9999 -DZ SCT005 BKN010 09/08 Q1002;",
"01044099999","2008-06-26T06:20:00","4","70.486675","22.139744","6.4","HASVIK, NO","FM-15","ENHK ","V020","310,1,N,0031,1","00300,1,C,N","011265,1,N,1","+0090,1","+0080,1","99999,9","04,5,+00150,1,99,9","07,5,+00300,1,99,9",,,"07,99,1,99,9,99,9,99999,9,99,9,99,9",,"10020,1,99999,9",,,,,"MET058METAR ENHK 260620Z 31006KT 9999 SCT005 BKN010 09/08 Q1002;",
"01044099999","2008-06-26T11:20:00","4","70.486675","22.139744","6.4","HASVIK, NO","FM-15","ENHK ","V020","320,1,N,0036,1","00300,1,C,N","011265,1,N,1","+0080,1","+0070,1","99999,9","02,5,+00150,1,99,9","04,5,+00300,1,99,9","07,5,+00450,1,99,9",,"07,99,1,99,9,99,9,99999,9,99,9,99,9",,"10041,1,99999,9","63,1",,,,"MET068METAR ENHK 261120Z 32007KT 9999 RA FEW005 SCT010 BKN015 08/07 Q1004;",
"01044099999","2008-06-26T11:50:00","4","70.486675","22.139744","6.4","HASVIK, NO","FM-15","ENHK ","V020","320,1,N,0036,1","00270,1,C,N","011265,1,N,1","+0080,1","+0070,1","99999,9","02,5,+00150,1,99,9","04,5,+00270,1,99,9","07,5,+00360,1,99,9",,"07,99,1,99,9,99,9,99999,9,99,9,99,9",,"10041,1,99999,9","63,1",,,,"MET068METAR ENHK 261150Z 32007KT 9999 RA FEW005 SCT009 BKN012 08/07 Q1004;",
"01044099999","2008-06-26T12:20:00","4","70.486675","22.139744","6.4","HASVIK, NO","FM-15","ENHK ","V020","320,1,N,0036,1","00210,1,C,N","007000,1,N,1","+0080,1","+0070,1","99999,9","02,5,+00150,1,99,9","04,5,+00210,1,99,9","07,5,+00360,1,99,9",,"07,99,1,99,9,99,9,99999,9,99,9,99,9",,"10041,1,99999,9","63,1",,,,"MET068METAR ENHK 261220Z 32007KT 7000 RA FEW005 SCT007 BKN012 08/07 Q1004;",
"01044099999","2008-06-26T12:50:00","4","70.486675","22.139744","6.4","HASVIK, NO","FM-15","ENHK ","V020","300,1,N,0057,1","00270,1,C,N","007000,1,N,1","+0080,1","+0070,1","99999,9","02,5,+00150,1,99,9","04,5,+00270,1,99,9","07,5,+00360,1,99,9",,"07,99,1,99,9,99,9,99999,9,99,9,99,9",,"10041,1,99999,9","63,1",,,,"MET068METAR ENHK 261250Z 30011KT 7000 RA FEW005 SCT009 BKN012 08/07 Q1004;",
"01044099999","2008-06-26T13:20:00","4","70.486675","22.139744","6.4","HASVIK, NO","FM-15","ENHK ","V020","310,1,N,0057,1","00270,1,C,N","007000,1,N,1","+0080,1","+0070,1","99999,9","02,5,+00150,1,99,9","04,5,+00270,1,99,9","07,5,+00360,1,99,9",,"07,99,1,99,9,99,9,99999,9,99,9,99,9",,"10041,1,99999,9","63,1",,,,"MET068METAR ENHK 261320Z 31011KT 7000 RA FEW005 SCT009 BKN012 08/07 Q1004;",
"01044099999","2008-06-26T13:50:00","4","70.486675","22.139744","6.4","HASVIK, NO","FM-15","ENHK ","V020","300,1,N,0057,1","00270,1,C,N","007000,1,N,1","+0070,1","+0070,1","99999,9","02,5,+00150,1,99,9","04,5,+00270,1,99,9","07,5,+00360,1,99,9",,"07,99,1,99,9,99,9,99999,9,99,9,99,9",,"10041,1,99999,9","63,1",,,,"MET068METAR ENHK 261350Z 30011KT 7000 RA FEW005 SCT009 BKN012 07/07 Q1004;",
"01044099999","2008-06-26T14:20:00","4","70.486675","22.139744","6.4","HASVIK, NO","FM-15","ENHK ","V020","300,1,N,0057,1","00270,1,C,N","007000,1,N,1","+0070,1","+0070,1","99999,9","02,5,+00150,1,99,9","04,5,+00270,1,99,9","07,5,+00360,1,99,9",,"07,99,1,99,9,99,9,99999,9,99,9,99,9",,"10041,1,99999,9","53,1","63,1",,,"MET070METAR ENHK 261420Z 30011KT 7000 RADZ FEW005 SCT009 BKN012 07/07 Q1004;",
"01044099999","2008-06-27T03:20:00","4","70.486675","22.139744","6.4","HASVIK, NO","FM-15","ENHK ","V020","300,1,N,0041,1","00300,1,C,N","007000,1,N,1","+0080,1","+0070,1","99999,9","04,5,+00150,1,99,9","07,5,+00300,1,99,9",,,"07,99,1,99,9,99,9,99999,9,99,9,99,9",,"10010,1,99999,9","63,1",,,,"MET061METAR ENHK 270320Z 30008KT 7000 RA SCT005 BKN010 08/07 Q1001;",
"01044099999","2008-06-27T03:50:00","4","70.486675","22.139744","6.4","HASVIK, NO","FM-15","ENHK ","V020","280,1,N,0046,1","22000,1,9,N","999999,9,N,1","+0080,1","+0070,1","99999,9",,,,,,,"10010,1,99999,9",,,,,"MET052METAR ENHK 270350Z 28009KT 500 RA VV005 08/07 Q1001;",
"01044099999","2008-06-27T04:20:00","4","70.486675","22.139744","6.4","HASVIK, NO","FM-15","ENHK ","V020","280,1,N,0051,1","00180,1,9,N","005000,1,N,1","+0080,1","+0070,1","99999,9","09,1,+00180,1,99,9",,,,"09,99,1,99,9,99,9,00025,1,99,9,99,9",,"10010,1,99999,9","63,1",,,,"MET053METAR ENHK 270420Z 28010KT 5000 RA VV006 08/07 Q1001;",
"01044099999","2008-06-27T05:20:00","4","70.486675","22.139744","6.4","HASVIK, NO","FM-15","ENHK ","V020","280,1,N,0093,1","00270,1,C,N","005000,1,N,1","+0080,1","+0070,1","99999,9","04,5,+00150,1,99,9","07,5,+00270,1,99,9",,,"07,99,1,99,9,99,9,99999,9,99,9,99,9",,"10020,1,99999,9","61,1",,,,"MET062METAR ENHK 270520Z 28018KT 5000 -RA SCT005 BKN009 08/07 Q1002;",
"01044099999","2008-06-27T05:50:00","4","70.486675","22.139744","6.4","HASVIK, NO","FM-15","ENHK ","V020","280,1,N,0093,1","00270,1,C,N","005000,1,N,1","+0080,1","+0070,1","99999,9","04,5,+00150,1,99,9","07,5,+00270,1,99,9",,,"07,99,1,99,9,99,9,99999,9,99,9,99,9",,"10020,1,99999,9","63,1",,,,"MET061METAR ENHK 270550Z 28018KT 5000 RA SCT005 BKN009 08/07 Q1002;",
"01044099999","2008-06-27T06:50:00","4","70.486675","22.139744","6.4","HASVIK, NO","FM-15","ENHK ","V020","280,1,N,0087,1","00300,1,C,N","005000,1,N,1","+0080,1","+0070,1","99999,9","04,5,+00180,1,99,9","07,5,+00300,1,99,9",,,"07,99,1,99,9,99,9,99999,9,99,9,99,9",,"10031,1,99999,9","61,1",,,,"MET062METAR ENHK 270650Z 28017KT 5000 -RA SCT006 BKN010 08/07 Q1003;",
"01044099999","2008-06-27T07:50:00","4","70.486675","22.139744","6.4","HASVIK, NO","FM-15","ENHK ","V020","270,1,N,0093,1","00360,1,C,N","005000,1,N,1","+0070,1","+0070,1","99999,9","04,5,+00180,1,99,9","07,5,+00360,1,99,9",,,"07,99,1,99,9,99,9,99999,9,99,9,99,9",,"10031,1,99999,9","61,1",,,,"MET062METAR ENHK 270750Z 27018KT 5000 -RA SCT006 BKN012 07/07 Q1003;",
"01044099999","2008-06-27T08:50:00","4","70.486675","22.139744","6.4","HASVIK, NO","FM-15","ENHK ","V020","270,1,N,0093,1","00300,1,C,N","003000,1,N,1","+0070,1","+0060,1","99999,9","04,5,+00150,1,99,9","07,5,+00300,1,99,9",,,"07,99,1,99,9,99,9,99999,9,99,9,99,9",,"10041,1,99999,9","51,1","61,1",,,"MET064METAR ENHK 270850Z 27018KT 3000 -RADZ SCT005 BKN010 07/06 Q1004;",
"01044099999","2008-06-27T10:50:00","4","70.486675","22.139744","6.4","HASVIK, NO","FM-15","ENHK ","V020","280,1,N,0093,1","00330,1,C,N","011265,1,N,1","+0070,1","+0050,1","99999,9","04,5,+00150,1,99,9","07,5,+00330,1,99,9",,,"07,99,1,99,9,99,9,99999,9,99,9,99,9",,"10061,1,99999,9","16,1",,,,"MET063METAR ENHK 271050Z 28018KT 9999 VCSH SCT005 BKN011 07/05 Q1006;",
"01044099999","2008-06-27T11:50:00","4","70.486675","22.139744","6.4","HASVIK, NO","FM-15","ENHK ","V020","270,1,N,0082,1","00720,1,C,N","011265,1,N,1","+0070,1","+0050,1","99999,9","04,5,+00360,1,99,9","07,5,+00720,1,99,9",,,"07,99,1,99,9,99,9,99999,9,99,9,99,9",,"10061,1,99999,9","16,1",,,,"MET063METAR ENHK 271150Z 27016KT 9999 VCSH SCT012 BKN024 07/05 Q1006;",
"01044099999","2008-06-27T12:20:00","4","70.486675","22.139744","6.4","HASVIK, NO","FM-15","ENHK ","V020","280,1,N,0077,1","00720,1,C,N","011265,1,N,1","+0070,1","+0050,1","99999,9","04,5,+00360,1,99,9","07,5,+00720,1,99,9",,,"07,99,1,99,9,99,9,99999,9,99,9,99,9",,"10071,1,99999,9","80,1",,,,"MET064METAR ENHK 271220Z 28015KT 9999 -SHRA SCT012 BKN024 07/05 Q1007;",
"01044099999","2008-06-27T12:50:00","4","70.486675","22.139744","6.4","HASVIK, NO","FM-15","ENHK ","V020","270,1,N,0082,1","00660,1,C,N","011265,1,N,1","+0070,1","+0050,1","99999,9","04,5,+00360,1,99,9","07,5,+00660,1,99,9",,,"07,99,1,99,9,99,9,99999,9,99,9,99,9",,"10071,1,99999,9","16,1",,,,"MET063METAR ENHK 271250Z 27016KT 9999 VCSH SCT012 BKN022 07/05 Q1007;",
"01044099999","2008-06-27T13:20:00","4","70.486675","22.139744","6.4","HASVIK, NO","FM-15","ENHK ","V020","280,1,N,0072,1","00660,1,C,N","011265,1,N,1","+0070,1","+0050,1","99999,9","04,5,+00390,1,99,9","07,5,+00660,1,99,9",,,"07,99,1,99,9,99,9,99999,9,99,9,99,9",,"10071,1,99999,9","16,1",,,,"MET063METAR ENHK 271320Z 28014KT 9999 VCSH SCT013 BKN022 07/05 Q1007;",
"01044099999","2008-06-27T14:20:00","4","70.486675","22.139744","6.4","HASVIK, NO","FM-15","ENHK ","V020","270,1,N,0087,1","00720,1,C,N","011265,1,N,1","+0070,1","+0040,1","99999,9","04,5,+00450,1,99,9","07,5,+00720,1,99,9",,,"07,99,1,99,9,99,9,99999,9,99,9,99,9",,"10081,1,99999,9","16,1",,,,"MET063METAR ENHK 271420Z 27017KT 9999 VCSH SCT015 BKN024 07/04 Q1008;",
"01044099999","2008-06-29T11:50:00","4","70.486675","22.139744","6.4","HASVIK, NO","FM-15","ENHK ","V020","330,1,N,0062,1","22000,1,9,N","011265,1,N,1","+0110,1","+0060,1","99999,9","02,5,+01230,1,99,9",,,,"02,99,1,99,9,99,9,99999,9,99,9,99,9",,"10119,1,99999,9",,,,,"MET051METAR ENHK 291150Z 33012KT 9999 FEW041 11/06 Q1012;",
"01044099999","2008-06-29T12:20:00","4","70.486675","22.139744","6.4","HASVIK, NO","FM-15","ENHK ","V020","350,1,N,0062,1","22000,1,9,N","011265,1,N,1","+0110,1","+0060,1","99999,9","02,5,+01230,1,99,9",,,,"02,99,1,99,9,99,9,99999,9,99,9,99,9",,"10119,1,99999,9",,,,,"MET051METAR ENHK 291220Z 35012KT 9999 FEW041 11/06 Q1012;",
"01044099999","2008-06-29T12:50:00","4","70.486675","22.139744","6.4","HASVIK, NO","FM-15","ENHK ","V020","350,1,N,0062,1","22000,1,9,N","011265,1,N,1","+0110,1","+0060,1","99999,9","02,5,+01200,1,99,9",,,,"02,99,1,99,9,99,9,99999,9,99,9,99,9",,"10119,1,99999,9",,,,,"MET051METAR ENHK 291250Z 35012KT 9999 FEW040 11/06 Q1012;",
"01044099999","2008-06-29T13:20:00","4","70.486675","22.139744","6.4","HASVIK, NO","FM-15","ENHK ","V020","350,1,N,0062,1","99999,9,C,Y","009900,1,N,1","+0110,1","+0060,1","99999,9",,,,,,,"10119,1,99999,9",,,,,"MET045METAR ENHK 291320Z 35012KT CAVOK 11/06 Q1012;",
"01044099999","2008-06-30T03:50:00","4","70.486675","22.139744","6.4","HASVIK, NO","FM-15","ENHK ","V020","150,1,N,0026,1","02850,5,C,N","011265,1,N,1","+0090,1","+0070,1","99999,9","02,5,+01050,1,99,9","07,5,+02850,5,99,9",,,"07,99,1,99,9,99,9,99999,9,99,9,99,9",,"10119,1,99999,9",,,,,"MET058METAR ENHK 300350Z 15005KT 9999 FEW035 BKN095 09/07 Q1012;",
"01044099999","2008-06-30T04:20:00","4","70.486675","22.139744","6.4","HASVIK, NO","FM-15","ENHK ","V020","150,1,N,0021,1","99999,9,C,N","011265,1,N,1","+0090,1","+0070,1","99999,9","02,5,+01050,1,99,9","04,5,+02850,5,99,9",,,"04,99,1,99,9,99,9,99999,9,99,9,99,9",,"10108,1,99999,9",,,,,"MET058METAR ENHK 300420Z 15004KT 9999 FEW035 SCT095 09/07 Q1011;","P01 028503SCOCIG"
"01044099999","2008-06-30T04:50:00","4","70.486675","22.139744","6.4","HASVIK, NO","FM-15","ENHK ","V020","150,1,N,0026,1","99999,9,C,N","011265,1,N,1","+0100,1","+0070,1","99999,9","02,5,+01050,1,99,9","04,5,+02850,5,99,9",,,"04,99,1,99,9,99,9,99999,9,99,9,99,9",,"10108,1,99999,9",,,,,"MET058METAR ENHK 300450Z 15005KT 9999 FEW035 SCT095 10/07 Q1011;","P01 028503SCOCIG"
"01044099999","2008-06-30T05:20:00","4","70.486675","22.139744","6.4","HASVIK, NO","FM-15","ENHK ","V020","310,1,N,0021,1","99999,9,C,Y","009900,1,N,1","+0110,1","+0070,1","99999,9",,,,,,,"10108,1,99999,9",,,,,"MET045METAR ENHK 300520Z 31004KT CAVOK 11/07 Q1011;",
"01044099999","2008-06-30T05:50:00","4","70.486675","22.139744","6.4","HASVIK, NO","FM-15","ENHK ","V020","310,1,N,0021,1","99999,9,C,Y","009900,1,N,1","+0110,1","+0060,1","99999,9",,,,,,,"10108,1,99999,9",,,,,"MET045METAR ENHK 300550Z 31004KT CAVOK 11/06 Q1011;",
"01044099999","2008-06-30T07:50:00","4","70.486675","22.139744","6.4","HASVIK, NO","FM-15","ENHK ","V020","140,1,N,0021,1","99999,9,C,Y","009900,1,N,1","+0130,1","+0080,1","99999,9",,,,,,,"10119,1,99999,9",,,,,"MET045METAR ENHK 300750Z 14004KT CAVOK 13/08 Q1012;",
"01044099999","2008-06-30T10:20:00","4","70.486675","22.139744","6.4","HASVIK, NO","FM-15","ENHK ","V020","130,1,N,0021,1","99999,9,C,Y","009900,1,N,1","+0130,1","+0080,1","99999,9",,,,,,,"10108,1,99999,9",,,,,"MET053METAR ENHK 301020Z 13004KT 060V160 CAVOK 13/08 Q1011;",
"01044099999","2008-06-30T11:50:00","4","70.486675","22.139744","6.4","HASVIK, NO","FM-15","ENHK ","V020","300,1,N,0026,1","99999,9,C,Y","009900,1,N,1","+0130,1","+0080,1","99999,9",,,,,,,"10108,1,99999,9",,,,,"MET045METAR ENHK 301150Z 30005KT CAVOK 13/08 Q1011;",
"01044099999","2008-06-30T12:20:00","4","70.486675","22.139744","6.4","HASVIK, NO","FM-15","ENHK ","V020","300,1,N,0026,1","99999,9,C,Y","009900,1,N,1","+0140,1","+0080,1","99999,9",,,,,,,"10108,1,99999,9",,,,,"MET045METAR ENHK 301220Z 30005KT CAVOK 14/08 Q1011;",
"01044099999","2008-06-30T12:50:00","4","70.486675","22.139744","6.4","HASVIK, NO","FM-15","ENHK ","V020","310,1,N,0026,1","99999,9,C,Y","009900,1,N,1","+0140,1","+0080,1","99999,9",,,,,,,"10108,1,99999,9",,,,,"MET045METAR ENHK 301250Z 31005KT CAVOK 14/08 Q1011;",
"01044099999","2008-06-30T13:20:00","4","70.486675","22.139744","6.4","HASVIK, NO","FM-15","ENHK ","V020","310,1,N,0031,1","22000,1,9,N","011265,1,N,1","+0140,1","+0070,1","99999,9","02,5,+01170,1,02,1",,,,"02,99,1,99,9,99,9,99999,9,99,9,99,9",,"10108,1,99999,9",,,,,"MET054METAR ENHK 301320Z 31006KT 9999 FEW039TCU 14/07 Q1011;",
"01044099999","2008-06-30T13:50:00","4","70.486675","22.139744","6.4","HASVIK, NO","FM-15","ENHK ","V020","290,1,N,0026,1","22000,1,9,N","011265,1,N,1","+0140,1","+0080,1","99999,9","02,5,+01200,1,02,1",,,,"02,99,1,99,9,99,9,99999,9,99,9,99,9",,"10108,1,99999,9",,,,,"MET054METAR ENHK 301350Z 29005KT 9999 FEW040TCU 14/08 Q1011;",
"01044099999","2008-06-30T14:20:00","4","70.486675","22.139744","6.4","HASVIK, NO","FM-15","ENHK ","V020","999,9,V,0015,1","22000,1,9,N","011265,1,N,1","+0140,1","+0080,1","99999,9","02,5,+01200,1,02,1",,,,"02,99,1,99,9,99,9,99999,9,99,9,99,9",,"10108,1,99999,9",,,,,"MET054METAR ENHK 301420Z VRB03KT 9999 FEW040TCU 14/08 Q1011;",
"01044099999","2008-07-01T03:20:00","4","70.486675","22.139744","6.4","HASVIK, NO","FM-15","ENHK ","V020","120,1,N,0031,1","02550,5,C,N","011265,1,N,1","+0150,1","+0100,1","99999,9","02,5,+01050,1,99,9","07,5,+02550,5,99,9",,,"07,99,1,99,9,99,9,99999,9,99,9,99,9",,"10119,1,99999,9",,,,,"MET066METAR ENHK 010320Z 12006KT 090V170 9999 FEW035 BKN085 15/10 Q1012;",
"01044099999","2008-07-01T03:50:00","4","70.486675","22.139744","6.4","HASVIK, NO","FM-15","ENHK ","V020","140,1,N,0031,1","02550,5,C,N","011265,1,N,1","+0140,1","+0100,1","99999,9","02,5,+01050,1,99,9","07,5,+02550,5,99,9",,,"07,99,1,99,9,99,9,99999,9,99,9,99,9",,"10119,1,99999,9",,,,,"MET058METAR ENHK 010350Z 14006KT 9999 FEW035 BKN085 14/10 Q1012;",
"01044099999","2008-07-01T04:20:00","4","70.486675","22.139744","6.4","HASVIK, NO","FM-15","ENHK ","V020","130,1,N,0031,1","02250,5,C,N","011265,1,N,1","+0130,1","+0100,1","99999,9","02,5,+01050,1,99,9","07,5,+02250,5,99,9",,,"07,99,1,99,9,99,9,99999,9,99,9,99,9",,"10119,1,99999,9",,,,,"MET058METAR ENHK 010420Z 13006KT 9999 FEW035 BKN075 13/10 Q1012;",
"01044099999","2008-07-01T04:50:00","4","70.486675","22.139744","6.4","HASVIK, NO","FM-15","ENHK ","V020","110,1,N,0062,1","02550,5,C,N","011265,1,N,1","+0150,1","+0100,1","99999,9","02,5,+01050,1,99,9","07,5,+02550,5,99,9",,,"07,99,1,99,9,99,9,99999,9,99,9,99,9",,"10119,1,99999,9",,,,,"MET058METAR ENHK 010450Z 11012KT 9999 FEW035 BKN085 15/10 Q1012;",
"01044099999","2008-07-01T05:20:00","4","70.486675","22.139744","6.4","HASVIK, NO","FM-15","ENHK ","V020","100,1,N,0062,1","02550,5,C,N","011265,1,N,1","+0140,1","+0100,1","99999,9","02,5,+01050,1,99,9","07,5,+02550,5,99,9",,,"07,99,1,99,9,99,9,99999,9,99,9,99,9",,"10119,1,99999,9",,,,,"MET058METAR ENHK 010520Z 10012KT 9999 FEW035 BKN085 14/10 Q1012;",
"01044099999","2008-07-01T06:20:00","4","70.486675","22.139744","6.4","HASVIK, NO","FM-15","ENHK ","V020","130,1,N,0041,1","99999,9,C,N","011265,1,N,1","+0160,1","+0100,1","99999,9","02,5,+01050,1,99,9","04,5,+02550,5,99,9",,,"04,99,1,99,9,99,9,99999,9,99,9,99,9",,"10119,1,99999,9",,,,,"MET058METAR ENHK 010620Z 13008KT 9999 FEW035 SCT085 16/10 Q1012;","P01 025503SCOCIG"
"01044099999","2008-07-01T06:50:00","4","70.486675","22.139744","6.4","HASVIK, NO","FM-15","ENHK ","V020","100,1,N,0051,1","99999,9,C,N","011265,1,N,1","+0170,1","+0110,1","99999,9","02,5,+01050,1,99,9","04,5,+02550,5,99,9",,,"04,99,1,99,9,99,9,99999,9,99,9,99,9",,"10119,1,99999,9",,,,,"MET058METAR ENHK 010650Z 10010KT 9999 FEW035 SCT085 17/11 Q1012;","P01 025503SCOCIG"
"01044099999","2008-07-01T07:50:00","4","70.486675","22.139744","6.4","HASVIK, NO","FM-15","ENHK ","V020","110,1,N,0041,1","22000,1,9,N","011265,1,N,1","+0170,1","+0100,1","99999,9","02,5,+01050,1,99,9",,,,"02,99,1,99,9,99,9,99999,9,99,9,99,9",,"10129,1,99999,9",,,,,"MET051METAR ENHK 010750Z 11008KT 9999 FEW035 17/10 Q1013;",
"01044099999","2008-07-01T08:50:00","4","70.486675","22.139744","6.4","HASVIK, NO","FM-15","ENHK ","V020","120,1,N,0026,1","22000,1,9,N","011265,1,N,1","+0170,1","+0100,1","99999,9","02,5,+01050,1,99,9",,,,"02,99,1,99,9,99,9,99999,9,99,9,99,9",,"10129,1,99999,9",,,,,"MET051METAR ENHK 010850Z 12005KT 9999 FEW035 17/10 Q1013;",
"01044099999","2008-07-01T09:50:00","4","70.486675","22.139744","6.4","HASVIK, NO","FM-15","ENHK ","V020","130,1,N,0021,1","22000,1,9,N","011265,1,N,1","+0160,1","+0110,1","99999,9","02,5,+01050,1,99,9",,,,"02,99,1,99,9,99,9,99999,9,99,9,99,9",,"10129,1,99999,9",,,,,"MET051METAR ENHK 010950Z 13004KT 9999 FEW035 16/11 Q1013;",
"01044099999","2008-07-01T11:20:00","4","70.486675","22.139744","6.4","HASVIK, NO","FM-15","ENHK ","V020","120,1,N,0046,1","22000,1,9,N","011265,1,N,1","+0170,1","+0110,1","99999,9","02,5,+01050,1,99,9",,,,"02,99,1,99,9,99,9,99999,9,99,9,99,9",,"10129,1,99999,9",,,,,"MET051METAR ENHK 011120Z 12009KT 9999 FEW035 17/11 Q1013;",
"01044099999","2008-07-01T12:20:00","4","70.486675","22.139744","6.4","HASVIK, NO","FM-15","ENHK ","V020","130,1,N,0026,1","99999,9,C,N","011265,1,N,1","+0180,1","+0110,1","99999,9","02,5,+01050,1,02,1","04,5,+02220,5,99,9",,,"04,99,1,99,9,99,9,99999,9,99,9,99,9",,"10129,1,99999,9",,,,,"MET061METAR ENHK 011220Z 13005KT 9999 FEW035TCU SCT074 18/11 Q1013;","P01 022203SCOCIG"
"01044099999","2008-07-01T12:50:00","4","70.486675","22.139744","6.4","HASVIK, NO","FM-15","ENHK ","V020","110,1,N,0057,1","99999,9,C,N","011265,1,N,1","+0180,1","+0110,1","99999,9","02,5,+01080,1,09,1","04,5,+02370,5,99,9",,,"04,99,1,99,9,99,9,99999,9,99,9,99,9",,"10129,1,99999,9","16,1",,,,"MET065METAR ENHK 011250Z 11011KT 9999 VCSH FEW036CB SCT079 18/11 Q1013;","P01 023703SCOCIG"
"01044099999","2008-07-01T13:20:00","4","70.486675","22.139744","6.4","HASVIK, NO","FM-15","ENHK ","V020","110,1,N,0072,1","22000,1,9,N","011265,1,N,1","+0170,1","+0110,1","99999,9","02,5,+01110,1,99,9",,,,"02,99,1,99,9,99,9,99999,9,99,9,99,9",,"10129,1,99999,9",,,,,"MET051METAR ENHK 011320Z 11014KT 9999 FEW037 17/11 Q1013;",
"01044099999","2008-07-01T13:50:00","4","70.486675","22.139744","6.4","HASVIK, NO","FM-15","ENHK ","V020","110,1,N,0072,1","22000,1,9,N","011265,1,N,1","+0170,1","+0100,1","99999,9","02,5,+01110,1,99,9",,,,"02,99,1,99,9,99,9,99999,9,99,9,99,9",,"10129,1,99999,9",,,,,"MET051METAR ENHK 011350Z 11014KT 9999 FEW037 17/10 Q1013;",
"01044099999","2008-07-01T14:20:00","4","70.486675","22.139744","6.4","HASVIK, NO","FM-15","ENHK ","V020","120,1,N,0051,1","22000,1,9,N","011265,1,N,1","+0170,1","+0100,1","99999,9","02,5,+01170,1,99,9",,,,"02,99,1,99,9,99,9,99999,9,99,9,99,9",,"10129,1,99999,9",,,,,"MET051METAR ENHK 011420Z 12010KT 9999 FEW039 17/10 Q1013;",
"01044099999","2008-07-02T04:20:00","4","70.486675","22.139744","6.4","HASVIK, NO","FM-15","ENHK ","V020","330,1,N,0036,1","00540,1,C,N","011265,1,N,1","+0120,1","+0090,1","99999,9","02,5,+00300,1,99,9","07,5,+00540,1,99,9",,,"07,99,1,99,9,99,9,99999,9,99,9,99,9",,"10210,1,99999,9","16,1",,,,"MET063METAR ENHK 020420Z 33007KT 9999 VCSH FEW010 BKN018 12/09 Q1021;",
"01044099999","2008-07-02T04:50:00","4","70.486675","22.139744","6.4","HASVIK, NO","FM-15","ENHK ","V020","300,1,N,0036,1","00540,1,C,N","011265,1,N,1","+0120,1","+0090,1","99999,9","02,5,+00360,1,99,9","07,5,+00540,1,99,9",,,"07,99,1,99,9,99,9,99999,9,99,9,99,9",,"10210,1,99999,9","16,1",,,,"MET063METAR ENHK 020450Z 30007KT 9999 VCSH FEW012 BKN018 12/09 Q1021;",
"01044099999","2008-07-02T05:20:00","4","70.486675","22.139744","6.4","HASVIK, NO","FM-15","ENHK ","V020","300,1,N,0041,1","01950,5,C,N","011265,1,N,1","+0120,1","+0090,1","99999,9","04,5,+00420,1,99,9","07,5,+01950,5,99,9",,,"07,99,1,99,9,99,9,99999,9,99,9,99,9",,"10210,1,99999,9","16,1",,,,"MET063METAR ENHK 020520Z 30008KT 9999 VCSH SCT014 BKN065 12/09 Q1021;",
"01044099999","2008-07-02T12:50:00","4","70.486675","22.139744","6.4","HASVIK, NO","FM-15","ENHK ","V020","310,1,N,0057,1","00630,1,C,N","011265,1,N,1","+0110,1","+0080,1","99999,9","04,5,+00180,1,99,9","07,5,+00630,1,99,9",,,"07,99,1,99,9,99,9,99999,9,99,9,99,9",,"10240,1,99999,9",,,,,"MET058METAR ENHK 021250Z 31011KT 9999 SCT006 BKN021 11/08 Q1024;",
"01044099999","2008-07-02T13:20:00","4","70.486675","22.139744","6.4","HASVIK, NO","FM-15","ENHK ","V020","320,1,N,0057,1","00690,1,C,N","011265,1,N,1","+0110,1","+0080,1","99999,9","02,5,+00180,1,99,9","07,5,+00690,1,99,9",,,"07,99,1,99,9,99,9,99999,9,99,9,99,9",,"10240,1,99999,9",,,,,"MET058METAR ENHK 021320Z 32011KT 9999 FEW006 BKN023 11/08 Q1024;",
"01044099999","2008-07-02T13:50:00","4","70.486675","22.139744","6.4","HASVIK, NO","FM-15","ENHK ","V020","320,1,N,0057,1","00480,1,C,N","011265,1,N,1","+0110,1","+0080,1","99999,9","02,5,+00180,1,99,9","07,5,+00480,1,99,9",,,"07,99,1,99,9,99,9,99999,9,99,9,99,9",,"10240,1,99999,9",,,,,"MET058METAR ENHK 021350Z 32011KT 9999 FEW006 BKN016 11/08 Q1024;",
"01044099999","2008-07-02T14:20:00","4","70.486675","22.139744","6.4","HASVIK, NO","FM-15","ENHK ","V020","320,1,N,0051,1","00510,1,C,N","011265,1,N,1","+0110,1","+0080,1","99999,9","02,5,+00150,1,99,9","07,5,+00510,1,99,9",,,"07,99,1,99,9,99,9,99999,9,99,9,99,9",,"10240,1,99999,9","16,1",,,,"MET063METAR ENHK 021420Z 32010KT 9999 VCSH FEW005 BKN017 11/08 Q1024;",
"01044099999","2008-07-03T03:20:00","4","70.486675","22.139744","6.4","HASVIK, NO","FM-15","ENHK ","V020","320,1,N,0031,1","00090,1,C,N","002000,1,N,1","+0090,1","+0080,1","99999,9","08,5,+00090,1,99,9",,,,"08,99,1,99,9,99,9,99999,9,99,9,99,9",,"10261,1,99999,9","53,1",,,,"MET054METAR ENHK 030320Z 32006KT 2000 DZ OVC003 09/08 Q1026;",
"01044099999","2008-07-03T03:50:00","4","70.486675","22.139744","6.4","HASVIK, NO","FM-15","ENHK ","V020","330,1,N,0026,1","00120,1,C,N","004000,1,N,1","+0090,1","+0080,1","99999,9","08,5,+00120,1,99,9",,,,"08,99,1,99,9,99,9,99999,9,99,9,99,9",,"10261,1,99999,9","53,1",,,,"MET054METAR ENHK 030350Z 33005KT 4000 DZ OVC004 09/08 Q1026;",
"01044099999","2008-07-03T04:20:00","4","70.486675","22.139744","6.4","HASVIK, NO","FM-15","ENHK ","V020","320,1,N,0026,1","00120,1,C,N","006000,1,N,1","+0090,1","+0080,1","99999,9","07,5,+00120,1,99,9","08,5,+00180,1,99,9",,,"08,99,1,99,9,99,9,99999,9,99,9,99,9",,"10271,1,99999,9","51,1",,,,"MET062METAR ENHK 030420Z 32005KT 6000 -DZ BKN004 OVC006 09/08 Q1027;",
"01044099999","2008-07-03T05:20:00","4","70.486675","22.139744","6.4","HASVIK, NO","FM-15","ENHK ","V020","340,1,N,0026,1","00360,1,C,N","011265,1,N,1","+0090,1","+0080,1","99999,9","04,5,+00150,1,99,9","07,5,+00360,1,99,9",,,"07,99,1,99,9,99,9,99999,9,99,9,99,9",,"10271,1,99999,9",,,,,"MET058METAR ENHK 030520Z 34005KT 9999 SCT005 BKN012 09/08 Q1027;",
"01044099999","2008-07-03T11:50:00","4","70.486675","22.139744","6.4","HASVIK, NO","FM-15","ENHK ","V020","340,1,N,0046,1","00360,1,C,N","011265,1,N,1","+0090,1","+0070,1","99999,9","02,5,+00210,1,99,9","07,5,+00360,1,99,9",,,"07,99,1,99,9,99,9,99999,9,99,9,99,9",,"10281,1,99999,9",,,,,"MET058METAR ENHK 031150Z 34009KT 9999 FEW007 BKN012 09/07 Q1028;",
"01044099999","2008-07-03T12:20:00","4","70.486675","22.139744","6.4","HASVIK, NO","FM-15","ENHK ","V020","350,1,N,0051,1","00390,1,C,N","011265,1,N,1","+0090,1","+0070,1","99999,9","02,5,+00210,1,99,9","07,5,+00390,1,99,9",,,"07,99,1,99,9,99,9,99999,9,99,9,99,9",,"10281,1,99999,9",,,,,"MET058METAR ENHK 031220Z 35010KT 9999 FEW007 BKN013 09/07 Q1028;",
"01044099999","2008-07-03T12:50:00","4","70.486675","22.139744","6.4","HASVIK, NO","FM-15","ENHK ","V020","350,1,N,0057,1","00390,1,C,N","011265,1,N,1","+0090,1","+0070,1","99999,9","02,5,+00210,1,99,9","07,5,+00390,1,99,9",,,"07,99,1,99,9,99,9,99999,9,99,9,99,9",,"10281,1,99999,9",,,,,"MET058METAR ENHK 031250Z 35011KT 9999 FEW007 BKN013 09/07 Q1028;",
"01044099999","2008-07-03T13:20:00","4","70.486675","22.139744","6.4","HASVIK, NO","FM-15","ENHK ","V020","340,1,N,0057,1","00420,1,C,N","011265,1,N,1","+0090,1","+0060,1","99999,9","02,5,+00210,1,99,9","07,5,+00420,1,99,9",,,"07,99,1,99,9,99,9,99999,9,99,9,99,9",,"10281,1,99999,9",,,,,"MET058METAR ENHK 031320Z 34011KT 9999 FEW007 BKN014 09/06 Q1028;",
"01044099999","2008-07-03T13:50:00","4","70.486675","22.139744","6.4","HASVIK, NO","FM-15","ENHK ","V020","360,1,N,0051,1","00450,1,C,N","011265,1,N,1","+0090,1","+0060,1","99999,9","02,5,+00240,1,99,9","07,5,+00450,1,99,9",,,"07,99,1,99,9,99,9,99999,9,99,9,99,9",,"10281,1,99999,9",,,,,"MET058METAR ENHK 031350Z 36010KT 9999 FEW008 BKN015 09/06 Q1028;",
"01044099999","2008-07-03T14:20:00","4","70.486675","22.139744","6.4","HASVIK, NO","FM-15","ENHK ","V020","350,1,N,0051,1","00420,1,C,N","011265,1,N,1","+0090,1","+0060,1","99999,9","02,5,+00240,1,99,9","07,5,+00420,1,99,9",,,"07,99,1,99,9,99,9,99999,9,99,9,99,9",,"10281,1,99999,9",,,,,"MET058METAR ENHK 031420Z 35010KT 9999 FEW008 BKN014 09/06 Q1028;",
"01044099999","2008-07-04T03:20:00","4","70.486675","22.139744","6.4","HASVIK, NO","FM-15","ENHK ","V020","350,1,N,0026,1","00510,1,C,N","011265,1,N,1","+0060,1","+0040,1","99999,9","02,5,+00390,1,99,9","07,5,+00510,1,99,9",,,"07,99,1,99,9,99,9,99999,9,99,9,99,9",,"10291,1,99999,9",,,,,"MET058METAR ENHK 040320Z 35005KT 9999 FEW013 BKN017 06/04 Q1029;",
"01044099999","2008-07-04T03:50:00","4","70.486675","22.139744","6.4","HASVIK, NO","FM-15","ENHK ","V020","340,1,N,0021,1","00480,1,C,N","011265,1,N,1","+0060,1","+0040,1","99999,9","02,5,+00390,1,99,9","07,5,+00480,1,99,9",,,"07,99,1,99,9,99,9,99999,9,99,9,99,9",,"10281,1,99999,9",,,,,"MET066METAR ENHK 040350Z 34004KT 280V030 9999 FEW013 BKN016 06/04 Q1028;",
"01044099999","2008-07-04T04:20:00","4","70.486675","22.139744","6.4","HASVIK, NO","FM-15","ENHK ","V020","330,1,N,0021,1","00510,1,C,N","011265,1,N,1","+0060,1","+0040,1","99999,9","02,5,+00420,1,99,9","07,5,+00510,1,99,9",,,"07,99,1,99,9,99,9,99999,9,99,9,99,9",,"10291,1,99999,9","51,1",,,,"MET070METAR ENHK 040420Z 33004KT 250V360 9999 -DZ FEW014 BKN017 06/04 Q1029;",
"01044099999","2008-07-04T04:50:00","4","70.486675","22.139744","6.4","HASVIK, NO","FM-15","ENHK ","V020","330,1,N,0021,1","00510,1,C,N","011265,1,N,1","+0070,1","+0040,1","99999,9","02,5,+00390,1,99,9","07,5,+00510,1,99,9",,,"07,99,1,99,9,99,9,99999,9,99,9,99,9",,"10291,1,99999,9","51,1",,,,"MET062METAR ENHK 040450Z 33004KT 9999 -DZ FEW013 BKN017 07/04 Q1029;",
"01044099999","2008-07-04T05:20:00","4","70.486675","22.139744","6.4","HASVIK, NO","FM-15","ENHK ","V020","340,1,N,0026,1","00540,1,C,N","011265,1,N,1","+0060,1","+0040,1","99999,9","04,5,+00420,1,99,9","07,5,+00540,1,99,9",,,"07,99,1,99,9,99,9,99999,9,99,9,99,9",,"10291,1,99999,9","51,1",,,,"MET062METAR ENHK 040520Z 34005KT 9999 -DZ SCT014 BKN018 06/04 Q1029;",
"01044099999","2008-07-04T11:50:00","4","70.486675","22.139744","6.4","HASVIK, NO","FM-15","ENHK ","V020","290,1,N,0031,1","00600,1,C,N","011265,1,N,1","+0070,1","+0050,1","99999,9","04,5,+00420,1,99,9","07,5,+00600,1,99,9",,,"07,99,1,99,9,99,9,99999,9,99,9,99,9",,"10281,1,99999,9","51,1","61,1",,,"MET064METAR ENHK 041150Z 29006KT 9999 -RADZ SCT014 BKN020 07/05 Q1028;",
"01044099999","2008-07-04T12:20:00","4","70.486675","22.139744","6.4","HASVIK, NO","FM-15","ENHK ","V020","330,1,N,0031,1","00600,1,C,N","011265,1,N,1","+0080,1","+0060,1","99999,9","04,5,+00450,1,99,9","07,5,+00600,1,99,9",,,"07,99,1,99,9,99,9,99999,9,99,9,99,9",,"10281,1,99999,9","51,1",,,,"MET061METAR ENHK 041220Z 33006KT 9999-DZ SCT015 BKN020 08/06 Q1028;",
"01044099999","2008-07-04T13:20:00","4","70.486675","22.139744","6.4","HASVIK, NO","FM-15","ENHK ","V020","350,1,N,0046,1","00750,1,C,N","011265,1,N,1","+0080,1","+0050,1","99999,9","04,5,+00450,1,99,9","07,5,+00750,1,99,9",,,"07,99,1,99,9,99,9,99999,9,99,9,99,9",,"10281,1,99999,9","53,1",,,,"MET061METAR ENHK 041320Z 35009KT 9999 DZ SCT015 BKN025 08/05 Q1028;",
"01044099999","2008-07-04T13:50:00","4","70.486675","22.139744","6.4","HASVIK, NO","FM-15","ENHK ","V020","360,1,N,0026,1","00750,1,C,N","011265,1,N,1","+0080,1","+0050,1","99999,9","02,5,+00450,1,99,9","07,5,+00750,1,99,9",,,"07,99,1,99,9,99,9,99999,9,99,9,99,9",,"10281,1,99999,9",,,,,"MET058METAR ENHK 041350Z 36005KT 9999 FEW015 BKN025 08/05 Q1028;",
"01044099999","2008-07-04T14:50:00","4","70.486675","22.139744","6.4","HASVIK, NO","FM-15","ENHK ","V020","010,1,N,0046,1","00900,1,C,N","011265,1,N,1","+0090,1","+0040,1","99999,9","02,5,+00450,1,99,9","07,5,+00900,1,99,9",,,"07,99,1,99,9,99,9,99999,9,99,9,99,9",,"10281,1,99999,9",,,,,"MET058METAR ENHK 041450Z 01009KT 9999 FEW015 BKN030 09/04 Q1028;",
"01044099999","2008-07-06T11:50:00","4","70.486675","22.139744","6.4","HASVIK, NO","FM-15","ENHK ","V020","120,1,N,0051,1","99999,9,C,Y","009900,1,N,1","+0100,1","+0060,1","99999,9",,,,,,,"10200,1,99999,9",,,,,"MET045METAR ENHK 061150Z 12010KT CAVOK 10/06 Q1020;",
"01044099999","2008-07-06T12:20:00","4","70.486675","22.139744","6.4","HASVIK, NO","FM-15","ENHK ","V020","120,1,N,0046,1","99999,9,C,Y","009900,1,N,1","+0100,1","+0060,1","99999,9",,,,,,,"10200,1,99999,9",,,,,"MET045METAR ENHK 061220Z 12009KT CAVOK 10/06 Q1020;",
"01044099999","2008-07-06T12:50:00","4","70.486675","22.139744","6.4","HASVIK, NO","FM-15","ENHK ","V020","150,1,N,0036,1","99999,9,C,Y","009900,1,N,1","+0100,1","+0060,1","99999,9",,,,,,,"10200,1,99999,9",,,,,"MET045METAR ENHK 061250Z 15007KT CAVOK 10/06 Q1020;",
"01044099999","2008-07-06T13:20:00","4","70.486675","22.139744","6.4","HASVIK, NO","FM-15","ENHK ","V020","140,1,N,0036,1","99999,9,C,Y","009900,1,N,1","+0110,1","+0060,1","99999,9",,,,,,,"10190,1,99999,9",,,,,"MET045METAR ENHK 061320Z 14007KT CAVOK 11/06 Q1019;",
"01044099999","2008-07-06T14:20:00","4","70.486675","22.139744","6.4","HASVIK, NO","FM-15","ENHK ","V020","130,1,N,0031,1","99999,9,C,Y","009900,1,N,1","+0110,1","+0070,1","99999,9",,,,,,,"10190,1,99999,9",,,,,"MET045METAR ENHK 061420Z 13006KT CAVOK 11/07 Q1019;",
"01044099999","2008-07-07T03:20:00","4","70.486675","22.139744","6.4","HASVIK, NO","FM-15","ENHK ","V020","110,1,N,0046,1","99999,9,C,Y","009900,1,N,1","+0080,1","+0040,1","99999,9",,,,,,,"10139,1,99999,9",,,,,"MET045METAR ENHK 070320Z 11009KT CAVOK 08/04 Q1014;",
"01044099999","2008-07-07T03:50:00","4","70.486675","22.139744","6.4","HASVIK, NO","FM-15","ENHK ","V020","110,1,N,0046,1","99999,9,C,Y","009900,1,N,1","+0080,1","+0040,1","99999,9",,,,,,,"10139,1,99999,9",,,,,"MET045METAR ENHK 070350Z 11009KT CAVOK 08/04 Q1014;",
"01044099999","2008-07-07T04:20:00","4","70.486675","22.139744","6.4","HASVIK, NO","FM-15","ENHK ","V020","110,1,N,0041,1","99999,9,C,Y","009900,1,N,1","+0080,1","+0040,1","99999,9",,,,,,,"10139,1,99999,9",,,,,"MET045METAR ENHK 070420Z 11008KT CAVOK 08/04 Q1014;",
"01044099999","2008-07-07T04:50:00","4","70.486675","22.139744","6.4","HASVIK, NO","FM-15","ENHK ","V020","110,1,N,0041,1","99999,9,C,Y","009900,1,N,1","+0080,1","+0040,1","99999,9",,,,,,,"10129,1,99999,9",,,,,"MET045METAR ENHK 070450Z 11008KT CAVOK 08/04 Q1013;",
"01044099999","2008-07-07T10:50:00","4","70.486675","22.139744","6.4","HASVIK, NO","FM-15","ENHK ","V020","320,1,N,0036,1","99999,9,C,Y","009900,1,N,1","+0110,1","+0050,1","99999,9",,,,,,,"10119,1,99999,9",,,,,"MET045METAR ENHK 071050Z 32007KT CAVOK 11/05 Q1012;",
"01044099999","2008-07-07T11:50:00","4","70.486675","22.139744","6.4","HASVIK, NO","FM-15","ENHK ","V020","340,1,N,0057,1","99999,9,C,Y","009900,1,N,1","+0100,1","+0050,1","99999,9",,,,,,,"10119,1,99999,9",,,,,"MET045METAR ENHK 071150Z 34011KT CAVOK 10/05 Q1012;",
"01044099999","2008-07-07T12:20:00","4","70.486675","22.139744","6.4","HASVIK, NO","FM-15","ENHK ","V020","340,1,N,0057,1","99999,9,C,Y","009900,1,N,1","+0100,1","+0040,1","99999,9",,,,,,,"10108,1,99999,9",,,,,"MET045METAR ENHK 071220Z 34011KT CAVOK 10/04 Q1011;",
"01044099999","2008-07-07T12:50:00","4","70.486675","22.139744","6.4","HASVIK, NO","FM-15","ENHK ","V020","340,1,N,0057,1","99999,9,C,Y","009900,1,N,1","+0100,1","+0040,1","99999,9",,,,,,,"10108,1,99999,9",,,,,"MET045METAR ENHK 071250Z 34011KT CAVOK 10/04 Q1011;",
"01044099999","2008-07-07T13:20:00","4","70.486675","22.139744","6.4","HASVIK, NO","FM-15","ENHK ","V020","350,1,N,0051,1","99999,9,C,Y","009900,1,N,1","+0090,1","+0040,1","99999,9",,,,,,,"10108,1,99999,9",,,,,"MET045METAR ENHK 071320Z 35010KT CAVOK 09/04 Q1011;",
"01044099999","2008-07-07T13:50:00","4","70.486675","22.139744","6.4","HASVIK, NO","FM-15","ENHK ","V020","340,1,N,0051,1","99999,9,C,Y","009900,1,N,1","+0100,1","+0040,1","99999,9",,,,,,,"10108,1,99999,9",,,,,"MET045METAR ENHK 071350Z 34010KT CAVOK 10/04 Q1011;",
"01044099999","2008-07-07T14:20:00","4","70.486675","22.139744","6.4","HASVIK, NO","FM-15","ENHK ","V020","340,1,N,0062,1","99999,9,C,Y","009900,1,N,1","+0090,1","+0040,1","99999,9",,,,,,,"10108,1,99999,9",,,,,"MET045METAR ENHK 071420Z 34012KT CAVOK 09/04 Q1011;",
"01044099999","2008-07-08T03:20:00","4","70.486675","22.139744","6.4","HASVIK, NO","FM-15","ENHK ","V020","310,1,N,0057,1","00510,1,C,N","011265,1,N,1","+0070,1","+0040,1","99999,9","02,5,+00390,1,99,9","07,5,+00510,1,99,9",,,"07,99,1,99,9,99,9,99999,9,99,9,99,9",,"10091,1,99999,9",,,,,"MET058METAR ENHK 080320Z 31011KT 9999 FEW013 BKN017 07/04 Q1009;",
"01044099999","2008-07-08T03:50:00","4","70.486675","22.139744","6.4","HASVIK, NO","FM-15","ENHK ","V020","300,1,N,0046,1","00510,1,C,N","011265,1,N,1","+0070,1","+0050,1","99999,9","02,5,+00420,1,99,9","07,5,+00510,1,99,9",,,"07,99,1,99,9,99,9,99999,9,99,9,99,9",,"10081,1,99999,9",,,,,"MET058METAR ENHK 080350Z 30009KT 9999 FEW014 BKN017 07/05 Q1008;",
"01044099999","2008-07-08T04:20:00","4","70.486675","22.139744","6.4","HASVIK, NO","FM-15","ENHK ","V020","310,1,N,0057,1","00510,1,C,N","011265,1,N,1","+0070,1","+0050,1","99999,9","02,5,+00390,1,99,9","07,5,+00510,1,99,9",,,"07,99,1,99,9,99,9,99999,9,99,9,99,9",,"10081,1,99999,9",,,,,"MET058METAR ENHK 080420Z 31011KT 9999 FEW013 BKN017 07/05 Q1008;",
"01044099999","2008-07-08T05:20:00","4","70.486675","22.139744","6.4","HASVIK, NO","FM-15","ENHK ","V020","290,1,N,0057,1","00510,1,C,N","011265,1,N,1","+0070,1","+0050,1","99999,9","04,5,+00420,1,99,9","07,5,+00510,1,99,9",,,"07,99,1,99,9,99,9,99999,9,99,9,99,9",,"10081,1,99999,9",,,,,"MET058METAR ENHK 080520Z 29011KT 9999 SCT014 BKN017 07/05 Q1008;",
"01044099999","2008-07-08T12:20:00","4","70.486675","22.139744","6.4","HASVIK, NO","FM-15","ENHK ","V020","300,1,N,0051,1","00750,1,C,N","011265,1,N,1","+0080,1","+0050,1","99999,9","02,5,+00450,1,99,9","07,5,+00750,1,99,9",,,"07,99,1,99,9,99,9,99999,9,99,9,99,9",,"10081,1,99999,9",,,,,"MET058METAR ENHK 081220Z 30010KT 9999 FEW015 BKN025 08/05 Q1008;",
"01044099999","2008-07-08T12:50:00","4","70.486675","22.139744","6.4","HASVIK, NO","FM-15","ENHK ","V020","290,1,N,0046,1","00750,1,C,N","011265,1,N,1","+0080,1","+0050,1","99999,9","02,5,+00450,1,99,9","07,5,+00750,1,99,9",,,"07,99,1,99,9,99,9,99999,9,99,9,99,9",,"10081,1,99999,9",,,,,"MET058METAR ENHK 081250Z 29009KT 9999 FEW015 BKN025 08/05 Q1008;",
"01044099999","2008-07-08T13:20:00","4","70.486675","22.139744","6.4","HASVIK, NO","FM-15","ENHK ","V020","290,1,N,0046,1","00750,1,C,N","011265,1,N,1","+0080,1","+0050,1","99999,9","02,5,+00450,1,99,9","07,5,+00750,1,99,9",,,"07,99,1,99,9,99,9,99999,9,99,9,99,9",,"10081,1,99999,9",,,,,"MET058METAR ENHK 081320Z 29009KT 9999 FEW015 BKN025 08/05 Q1008;",
"01044099999","2008-07-08T13:50:00","4","70.486675","22.139744","6.4","HASVIK, NO","FM-15","ENHK ","V020","290,1,N,0041,1","00750,1,C,N","011265,1,N,1","+0080,1","+0050,1","99999,9","02,5,+00450,1,99,9","07,5,+00750,1,99,9",,,"07,99,1,99,9,99,9,99999,9,99,9,99,9",,"10081,1,99999,9",,,,,"MET058METAR ENHK 081350Z 29008KT 9999 FEW015 BKN025 08/05 Q1008;",
"01044099999","2008-07-09T03:20:00","4","70.486675","22.139744","6.4","HASVIK, NO","FM-15","ENHK ","V020","320,1,N,0015,1","00750,1,C,N","011265,1,N,1","+0070,1","+0050,1","99999,9","02,5,+00450,1,99,9","07,5,+00750,1,99,9",,,"07,99,1,99,9,99,9,99999,9,99,9,99,9",,"10051,1,99999,9",,,,,"MET058METAR ENHK 090320Z 32003KT 9999 FEW015 BKN025 07/05 Q1005;",
"01044099999","2008-07-09T03:50:00","4","70.486675","22.139744","6.4","HASVIK, NO","FM-15","ENHK ","V020","340,1,N,0021,1","00750,1,C,N","011265,1,N,1","+0070,1","+0050,1","99999,9","02,5,+00450,1,99,9","07,5,+00750,1,99,9",,,"07,99,1,99,9,99,9,99999,9,99,9,99,9",,"10051,1,99999,9",,,,,"MET058METAR ENHK 090350Z 34004KT 9999 FEW015 BKN025 07/05 Q1005;",
"01044099999","2008-07-09T04:20:00","4","70.486675","22.139744","6.4","HASVIK, NO","FM-15","ENHK ","V020","320,1,N,0021,1","00750,1,C,N","011265,1,N,1","+0070,1","+0050,1","99999,9","02,5,+00450,1,99,9","07,5,+00750,1,99,9",,,"07,99,1,99,9,99,9,99999,9,99,9,99,9",,"10051,1,99999,9",,,,,"MET058METAR ENHK 090420Z 32004KT 9999 FEW015 BKN025 07/05 Q1005;",
"01044099999","2008-07-09T04:50:00","4","70.486675","22.139744","6.4","HASVIK, NO","FM-15","ENHK ","V020","999,9,V,0015,1","00750,1,C,N","011265,1,N,1","+0070,1","+0050,1","99999,9","02,5,+00450,1,99,9","07,5,+00750,1,99,9",,,"07,99,1,99,9,99,9,99999,9,99,9,99,9",,"10041,1,99999,9",,,,,"MET058METAR ENHK 090450Z VRB03KT 9999 FEW015 BKN025 07/05 Q1004;",
"01044099999","2008-07-09T05:20:00","4","70.486675","22.139744","6.4","HASVIK, NO","FM-15","ENHK ","V020","999,9,V,0015,1","00750,1,C,N","011265,1,N,1","+0070,1","+0050,1","99999,9","02,5,+00450,1,99,9","07,5,+00750,1,99,9",,,"07,99,1,99,9,99,9,99999,9,99,9,99,9",,"10041,1,99999,9",,,,,"MET058METAR ENHK 090520Z VRB03KT 9999 FEW015 BKN025 07/05 Q1004;",
"01044099999","2008-07-09T05:50:00","4","70.486675","22.139744","6.4","HASVIK, NO","FM-15","ENHK ","V020","999,9,V,0015,1","00750,1,C,N","011265,1,N,1","+0080,1","+0050,1","99999,9","02,5,+00450,1,99,9","07,5,+00750,1,99,9",,,"07,99,1,99,9,99,9,99999,9,99,9,99,9",,"10041,1,99999,9",,,,,"MET058METAR ENHK 090550Z VRB03KT 9999 FEW015 BKN025 08/05 Q1004;",
"01044099999","2008-07-09T06:20:00","4","70.486675","22.139744","6.4","HASVIK, NO","FM-15","ENHK ","V020","310,1,N,0026,1","00750,1,C,N","011265,1,N,1","+0080,1","+0050,1","99999,9","02,5,+00450,1,99,9","07,5,+00750,1,99,9",,,"07,99,1,99,9,99,9,99999,9,99,9,99,9",,"10041,1,99999,9","51,1",,,,"MET062METAR ENHK 090620Z 31005KT 9999 -DZ FEW015 BKN025 08/05 Q1004;",
"01044099999","2008-07-09T06:50:00","4","70.486675","22.139744","6.4","HASVIK, NO","FM-15","ENHK ","V020","999,9,V,0015,1","00750,1,C,N","011265,1,N,1","+0070,1","+0050,1","99999,9","02,5,+00450,1,99,9","07,5,+00750,1,99,9",,,"07,99,1,99,9,99,9,99999,9,99,9,99,9",,"10041,1,99999,9","51,1",,,,"MET062METAR ENHK 090650Z VRB03KT 9999 -DZ FEW015 BKN025 07/05 Q1004;",
"01044099999","2008-07-09T12:20:00","4","70.486675","22.139744","6.4","HASVIK, NO","FM-15","ENHK ","V020","300,1,N,0041,1","00750,1,C,N","011265,1,N,1","+0090,1","+0060,1","99999,9","02,5,+00450,1,99,9","07,5,+00750,1,99,9",,,"07,99,1,99,9,99,9,99999,9,99,9,99,9",,"10041,1,99999,9",,,,,"MET058METAR ENHK 091220Z 30008KT 9999 FEW015 BKN025 09/06 Q1004;",
"01044099999","2008-07-09T12:50:00","4","70.486675","22.139744","6.4","HASVIK, NO","FM-15","ENHK ","V020","300,1,N,0036,1","00750,1,C,N","011265,1,N,1","+0090,1","+0060,1","99999,9","02,5,+00450,1,99,9","07,5,+00750,1,99,9",,,"07,99,1,99,9,99,9,99999,9,99,9,99,9",,"10041,1,99999,9",,,,,"MET058METAR ENHK 091250Z 30007KT 9999 FEW015 BKN025 09/06 Q1004;",
"01044099999","2008-07-09T13:20:00","4","70.486675","22.139744","6.4","HASVIK, NO","FM-15","ENHK ","V020","310,1,N,0041,1","00750,1,C,N","011265,1,N,1","+0100,1","+0060,1","99999,9","02,5,+00450,1,99,9","04,5,+00750,1,99,9","07,5,+01050,1,99,9",,"07,99,1,99,9,99,9,99999,9,99,9,99,9",,"10041,1,99999,9",,,,,"MET065METAR ENHK 091320Z 31008KT 9999 FEW015 SCT025 BKN035 10/06 Q1004;",
"01044099999","2008-07-10T03:20:00","4","70.486675","22.139744","6.4","HASVIK, NO","FM-15","ENHK ","V020","999,9,V,0010,1","00600,1,C,N","011265,1,N,1","+0060,1","+0050,1","99999,9","07,5,+00600,1,99,9",,,,"07,99,1,99,9,99,9,99999,9,99,9,99,9",,"10051,1,99999,9",,,,,"MET051METAR ENHK 100320Z VRB02KT 9999 BKN020 06/05 Q1005;",
"01044099999","2008-07-10T03:50:00","4","70.486675","22.139744","6.4","HASVIK, NO","FM-15","ENHK ","V020","290,1,N,0015,1","00600,1,C,N","011265,1,N,1","+0060,1","+0040,1","99999,9","02,5,+00450,1,99,9","07,5,+00600,1,99,9",,,"07,99,1,99,9,99,9,99999,9,99,9,99,9",,"10051,1,99999,9","53,1",,,,"MET061METAR ENHK 100350Z 29003KT 9999 DZ FEW015 BKN020 06/04 Q1005;",
"01044099999","2008-07-10T04:20:00","4","70.486675","22.139744","6.4","HASVIK, NO","FM-15","ENHK ","V020","999,9,V,0010,1","00750,1,C,N","011265,1,N,1","+0060,1","+0050,1","99999,9","02,5,+00450,1,99,9","07,5,+00750,1,99,9",,,"07,99,1,99,9,99,9,99999,9,99,9,99,9",,"10051,1,99999,9",,,,,"MET058METAR ENHK 100420Z VRB02KT 9999 FEW015 BKN025 06/05 Q1005;",
"01044099999","2008-07-10T04:50:00","4","70.486675","22.139744","6.4","HASVIK, NO","FM-15","ENHK ","V020","320,1,N,0021,1","00750,1,C,N","011265,1,N,1","+0060,1","+0050,1","99999,9","02,5,+00450,1,99,9","07,5,+00750,1,99,9",,,"07,99,1,99,9,99,9,99999,9,99,9,99,9",,"10051,1,99999,9",,,,,"MET058METAR ENHK 100450Z 32004KT 9999 FEW015 BKN025 06/05 Q1005;",
"01044099999","2008-07-10T05:50:00","4","70.486675","22.139744","6.4","HASVIK, NO","FM-15","ENHK ","V020","320,1,N,0021,1","00750,1,C,N","011265,1,N,1","+0060,1","+0050,1","99999,9","02,5,+00450,1,99,9","07,5,+00750,1,99,9",,,"07,99,1,99,9,99,9,99999,9,99,9,99,9",,"10051,1,99999,9",,,,,"MET058METAR ENHK 100550Z 32004KT 9999 FEW015 BKN025 06/05 Q1005;",
"01044099999","2008-07-10T06:20:00","4","70.486675","22.139744","6.4","HASVIK, NO","FM-15","ENHK ","V020","320,1,N,0031,1","00750,1,C,N","011265,1,N,1","+0060,1","+0050,1","99999,9","02,5,+00450,1,99,9","07,5,+00750,1,99,9",,,"07,99,1,99,9,99,9,99999,9,99,9,99,9",,"10051,1,99999,9",,,,,"MET058METAR ENHK 100620Z 32006KT 9999 FEW015 BKN025 06/05 Q1005;",
"01044099999","2008-07-10T06:50:00","4","70.486675","22.139744","6.4","HASVIK, NO","FM-15","ENHK ","V020","320,1,N,0031,1","00750,1,C,N","011265,1,N,1","+0080,1","+0040,1","99999,9","02,5,+00450,1,99,9","07,5,+00750,1,99,9",,,"07,99,1,99,9,99,9,99999,9,99,9,99,9",,"10051,1,99999,9",,,,,"MET058METAR ENHK 100650Z 32006KT 9999 FEW015 BKN025 08/04 Q1005;",
"01044099999","2008-07-10T10:20:00","4","70.486675","22.139744","6.4","HASVIK, NO","FM-15","ENHK ","V020","300,1,N,0031,1","00750,1,C,N","011265,1,N,1","+0080,1","+0050,1","99999,9","02,5,+00450,1,99,9","07,5,+00750,1,99,9",,,"07,99,1,99,9,99,9,99999,9,99,9,99,9",,"10061,1,99999,9",,,,,"MET058METAR ENHK 101020Z 30006KT 9999 FEW015 BKN025 08/05 Q1006;",
"01044099999","2008-07-10T10:50:00","4","70.486675","22.139744","6.4","HASVIK, NO","FM-15","ENHK ","V020","300,1,N,0036,1","00750,1,C,N","011265,1,N,1","+0080,1","+0050,1","99999,9","02,5,+00450,1,99,9","07,5,+00750,1,99,9",,,"07,99,1,99,9,99,9,99999,9,99,9,99,9",,"10061,1,99999,9",,,,,"MET058METAR ENHK 101050Z 30007KT 9999 FEW015 BKN025 08/05 Q1006;",
"01044099999","2008-07-10T11:20:00","4","70.486675","22.139744","6.4","HASVIK, NO","FM-15","ENHK ","V020","310,1,N,0036,1","00750,1,C,N","011265,1,N,1","+0090,1","+0050,1","99999,9","02,5,+00450,1,99,9","07,5,+00750,1,99,9",,,"07,99,1,99,9,99,9,99999,9,99,9,99,9",,"10061,1,99999,9",,,,,"MET058METAR ENHK 101120Z 31007KT 9999 FEW015 BKN025 09/05 Q1006;",
"01044099999","2008-07-10T11:50:00","4","70.486675","22.139744","6.4","HASVIK, NO","FM-15","ENHK ","V020","310,1,N,0031,1","00750,1,C,N","011265,1,N,1","+0090,1","+0060,1","99999,9","02,5,+00450,1,99,9","07,5,+00750,1,99,9",,,"07,99,1,99,9,99,9,99999,9,99,9,99,9",,"10061,1,99999,9",,,,,"MET058METAR ENHK 101150Z 31006KT 9999 FEW015 BKN025 09/06 Q1006;",
"01044099999","2008-07-10T12:20:00","4","70.486675","22.139744","6.4","HASVIK, NO","FM-15","ENHK ","V020","300,1,N,0026,1","00900,1,C,N","011265,1,N,1","+0090,1","+0050,1","99999,9","02,5,+00450,1,99,9","07,5,+00900,1,99,9",,,"07,99,1,99,9,99,9,99999,9,99,9,99,9",,"10061,1,99999,9",,,,,"MET058METAR ENHK 101220Z 30005KT 9999 FEW015 BKN030 09/05 Q1006;",
"01044099999","2008-07-10T12:50:00","4","70.486675","22.139744","6.4","HASVIK, NO","FM-15","ENHK ","V020","300,1,N,0031,1","00900,1,C,N","011265,1,N,1","+0090,1","+0050,1","99999,9","02,5,+00450,1,99,9","04,5,+00900,1,99,9","07,5,+01350,1,99,9",,"07,99,1,99,9,99,9,99999,9,99,9,99,9",,"10061,1,99999,9",,,,,"MET065METAR ENHK 101250Z 30006KT 9999 FEW015 SCT030 BKN045 09/05 Q1006;",
"01044099999","2008-07-10T13:20:00","4","70.486675","22.139744","6.4","HASVIK, NO","FM-15","ENHK ","V020","300,1,N,0031,1","00900,1,C,N","011265,1,N,1","+0090,1","+0050,1","99999,9","02,5,+00450,1,99,9","04,5,+00900,1,99,9","07,5,+01350,1,99,9",,"07,99,1,99,9,99,9,99999,9,99,9,99,9",,"10061,1,99999,9",,,,,"MET065METAR ENHK 101320Z 30006KT 9999 FEW015 SCT030 BKN045 09/05 Q1006;",
"01044099999","2008-07-10T14:20:00","4","70.486675","22.139744","6.4","HASVIK, NO","FM-15","ENHK ","V020","300,1,N,0031,1","01350,1,C,N","011265,1,N,1","+0090,1","+0060,1","99999,9","02,5,+00900,1,99,9","07,5,+01350,1,99,9",,,"07,99,1,99,9,99,9,99999,9,99,9,99,9",,"10061,1,99999,9",,,,,"MET058METAR ENHK 101420Z 30006KT 9999 FEW030 BKN045 09/06 Q1006;",
"01044099999","2008-07-11T03:20:00","4","70.486675","22.139744","6.4","HASVIK, NO","FM-15","ENHK ","V020","300,1,N,0036,1","01350,1,C,N","011265,1,N,1","+0090,1","+0070,1","99999,9","02,5,+00600,1,99,9","07,5,+01350,1,99,9",,,"07,99,1,99,9,99,9,99999,9,99,9,99,9",,"10071,1,99999,9",,,,,"MET058METAR ENHK 110320Z 30007KT 9999 FEW020 BKN045 09/07 Q1007;",
"01044099999","2008-07-11T03:50:00","4","70.486675","22.139744","6.4","HASVIK, NO","FM-15","ENHK ","V020","300,1,N,0036,1","01350,1,C,N","011265,1,N,1","+0090,1","+0070,1","99999,9","02,5,+00600,1,99,9","07,5,+01350,1,99,9",,,"07,99,1,99,9,99,9,99999,9,99,9,99,9",,"10071,1,99999,9",,,,,"MET058METAR ENHK 110350Z 30007KT 9999 FEW020 BKN045 09/07 Q1007;",
"01044099999","2008-07-11T04:20:00","4","70.486675","22.139744","6.4","HASVIK, NO","FM-15","ENHK ","V020","300,1,N,0031,1","01350,1,C,N","011265,1,N,1","+0090,1","+0070,1","99999,9","02,5,+00600,1,99,9","07,5,+01350,1,99,9",,,"07,99,1,99,9,99,9,99999,9,99,9,99,9",,"10071,1,99999,9",,,,,"MET058METAR ENHK 110420Z 30006KT 9999 FEW020 BKN045 09/07 Q1007;",
"01044099999","2008-07-11T04:50:00","4","70.486675","22.139744","6.4","HASVIK, NO","FM-15","ENHK ","V020","300,1,N,0026,1","01350,1,C,N","011265,1,N,1","+0100,1","+0070,1","99999,9","02,5,+00600,1,99,9","07,5,+01350,1,99,9",,,"07,99,1,99,9,99,9,99999,9,99,9,99,9",,"10071,1,99999,9",,,,,"MET058METAR ENHK 110450Z 30005KT 9999 FEW020 BKN045 10/07 Q1007;",
"01044099999","2008-07-11T05:20:00","4","70.486675","22.139744","6.4","HASVIK, NO","FM-15","ENHK ","V020","280,1,N,0031,1","01350,1,C,N","011265,1,N,1","+0100,1","+0060,1","99999,9","02,5,+00600,1,99,9","07,5,+01350,1,99,9",,,"07,99,1,99,9,99,9,99999,9,99,9,99,9",,"10071,1,99999,9",,,,,"MET058METAR ENHK 110520Z 28006KT 9999 FEW020 BKN045 10/06 Q1007;",
"01044099999","2008-07-11T05:50:00","4","70.486675","22.139744","6.4","HASVIK, NO","FM-15","ENHK ","V020","300,1,N,0026,1","01350,1,C,N","011265,1,N,1","+0100,1","+0060,1","99999,9","02,5,+00600,1,99,9","07,5,+01350,1,99,9",,,"07,99,1,99,9,99,9,99999,9,99,9,99,9",,"10071,1,99999,9",,,,,"MET058METAR ENHK 110550Z 30005KT 9999 FEW020 BKN045 10/06 Q1007;",
"01044099999","2008-07-11T08:50:00","4","70.486675","22.139744","6.4","HASVIK, NO","FM-15","ENHK ","V020","300,1,N,0021,1","01350,1,C,N","011265,1,N,1","+0100,1","+0060,1","99999,9","02,5,+00600,1,99,9","07,5,+01350,1,99,9",,,"07,99,1,99,9,99,9,99999,9,99,9,99,9",,"10071,1,99999,9",,,,,"MET058METAR ENHK 110850Z 30004KT 9999 FEW020 BKN045 10/06 Q1007;",
"01044099999","2008-07-11T12:20:00","4","70.486675","22.139744","6.4","HASVIK, NO","FM-15","ENHK ","V020","320,1,N,0046,1","01320,1,C,N","011265,1,N,1","+0110,1","+0050,1","99999,9","02,5,+00660,1,99,9","07,5,+01320,1,99,9",,,"07,99,1,99,9,99,9,99999,9,99,9,99,9",,"10081,1,99999,9",,,,,"MET058METAR ENHK 111220Z 32009KT 9999 FEW022 BKN044 11/05 Q1008;",
"01044099999","2008-07-11T12:50:00","4","70.486675","22.139744","6.4","HASVIK, NO","FM-15","ENHK ","V020","320,1,N,0051,1","01350,1,C,N","011265,1,N,1","+0100,1","+0050,1","99999,9","02,5,+00720,1,99,9","07,5,+01350,1,99,9",,,"07,99,1,99,9,99,9,99999,9,99,9,99,9",,"10081,1,99999,9",,,,,"MET058METAR ENHK 111250Z 32010KT 9999 FEW024 BKN045 10/05 Q1008;",
"01044099999","2008-07-11T13:20:00","4","70.486675","22.139744","6.4","HASVIK, NO","FM-15","ENHK ","V020","300,1,N,0046,1","99999,9,C,N","011265,1,N,1","+0110,1","+0060,1","99999,9","02,5,+00750,1,99,9","04,5,+01410,1,99,9",,,"04,99,1,99,9,99,9,99999,9,99,9,99,9",,"10081,1,99999,9",,,,,"MET058METAR ENHK 111320Z 30009KT 9999 FEW025 SCT047 11/06 Q1008;","P01 014103SCOCIG"
"01044099999","2008-07-11T13:50:00","4","70.486675","22.139744","6.4","HASVIK, NO","FM-15","ENHK ","V020","300,1,N,0036,1","22000,1,9,N","011265,1,N,1","+0110,1","+0050,1","99999,9","02,5,+01410,1,99,9",,,,"02,99,1,99,9,99,9,99999,9,99,9,99,9",,"10081,1,99999,9",,,,,"MET051METAR ENHK 111350Z 30007KT 9999 FEW047 11/05 Q1008;",
"01044099999","2008-07-11T14:20:00","4","70.486675","22.139744","6.4","HASVIK, NO","FM-15","ENHK ","V020","320,1,N,0041,1","99999,9,9,Y","009900,1,N,1","+0100,1","+0050,1","99999,9",,,,,,"999,M,+9999,9",,,,,,"MET045METAR ENHK 111420Z 32008KT CAVOK 10/05 11008;","Q01 -00082ATMX  "
"01044099999","2008-07-13T11:50:00","4","70.486675","22.139744","6.4","HASVIK, NO","FM-15","ENHK ","V020","300,1,N,0015,1","22000,1,9,N","011265,1,N,1","+0130,1","+0080,1","99999,9","02,5,+01380,1,99,9",,,,"02,99,1,99,9,99,9,99999,9,99,9,99,9",,"10041,1,99999,9",,,,,"MET059METAR ENHK 131150Z 30003KT 240V340 9999 FEW046 13/08 Q1004;",
"01044099999","2008-07-13T12:20:00","4","70.486675","22.139744","6.4","HASVIK, NO","FM-15","ENHK ","V020","310,1,N,0026,1","99999,9,C,Y","009900,1,N,1","+0120,1","+0080,1","99999,9",,,,,,,"10041,1,99999,9",,,,,"MET045METAR ENHK 131220Z 31005KT CAVOK 12/08 Q1004;",
"01044099999","2008-07-13T12:50:00","4","70.486675","22.139744","6.4","HASVIK, NO","FM-15","ENHK ","V020","300,1,N,0026,1","99999,9,C,Y","009900,1,N,1","+0130,1","+0090,1","99999,9",,,,,,,"10041,1,99999,9",,,,,"MET045METAR ENHK 131250Z 30005KT CAVOK 13/09 Q1004;",
"01044099999","2008-07-13T13:20:00","4","70.486675","22.139744","6.4","HASVIK, NO","FM-15","ENHK ","V020","300,1,N,0026,1","99999,9,C,Y","009900,1,N,1","+0130,1","+0080,1","99999,9",,,,,,,"10041,1,99999,9",,,,,"MET045METAR ENHK 131320Z 30005KT CAVOK 13/08 Q1004;",
"01044099999","2008-07-13T13:50:00","4","70.486675","22.139744","6.4","HASVIK, NO","FM-15","ENHK ","V020","290,1,N,0026,1","99999,9,C,Y","009900,1,N,1","+0130,1","+0090,1","99999,9",,,,,,,"10041,1,99999,9",,,,,"MET045METAR ENHK 131350Z 29005KT CAVOK 13/09 Q1004;",
"01044099999","2008-07-13T14:20:00","4","70.486675","22.139744","6.4","HASVIK, NO","FM-15","ENHK ","V020","120,1,N,0021,1","99999,9,C,Y","009900,1,N,1","+0140,1","+0090,1","99999,9",,,,,,,"10041,1,99999,9",,,,,"MET045METAR ENHK 131420Z 12004KT CAVOK 14/09 Q1004;",
"01044099999","2008-07-14T03:20:00","4","70.486675","22.139744","6.4","HASVIK, NO","FM-15","ENHK ","V020","300,1,N,0051,1","02250,5,C,N","011265,1,N,1","+0100,1","+0090,1","99999,9","02,5,+00150,1,99,9","07,5,+02250,5,99,9",,,"07,99,1,99,9,99,9,99999,9,99,9,99,9",,"10041,1,99999,9",,,,,"MET058METAR ENHK 140320Z 30010KT 9999 FEW005 BKN075 10/09 Q1004;",
"01044099999","2008-07-14T03:50:00","4","70.486675","22.139744","6.4","HASVIK, NO","FM-15","ENHK ","V020","320,1,N,0041,1","99999,9,C,Y","009900,1,N,1","+0110,1","+0100,1","99999,9",,,,,,,"10041,1,99999,9",,,,,"MET045METAR ENHK 140350Z 32008KT CAVOK 11/10 Q1004;",
"01044099999","2008-07-14T04:20:00","4","70.486675","22.139744","6.4","HASVIK, NO","FM-15","ENHK ","V020","320,1,N,0041,1","99999,9,C,Y","009900,1,N,1","+0110,1","+0100,1","99999,9",,,,,,,"10041,1,99999,9",,,,,"MET045METAR ENHK 140420Z 32008KT CAVOK 11/10 Q1004;",
"01044099999","2008-07-14T04:50:00","4","70.486675","22.139744","6.4","HASVIK, NO","FM-15","ENHK ","V020","320,1,N,0041,1","99999,9,9,Y","009900,1,N,1","+0110,1","+0100,1","99999,9",,,,,,,"10040,1,99999,9",,,,,"MET049METAR ENHK 140450Z 32008KT -RA CAVOK 11/10 Q1004;",
"01044099999","2008-07-14T12:50:00","4","70.486675","22.139744","6.4","HASVIK, NO","FM-15","ENHK ","V020","300,1,N,0067,1","00015,1,C,N","000800,1,N,1","+0100,1","+0080,1","99999,9","09,1,+00015,1,99,9",,,,"09,99,1,99,9,99,9,00025,1,99,9,99,9",,"10071,1,99999,9","45,1",,,,"MET053METAR ENHK 141250Z 30013KT 0800 FG VV/// 10/08 Q1007;",
"01044099999","2008-07-14T13:50:00","4","70.486675","22.139744","6.4","HASVIK, NO","FM-15","ENHK ","V020","300,1,N,0072,1","00015,1,C,N","001500,1,N,1","+0100,1","+0080,1","99999,9","09,1,+00015,1,99,9",,,,"09,99,1,99,9,99,9,00025,1,99,9,99,9",,"10071,1,99999,9","41,1",,,,"MET055METAR ENHK 141350Z 30014KT 1500 BCFG VV/// 10/08 Q1007;",
"01044099999","2008-07-14T14:20:00","4","70.486675","22.139744","6.4","HASVIK, NO","FM-15","ENHK ","V020","310,1,N,0077,1","00015,1,C,N","001000,1,N,1","+0090,1","+0080,1","99999,9","09,1,+00015,1,99,9",,,,"09,99,1,99,9,99,9,00025,1,99,9,99,9",,"10071,1,99999,9","45,1",,,,"MET053METAR ENHK 141420Z 31015KT 1000 FG VV/// 09/08 Q1007;",
"01044099999","2008-07-15T03:20:00","4","70.486675","22.139744","6.4","HASVIK, NO","FM-15","ENHK ","V020","999,9,V,0010,1","01500,1,C,N","011265,1,N,1","+0100,1","+0090,1","99999,9","04,5,+00120,1,99,9","07,5,+01500,1,99,9",,,"07,99,1,99,9,99,9,99999,9,99,9,99,9",,"10051,1,99999,9","41,1",,,,"MET063METAR ENHK 150320Z VRB02KT 9999 BCFG SCT004 BKN050 10/09 Q1005;",
"01044099999","2008-07-15T03:50:00","4","70.486675","22.139744","6.4","HASVIK, NO","FM-15","ENHK ","V020","140,1,N,0015,1","00150,1,C,N","011265,1,N,1","+0100,1","+0090,1","99999,9","02,5,+00090,1,99,9","04,5,+00150,1,99,9","07,5,+02250,5,99,9",,"07,99,1,99,9,99,9,99999,9,99,9,99,9",,"10051,1,99999,9","40,1",,,,"MET078METAR ENHK 150350Z 14003KT 100V180 9999 VCFG FEW003 SCT005 BKN075 10/09 Q1005;",
"01044099999","2008-07-15T04:50:00","4","70.486675","22.139744","6.4","HASVIK, NO","FM-15","ENHK ","V020","150,1,N,0026,1","01500,1,C,N","011265,1,N,1","+0110,1","+0100,1","99999,9","02,5,+00150,1,99,9","04,5,+01500,1,99,9","07,5,+02250,5,99,9",,"07,99,1,99,9,99,9,99999,9,99,9,99,9",,"10051,1,99999,9","40,1",,,,"MET078METAR ENHK 150450Z 15005KT 120V180 9999 VCFG FEW005 SCT050 BKN075 11/10 Q1005;",
"01044099999","2008-07-15T13:20:00","4","70.486675","22.139744","6.4","HASVIK, NO","FM-15","ENHK ","V020","120,1,N,0077,1","22000,1,9,N","011265,1,N,1","+0140,1","+0100,1","99999,9","04,5,+01500,1,99,9",,,,"04,99,1,99,9,99,9,99999,9,99,9,99,9",,"10000,1,99999,9","81,1",,,,"MET056METAR ENHK 151320Z 12015KT 9999 SHRA SCT050 14/10 Q1000;",
"01044099999","2008-07-15T13:50:00","4","70.486675","22.139744","6.4","HASVIK, NO","FM-15","ENHK ","V020","090,1,N,0026,1","99999,9,C,Y","009900,1,N,1","+0180,1","+0130,1","99999,9",,,,,,,"10000,1,99999,9",,,,,"MET045METAR ENHK 151350Z 09005KT CAVOK 18/13 Q1000;",
"01044099999","2008-07-15T14:20:00","4","70.486675","22.139744","6.4","HASVIK, NO","FM-15","ENHK ","V020","130,1,N,0046,1","99999,9,C,Y","009900,1,N,1","+0180,1","+0110,1","99999,9",,,,,,,"10000,1,99999,9",,,,,"MET045METAR ENHK 151420Z 13009KT CAVOK 18/11 Q1000;",
"01044099999","2008-07-16T03:20:00","4","70.486675","22.139744","6.4","HASVIK, NO","FM-15","ENHK ","V020","110,1,N,0046,1","00810,1,C,N","011265,1,N,1","+0140,1","+0110,1","99999,9","02,5,+00450,1,99,9","04,5,+00810,1,99,9","07,5,+01800,1,99,9",,"07,99,1,99,9,99,9,99999,9,99,9,99,9",,"09959,1,99999,9","61,1",,,,"MET069METAR ENHK 160320Z 11009KT 9999 -RA FEW015 SCT027 BKN060 14/11 Q0996;",
"01044099999","2008-07-16T03:50:00","4","70.486675","22.139744","6.4","HASVIK, NO","FM-15","ENHK ","V020","080,1,N,0041,1","01260,1,C,N","011265,1,N,1","+0140,1","+0110,1","99999,9","02,5,+00450,1,99,9","04,5,+01260,1,99,9","07,5,+01800,1,99,9",,"07,99,1,99,9,99,9,99999,9,99,9,99,9",,"09959,1,99999,9","61,1",,,,"MET069METAR ENHK 160350Z 08008KT 9999 -RA FEW015 SCT042 BKN060 14/11 Q0996;",
"01044099999","2008-07-16T04:50:00","4","70.486675","22.139744","6.4","HASVIK, NO","FM-15","ENHK ","V020","100,1,N,0046,1","01740,5,C,N","011265,1,N,1","+0130,1","+0100,1","99999,9","02,5,+00750,1,99,9","07,5,+01740,5,99,9",,,"07,99,1,99,9,99,9,99999,9,99,9,99,9",,"09959,1,99999,9","63,1",,,,"MET069METAR ENHK 160450Z 10009KT 060V160 9999 RA FEW025 BKN058 13/10 Q0996;",
"01044099999","2008-07-16T11:50:00","4","70.486675","22.139744","6.4","HASVIK, NO","FM-15","ENHK ","V020","330,1,N,0041,1","00360,1,C,N","011265,1,N,1","+0100,1","+0090,1","99999,9","02,5,+00150,1,99,9","04,5,+00360,1,99,9","07,5,+00750,1,99,9",,"07,99,1,99,9,99,9,99999,9,99,9,99,9",,"09990,1,99999,9","61,1",,,,"MET069METAR ENHK 161150Z 33008KT 9999 -RA FEW005 SCT012 BKN025 10/09 Q0999;",
"01044099999","2008-07-16T12:50:00","4","70.486675","22.139744","6.4","HASVIK, NO","FM-15","ENHK ","V020","330,1,N,0031,1","00360,1,C,N","011265,1,N,1","+0110,1","+0090,1","99999,9","02,5,+00180,1,99,9","04,5,+00360,1,99,9","07,5,+00840,1,99,9",,"07,99,1,99,9,99,9,99999,9,99,9,99,9",,"09990,1,99999,9","61,1",,,,"MET077METAR ENHK 161250Z 33006KT 280V020 9999 -RA FEW006 SCT012 BKN028 11/09 Q0999;",
"01044099999","2008-07-16T13:50:00","4","70.486675","22.139744","6.4","HASVIK, NO","FM-15","ENHK ","V020","310,1,N,0021,1","00600,1,C,N","011265,1,N,1","+0110,1","+0090,1","99999,9","02,5,+00360,1,99,9","04,5,+00600,1,99,9","07,5,+01500,1,99,9",,"07,99,1,99,9,99,9,99999,9,99,9,99,9",,"09990,1,99999,9",,,,,"MET079METAR ENHK 161350Z 31004KT 270V360 9999 FEW012 SCT020 BKN050 11/09 Q0999 -RERA;",
"01044099999","2008-07-17T03:20:00","4","70.486675","22.139744","6.4","HASVIK, NO","FM-15","ENHK ","V020","260,1,N,0010,1","01140,1,C,N","011265,1,N,1","+0110,1","+0080,1","99999,9","02,5,+00600,1,99,9","07,5,+01140,1,99,9",,,"07,99,1,99,9,99,9,99999,9,99,9,99,9",,"09980,1,99999,9",,,,,"MET058METAR ENHK 170320Z 26002KT 9999 FEW020 BKN038 11/08 Q0998;",
"01044099999","2008-07-17T03:50:00","4","70.486675","22.139744","6.4","HASVIK, NO","FM-15","ENHK ","V020","310,1,N,0015,1","01200,1,C,N","011265,1,N,1","+0110,1","+0080,1","99999,9","02,5,+00600,1,99,9","07,5,+01200,1,99,9",,,"07,99,1,99,9,99,9,99999,9,99,9,99,9",,"09980,1,99999,9",,,,,"MET058METAR ENHK 170350Z 31003KT 9999 FEW020 BKN040 11/08 Q0998;",
"01044099999","2008-07-17T04:20:00","4","70.486675","22.139744","6.4","HASVIK, NO","FM-15","ENHK ","V020","290,1,N,0015,1","01230,1,C,N","011265,1,N,1","+0110,1","+0080,1","99999,9","02,5,+00600,1,99,9","07,5,+01230,1,99,9",,,"07,99,1,99,9,99,9,99999,9,99,9,99,9",,"09980,1,99999,9",,,,,"MET058METAR ENHK 170420Z 29003KT 9999 FEW020 BKN041 11/08 Q0998;",
"01044099999","2008-07-17T04:50:00","4","70.486675","22.139744","6.4","HASVIK, NO","FM-15","ENHK ","V020","300,1,N,0021,1","01260,1,C,N","011265,1,N,1","+0110,1","+0080,1","99999,9","02,5,+00600,1,99,9","04,5,+01260,1,99,9","07,5,+01740,5,99,9",,"07,99,1,99,9,99,9,99999,9,99,9,99,9",,"09980,1,99999,9",,,,,"MET073METAR ENHK 170450Z 30004KT 260V320 9999 FEW020 SCT042 BKN058 11/08 Q0998;",
"01044099999","2008-07-17T05:20:00","4","70.486675","22.139744","6.4","HASVIK, NO","FM-15","ENHK ","V020","999,9,V,0010,1","01290,1,C,N","011265,1,N,1","+0110,1","+0070,1","99999,9","02,5,+00600,1,99,9","07,5,+01290,1,99,9",,,"07,99,1,99,9,99,9,99999,9,99,9,99,9",,"09980,1,99999,9",,,,,"MET058METAR ENHK 170520Z VRB02KT 9999 FEW020 BKN043 11/07 Q0998;",
"01044099999","2008-07-17T11:50:00","4","70.486675","22.139744","6.4","HASVIK, NO","FM-15","ENHK ","V020","130,1,N,0026,1","99999,9,C,Y","009900,1,N,1","+0140,1","+0090,1","99999,9",,,,,,,"09980,1,99999,9",,,,,"MET045METAR ENHK 171150Z 13005KT CAVOK 14/09 Q0998;",
"01044099999","2008-07-17T12:50:00","4","70.486675","22.139744","6.4","HASVIK, NO","FM-15","ENHK ","V020","130,1,N,0021,1","99999,9,C,N","011265,1,N,1","+0140,1","+0090,1","99999,9","02,5,+01050,1,99,9","04,5,+02400,1,99,9",,,"04,99,1,99,9,99,9,99999,9,99,9,99,9",,"09980,1,99999,9",,,,,"MET066METAR ENHK 171250Z 13004KT 080V160 9999 FEW035 SCT080 14/09 Q0998;","P01 024003SCOCIG"
"01044099999","2008-07-17T13:50:00","4","70.486675","22.139744","6.4","HASVIK, NO","FM-15","ENHK ","V020","140,1,N,0021,1","02250,5,C,N","011265,1,N,1","+0130,1","+0090,1","99999,9","02,5,+00900,1,99,9","07,5,+02250,5,99,9",,,"07,99,1,99,9,99,9,99999,9,99,9,99,9",,"09990,1,99999,9",,,,,"MET066METAR ENHK 171350Z 14004KT 090V180 9999 FEW030 BKN075 13/09 Q0999;",
"01044099999","2008-07-18T03:20:00","4","70.486675","22.139744","6.4","HASVIK, NO","FM-15","ENHK ","V020","999,9,V,0005,1","02400,1,C,N","011265,1,N,1","+0120,1","+0090,1","99999,9","02,5,+01200,1,99,9","07,5,+02400,1,99,9",,,"07,99,1,99,9,99,9,99999,9,99,9,99,9",,"10000,1,99999,9",,,,,"MET058METAR ENHK 180320Z VRB01KT 9999 FEW040 BKN080 12/09 Q1000;",
"01044099999","2008-07-18T03:50:00","4","70.486675","22.139744","6.4","HASVIK, NO","FM-15","ENHK ","V020","999,9,V,0010,1","01800,1,C,N","011265,1,N,1","+0120,1","+0090,1","99999,9","02,5,+01200,1,99,9","04,5,+01800,1,99,9","07,5,+02400,1,99,9",,"07,99,1,99,9,99,9,99999,9,99,9,99,9",,"10000,1,99999,9",,,,,"MET065METAR ENHK 180350Z VRB02KT 9999 FEW040 SCT060 BKN080 12/09 Q1000;",
"01044099999","2008-07-18T11:20:00","4","70.486675","22.139744","6.4","HASVIK, NO","FM-15","ENHK ","V020","340,1,N,0041,1","00600,1,C,N","011265,1,N,1","+0110,1","+0090,1","99999,9","02,5,+00300,1,99,9","04,5,+00600,1,99,9","07,5,+01650,5,99,9",,"07,99,1,99,9,99,9,99999,9,99,9,99,9",,"10020,1,99999,9",,,,,"MET065METAR ENHK 181120Z 34008KT 9999 FEW010 SCT020 BKN055 11/09 Q1002;",
"01044099999","2008-07-18T11:50:00","4","70.486675","22.139744","6.4","HASVIK, NO","FM-15","ENHK ","V020","360,1,N,0026,1","00600,1,C,N","011265,1,N,1","+0120,1","+0100,1","99999,9","02,5,+00300,1,99,9","04,5,+00600,1,99,9","07,5,+01650,5,99,9",,"07,99,1,99,9,99,9,99999,9,99,9,99,9",,"10020,1,99999,9",,,,,"MET073METAR ENHK 181150Z 36005KT 310V120 9999 FEW010 SCT020 BKN055 12/10 Q1002;",
"01044099999","2008-07-18T12:20:00","4","70.486675","22.139744","6.4","HASVIK, NO","FM-15","ENHK ","V020","340,1,N,0036,1","00600,1,C,N","011265,1,N,1","+0120,1","+0090,1","99999,9","02,5,+00300,1,99,9","04,5,+00600,1,99,9","07,5,+01650,5,99,9",,"07,99,1,99,9,99,9,99999,9,99,9,99,9",,"10020,1,99999,9",,,,,"MET073METAR ENHK 181220Z 34007KT 290V030 9999 FEW010 SCT020 BKN055 12/09 Q1002;",
"01044099999","2008-07-18T12:50:00","4","70.486675","22.139744","6.4","HASVIK, NO","FM-15","ENHK ","V020","330,1,N,0041,1","00600,1,C,N","011265,1,N,1","+0110,1","+0090,1","99999,9","02,5,+00300,1,99,9","04,5,+00600,1,99,9","07,5,+01650,5,99,9",,"07,99,1,99,9,99,9,99999,9,99,9,99,9",,"10031,1,99999,9",,,,,"MET073METAR ENHK 181250Z 33008KT 270V030 9999 FEW010 SCT020 BKN055 11/09 Q1003;",
"01044099999","2008-07-18T13:20:00","4","70.486675","22.139744","6.4","HASVIK, NO","FM-15","ENHK ","V020","340,1,N,0057,1","00600,1,C,N","011265,1,N,1","+0110,1","+0090,1","99999,9","02,5,+00300,1,99,9","04,5,+00600,1,99,9","07,5,+01650,5,99,9",,"07,99,1,99,9,99,9,99999,9,99,9,99,9",,"10031,1,99999,9",,,,,"MET065METAR ENHK 181320Z 34011KT 9999 FEW010 SCT020 BKN055 11/09 Q1003;",
"01044099999","2008-07-18T14:20:00","4","70.486675","22.139744","6.4","HASVIK, NO","FM-15","ENHK ","V020","340,1,N,0041,1","01650,5,C,N","011265,1,N,1","+0110,1","+0080,1","99999,9","04,5,+00600,1,99,9","07,5,+01650,5,99,9",,,"07,99,1,99,9,99,9,99999,9,99,9,99,9",,"10041,1,99999,9",,,,,"MET058METAR ENHK 181420Z 34008KT 9999 SCT020 BKN055 11/08 Q1004;",
"01044099999","2008-07-18T14:50:00","4","70.486675","22.139744","6.4","HASVIK, NO","FM-15","ENHK ","V020","340,1,N,0046,1","01650,5,C,N","011265,1,N,1","+0110,1","+0080,1","99999,9","04,5,+00600,1,99,9","07,5,+01650,5,99,9",,,"07,99,1,99,9,99,9,99999,9,99,9,99,9",,"10041,1,99999,9",,,,,"MET058METAR ENHK 181450Z 34009KT 9999 SCT020 BKN055 11/08 Q1004;",
"01044099999","2008-07-20T11:50:00","4","70.486675","22.139744","6.4","HASVIK, NO","FM-15","ENHK ","V020","120,1,N,0051,1","99999,9,C,Y","009900,1,N,1","+0180,1","+0110,1","99999,9",,,,,,,"10108,1,99999,9",,,,,"MET045METAR ENHK 201150Z 12010KT CAVOK 18/11 Q1011;",
"01044099999","2008-07-20T12:20:00","4","70.486675","22.139744","6.4","HASVIK, NO","FM-15","ENHK ","V020","120,1,N,0041,1","99999,9,C,Y","009900,1,N,1","+0190,1","+0110,1","99999,9",,,,,,,"10108,1,99999,9",,,,,"MET045METAR ENHK 201220Z 12008KT CAVOK 19/11 Q1011;",
"01044099999","2008-07-20T12:50:00","4","70.486675","22.139744","6.4","HASVIK, NO","FM-15","ENHK ","V020","110,1,N,0051,1","99999,9,C,Y","009900,1,N,1","+0200,1","+0120,1","99999,9",,,,,,,"10108,1,99999,9",,,,,"MET045METAR ENHK 201250Z 11010KT CAVOK 20/12 Q1011;",
"01044099999","2008-07-20T13:20:00","4","70.486675","22.139744","6.4","HASVIK, NO","FM-15","ENHK ","V020","130,1,N,0046,1","99999,9,C,Y","009900,1,N,1","+0190,1","+0120,1","99999,9",,,,,,,"10108,1,99999,9",,,,,"MET045METAR ENHK 201320Z 13009KT CAVOK 19/12 Q1011;",
"01044099999","2008-07-20T14:20:00","4","70.486675","22.139744","6.4","HASVIK, NO","FM-15","ENHK ","V020","130,1,N,0031,1","99999,9,C,Y","009900,1,N,1","+0190,1","+0120,1","99999,9",,,,,,,"10108,1,99999,9",,,,,"MET045METAR ENHK 201420Z 13006KT CAVOK 19/12 Q1011;",
"01044099999","2008-07-21T03:20:00","4","70.486675","22.139744","6.4","HASVIK, NO","FM-15","ENHK ","V020","130,1,N,0026,1","99999,9,C,Y","009900,1,N,1","+0150,1","+0100,1","99999,9",,,,,,,"10091,1,99999,9",,,,,"MET045METAR ENHK 210320Z 13005KT CAVOK 15/10 Q1009;",
"01044099999","2008-07-21T03:50:00","4","70.486675","22.139744","6.4","HASVIK, NO","FM-15","ENHK ","V020","140,1,N,0026,1","99999,9,C,Y","009900,1,N,1","+0160,1","+0110,1","99999,9",,,,,,,"10091,1,99999,9",,,,,"MET045METAR ENHK 210350Z 14005KT CAVOK 16/11 Q1009;",
"01044099999","2008-07-21T04:20:00","4","70.486675","22.139744","6.4","HASVIK, NO","FM-15","ENHK ","V020","140,1,N,0036,1","99999,9,C,Y","009900,1,N,1","+0160,1","+0110,1","99999,9",,,,,,,"10091,1,99999,9",,,,,"MET045METAR ENHK 210420Z 14007KT CAVOK 16/11 Q1009;",
"01044099999","2008-07-21T04:50:00","4","70.486675","22.139744","6.4","HASVIK, NO","FM-15","ENHK ","V020","160,1,N,0036,1","99999,9,C,Y","009900,1,N,1","+0160,1","+0110,1","99999,9",,,,,,,"10091,1,99999,9",,,,,"MET045METAR ENHK 210450Z 16007KT CAVOK 16/11 Q1009;",
"01044099999","2008-07-21T12:50:00","4","70.486675","22.139744","6.4","HASVIK, NO","FM-15","ENHK ","V020","120,1,N,0021,1","02400,1,C,N","011265,1,N,1","+0170,1","+0110,1","99999,9","02,5,+01200,1,99,9","07,5,+02400,1,99,9",,,"07,99,1,99,9,99,9,99999,9,99,9,99,9",,"10081,1,99999,9",,,,,"MET058METAR ENHK 211250Z 12004KT 9999 FEW040 BKN080 17/11 Q1008;",
"01044099999","2008-07-21T13:50:00","4","70.486675","22.139744","6.4","HASVIK, NO","FM-15","ENHK ","V020","100,1,N,0026,1","01800,1,C,N","011265,1,N,1","+0170,1","+0100,1","99999,9","02,5,+01200,1,99,9","04,5,+01860,5,99,9","07,5,+02700,1,99,9",,"07,99,1,99,9,99,9,99999,9,99,9,99,9",,"10081,1,99999,9",,,,,"MET065METAR ENHK 211350Z 10005KT 9999 FEW040 SCT062 BKN090 17/10 Q1008;",
"01044099999","2008-07-22T03:20:00","4","70.486675","22.139744","6.4","HASVIK, NO","FM-15","ENHK ","V020","330,1,N,0051,1","00450,1,C,N","011265,1,N,1","+0120,1","+0120,1","99999,9","02,5,+00120,1,99,9","04,5,+00450,1,99,9","07,5,+01050,1,99,9",,"07,99,1,99,9,99,9,99999,9,99,9,99,9",,"10061,1,99999,9","61,1",,,,"MET069METAR ENHK 220320Z 33010KT 9999 -RA FEW004 SCT015 BKN035 12/12 Q1006;",
"01044099999","2008-07-22T03:50:00","4","70.486675","22.139744","6.4","HASVIK, NO","FM-15","ENHK ","V020","320,1,N,0046,1","00450,1,C,N","011265,1,N,1","+0120,1","+0110,1","99999,9","02,5,+00090,1,99,9","04,5,+00450,1,99,9","07,5,+01260,1,99,9",,"07,99,1,99,9,99,9,99999,9,99,9,99,9",,"10061,1,99999,9","61,1",,,,"MET069METAR ENHK 220350Z 32009KT 9999 -RA FEW003 SCT015 BKN042 12/11 Q1006;",
"01044099999","2008-07-22T04:50:00","4","70.486675","22.139744","6.4","HASVIK, NO","FM-15","ENHK ","V020","340,1,N,0036,1","00330,1,C,N","009000,1,N,1","+0120,1","+0110,1","99999,9","04,5,+00120,1,99,9","07,5,+00330,1,99,9",,,"07,99,1,99,9,99,9,99999,9,99,9,99,9",,"10051,1,99999,9","61,1",,,,"MET070METAR ENHK 220450Z 34007KT 310V010 9000 -RA SCT004 BKN011 12/11 Q1005;",
"01044099999","2008-07-22T11:50:00","4","70.486675","22.139744","6.4","HASVIK, NO","FM-15","ENHK ","V020","330,1,N,0051,1","00210,1,C,N","009000,1,N,1","+0110,1","+0100,1","99999,9","02,5,+00120,1,99,9","04,5,+00210,1,99,9","07,5,+00330,1,99,9",,"07,99,1,99,9,99,9,99999,9,99,9,99,9",,"10031,1,99999,9","63,1",,,,"MET068METAR ENHK 221150Z 33010KT 9000 RA FEW004 SCT007 BKN011 11/10 Q1003;",
"01044099999","2008-07-22T12:20:00","4","70.486675","22.139744","6.4","HASVIK, NO","FM-15","ENHK ","V020","330,1,N,0057,1","00300,1,C,N","009000,1,N,1","+0100,1","+0100,1","99999,9","02,5,+00120,1,99,9","07,5,+00300,1,99,9",,,"07,99,1,99,9,99,9,99999,9,99,9,99,9",,"10031,1,99999,9","63,1",,,,"MET061METAR ENHK 221220Z 33011KT 9000 RA FEW004 BKN010 10/10 Q1003;",
"01044099999","2008-07-22T12:50:00","4","70.486675","22.139744","6.4","HASVIK, NO","FM-15","ENHK ","V020","330,1,N,0051,1","00330,1,C,N","009000,1,N,1","+0100,1","+0090,1","99999,9","04,5,+00150,1,99,9","07,5,+00330,1,99,9",,,"07,99,1,99,9,99,9,99999,9,99,9,99,9",,"10031,1,99999,9","63,1",,,,"MET061METAR ENHK 221250Z 33010KT 9000 RA SCT005 BKN011 10/09 Q1003;",
"01044099999","2008-07-22T13:50:00","4","70.486675","22.139744","6.4","HASVIK, NO","FM-15","ENHK ","V020","330,1,N,0051,1","00330,1,C,N","009000,1,N,1","+0100,1","+0090,1","99999,9","04,5,+00150,1,99,9","07,5,+00330,1,99,9",,,"07,99,1,99,9,99,9,99999,9,99,9,99,9",,"10031,1,99999,9","61,1",,,,"MET070METAR ENHK 221350Z 33010KT 310V010 9000 -RA SCT005 BKN011 10/09 Q1003;",
"01044099999","2008-07-23T03:20:00","4","70.486675","22.139744","6.4","HASVIK, NO","FM-15","ENHK ","V020","300,1,N,0098,1","00120,1,C,N","009000,1,N,1","+0100,1","+0090,1","99999,9","07,5,+00120,1,99,9",,,,"07,99,1,99,9,99,9,99999,9,99,9,99,9",,"10071,1,99999,9","41,1","61,1",,,"MET060METAR ENHK 230320Z 30019KT 9000 -RA BCFG BKN004 10/09 Q1007;",
"01044099999","2008-07-23T03:50:00","4","70.486675","22.139744","6.4","HASVIK, NO","FM-15","ENHK ","V020","300,1,N,0098,1","00120,1,C,N","009000,1,N,1","+0100,1","+0090,1","99999,9","04,5,+00090,1,99,9","07,5,+00120,1,99,9",,,"07,99,1,99,9,99,9,99999,9,99,9,99,9",,"10081,1,99999,9","61,1",,,,"MET062METAR ENHK 230350Z 30019KT 9000 -RA SCT003 BKN004 10/09 Q1008;",
"01044099999","2008-07-23T04:20:00","4","70.486675","22.139744","6.4","HASVIK, NO","FM-15","ENHK ","V020","300,1,N,0098,1","00090,1,C,N","009000,1,N,1","+0100,1","+0090,1","99999,9","07,5,+00090,1,99,9",,,,"07,99,1,99,9,99,9,99999,9,99,9,99,9",,"10081,1,99999,9","51,1","61,1",,,"MET072METAR ENHK 230420Z 30019KT 270V330 9000 5000SE -DZRA BKN003 10/09 Q1008;",
"01044099999","2008-07-23T04:50:00","4","70.486675","22.139744","6.4","HASVIK, NO","FM-15","ENHK ","V020","290,1,N,0093,1","00120,1,C,N","011265,1,N,1","+0100,1","+0100,1","99999,9","04,5,+00090,1,99,9","07,5,+00120,1,99,9",,,"07,99,1,99,9,99,9,99999,9,99,9,99,9",,"10081,1,99999,9","40,1",,,,"MET078METAR ENHK 230450Z 29018KT 270V330 9999 VCFG SCT003 BKN004 10/10 Q1008 REDZRA;",
"01044099999","2008-07-23T11:50:00","4","70.486675","22.139744","6.4","HASVIK, NO","FM-15","ENHK ","V020","290,1,N,0067,1","00600,1,C,N","011265,1,N,1","+0100,1","+0090,1","99999,9","04,5,+00390,1,99,9","07,5,+00600,1,99,9",,,"07,99,1,99,9,99,9,99999,9,99,9,99,9",,"10129,1,99999,9",,,,,"MET058METAR ENHK 231150Z 29013KT 9999 SCT013 BKN020 10/09 Q1013;",
"01044099999","2008-07-23T12:20:00","4","70.486675","22.139744","6.4","HASVIK, NO","FM-15","ENHK ","V020","290,1,N,0067,1","00600,1,C,N","011265,1,N,1","+0100,1","+0090,1","99999,9","02,5,+00390,1,99,9","04,5,+00600,1,99,9","07,5,+00900,1,99,9",,"07,99,1,99,9,99,9,99999,9,99,9,99,9",,"10139,1,99999,9",,,,,"MET065METAR ENHK 231220Z 29013KT 9999 FEW013 SCT020 BKN030 10/09 Q1014;",
"01044099999","2008-07-23T12:50:00","4","70.486675","22.139744","6.4","HASVIK, NO","FM-15","ENHK ","V020","290,1,N,0077,1","00600,1,C,N","011265,1,N,1","+0100,1","+0090,1","99999,9","02,5,+00300,1,99,9","04,5,+00600,1,99,9","07,5,+00900,1,99,9",,"07,99,1,99,9,99,9,99999,9,99,9,99,9",,"10139,1,99999,9",,,,,"MET065METAR ENHK 231250Z 29015KT 9999 FEW010 SCT020 BKN030 10/09 Q1014;",
"01044099999","2008-07-23T13:20:00","4","70.486675","22.139744","6.4","HASVIK, NO","FM-15","ENHK ","V020","290,1,N,0067,1","00600,1,C,N","011265,1,N,1","+0100,1","+0090,1","99999,9","02,5,+00390,1,99,9","04,5,+00600,1,99,9","07,5,+00900,1,99,9",,"07,99,1,99,9,99,9,99999,9,99,9,99,9",,"10139,1,99999,9",,,,,"MET065METAR ENHK 231320Z 29013KT 9999 FEW013 SCT020 BKN030 10/09 Q1014;",
"01044099999","2008-07-23T14:20:00","4","70.486675","22.139744","6.4","HASVIK, NO","FM-15","ENHK ","V020","290,1,N,0077,1","00600,1,C,N","011265,1,N,1","+0110,1","+0090,1","99999,9","02,5,+00390,1,99,9","04,5,+00600,1,99,9","07,5,+00900,1,99,9",,"07,99,1,99,9,99,9,99999,9,99,9,99,9",,"10139,1,99999,9",,,,,"MET065METAR ENHK 231420Z 29015KT 9999 FEW013 SCT020 BKN030 11/09 Q1014;",
"01044099999","2008-07-24T03:20:00","4","70.486675","22.139744","6.4","HASVIK, NO","FM-15","ENHK ","V020","280,1,N,0082,1","00150,1,9,N","001500,1,N,1","+0100,1","+0100,1","99999,9","09,1,+00150,1,99,9",,,,"09,99,1,99,9,99,9,00025,1,99,9,99,9",,"10180,1,99999,9","53,1","63,1",,,"MET055METAR ENHK 240320Z 28016KT 1500 RADZ VV005 10/10 Q1018;",
"01044099999","2008-07-24T03:50:00","4","70.486675","22.139744","6.4","HASVIK, NO","FM-15","ENHK ","V020","280,1,N,0082,1","00150,1,9,N","002000,1,N,1","+0110,1","+0100,1","99999,9","09,1,+00150,1,99,9",,,,"09,99,1,99,9,99,9,00025,1,99,9,99,9",,"10180,1,99999,9",,,,,"MET050METAR ENHK 240350Z 28016KT 2000 VV005 11/10 Q1018;",
"01044099999","2008-07-24T04:20:00","4","70.486675","22.139744","6.4","HASVIK, NO","FM-15","ENHK ","V020","280,1,N,0082,1","00150,1,9,N","001500,1,N,1","+0100,1","+0100,1","99999,9","09,1,+00150,1,99,9",,,,"09,99,1,99,9,99,9,00025,1,99,9,99,9",,"10180,1,99999,9","53,1",,,,"MET053METAR ENHK 240420Z 28016KT 1500 DZ VV005 10/10 Q1018;",
"01044099999","2008-07-24T04:50:00","4","70.486675","22.139744","6.4","HASVIK, NO","FM-15","ENHK ","V020","290,1,N,0087,1","00150,1,9,N","001000,1,N,1","+0100,1","+0100,1","99999,9","09,1,+00150,1,99,9",,,,"09,99,1,99,9,99,9,00025,1,99,9,99,9",,"10180,1,99999,9","53,1","63,1",,,"MET055METAR ENHK 240450Z 29017KT 1000 RADZ VV005 10/10 Q1018;",
"01044099999","2008-07-24T11:50:00","4","70.486675","22.139744","6.4","HASVIK, NO","FM-15","ENHK ","V020","320,1,N,0087,1","00300,1,C,N","011265,1,N,1","+0110,1","+0100,1","99999,9","04,5,+00150,1,99,9","07,5,+00300,1,99,9",,,"07,99,1,99,9,99,9,99999,9,99,9,99,9",,"10220,1,99999,9",,,,,"MET058METAR ENHK 241150Z 32017KT 9999 SCT005 BKN010 11/10 Q1022;",
"01044099999","2008-07-24T12:20:00","4","70.486675","22.139744","6.4","HASVIK, NO","FM-15","ENHK ","V020","320,1,N,0046,1","00300,1,C,N","011265,1,N,1","+0110,1","+0100,1","99999,9","04,5,+00150,1,99,9","07,5,+00300,1,99,9",,,"07,99,1,99,9,99,9,99999,9,99,9,99,9",,"10220,1,99999,9",,,,,"MET058METAR ENHK 241220Z 32009KT 9999 SCT005 BKN010 11/10 Q1022;",
"01044099999","2008-07-24T12:50:00","4","70.486675","22.139744","6.4","HASVIK, NO","FM-15","ENHK ","V020","320,1,N,0041,1","00300,1,C,N","011265,1,N,1","+0110,1","+0100,1","99999,9","04,5,+00150,1,99,9","07,5,+00300,1,99,9",,,"07,99,1,99,9,99,9,99999,9,99,9,99,9",,"10230,1,99999,9",,,,,"MET058METAR ENHK 241250Z 32008KT 9999 SCT005 BKN010 11/10 Q1023;",
"01044099999","2008-07-24T13:20:00","4","70.486675","22.139744","6.4","HASVIK, NO","FM-15","ENHK ","V020","300,1,N,0046,1","00300,1,C,N","005000,1,N,1","+0110,1","+0100,1","99999,9","04,5,+00150,1,99,9","07,5,+00300,1,99,9",,,"07,99,1,99,9,99,9,99999,9,99,9,99,9",,"10230,1,99999,9","53,1",,,,"MET061METAR ENHK 241320Z 30009KT 5000 DZ SCT005 BKN010 11/10 Q1023;",
"01044099999","2008-07-24T14:20:00","4","70.486675","22.139744","6.4","HASVIK, NO","FM-15","ENHK ","V020","310,1,N,0057,1","00300,1,C,N","011265,1,N,1","+0110,1","+0100,1","99999,9","02,5,+00150,1,99,9","04,5,+00300,1,99,9","07,5,+00450,1,99,9",,"07,99,1,99,9,99,9,99999,9,99,9,99,9",,"10230,1,99999,9",,,,,"MET065METAR ENHK 241420Z 31011KT 9999 FEW005 SCT010 BKN015 11/10 Q1023;",
"01044099999","2008-07-25T03:20:00","4","70.486675","22.139744","6.4","HASVIK, NO","FM-15","ENHK ","V020","160,1,N,0021,1","00300,1,C,N","002000,1,N,1","+0100,1","+0100,1","99999,9","04,5,+00150,1,99,9","07,5,+00300,1,99,9",,,"07,99,1,99,9,99,9,99999,9,99,9,99,9",,"10210,1,99999,9","51,1",,,,"MET062METAR ENHK 250320Z 16004KT 2000 -DZ SCT005 BKN010 10/10 Q1021;",
"01044099999","2008-07-25T03:50:00","4","70.486675","22.139744","6.4","HASVIK, NO","FM-15","ENHK ","V020","130,1,N,0021,1","00300,1,C,N","002000,1,N,1","+0100,1","+0090,1","99999,9","04,5,+00150,1,99,9","07,5,+00300,1,99,9",,,"07,99,1,99,9,99,9,99999,9,99,9,99,9",,"10210,1,99999,9","51,1",,,,"MET062METAR ENHK 250350Z 13004KT 2000 -DZ SCT005 BKN010 10/09 Q1021;",
"01044099999","2008-07-25T04:50:00","4","70.486675","22.139744","6.4","HASVIK, NO","FM-15","ENHK ","V020","999,9,V,0015,1","00300,1,C,N","002000,1,N,1","+0100,1","+0100,1","99999,9","04,5,+00150,1,99,9","07,5,+00300,1,99,9",,,"07,99,1,99,9,99,9,99999,9,99,9,99,9",,"10210,1,99999,9","53,1","63,1",,,"MET063METAR ENHK 250450Z VRB03KT 2000 RADZ SCT005 BKN010 10/10 Q1021;",
"01044099999","2008-07-25T11:50:00","4","70.486675","22.139744","6.4","HASVIK, NO","FM-15","ENHK ","V020","290,1,N,0067,1","00450,1,C,N","011265,1,N,1","+0110,1","+0100,1","99999,9","02,5,+00300,1,99,9","04,5,+00450,1,99,9","07,5,+00600,1,99,9",,"07,99,1,99,9,99,9,99999,9,99,9,99,9",,"10220,1,99999,9","41,1",,,,"MET078METAR ENHK 251150Z 29013KT 260V330 9999 BCFG FEW010 SCT015 BKN020 11/10 Q1022;",
"01044099999","2008-07-25T12:20:00","4","70.486675","22.139744","6.4","HASVIK, NO","FM-15","ENHK ","V020","290,1,N,0067,1","00480,1,C,N","011265,1,N,1","+0110,1","+0090,1","99999,9","04,5,+00300,1,99,9","07,5,+00480,1,99,9",,,"07,99,1,99,9,99,9,99999,9,99,9,99,9",,"10230,1,99999,9","51,1",,,,"MET070METAR ENHK 251220Z 29013KT 260V330 9999 -DZ SCT010 BKN016 11/09 Q1023;",
"01044099999","2008-07-25T12:50:00","4","70.486675","22.139744","6.4","HASVIK, NO","FM-15","ENHK ","V020","290,1,N,0062,1","00180,1,C,N","008000,1,N,1","+0100,1","+0090,1","99999,9","02,5,+00150,1,99,9","07,5,+00180,1,99,9",,,"07,99,1,99,9,99,9,99999,9,99,9,99,9",,"10230,1,99999,9","40,1","51,1",,,"MET067METAR ENHK 251250Z 29012KT 8000 -DZ VCFG FEW005 BKN006 10/09 Q1023;",
"01044099999","2008-07-25T13:20:00","4","70.486675","22.139744","6.4","HASVIK, NO","FM-15","ENHK ","V020","290,1,N,0062,1","00240,1,C,N","006000,1,N,1","+0100,1","+0100,1","99999,9","04,5,+00150,1,99,9","07,5,+00240,1,99,9",,,"07,99,1,99,9,99,9,99999,9,99,9,99,9",,"10230,1,99999,9","53,1",,,,"MET070METAR ENHK 251320Z 29012KT 260V330 6000E DZ SCT005 BKN008 10/10 Q1023;",
"01044099999","2008-07-25T13:50:00","4","70.486675","22.139744","6.4","HASVIK, NO","FM-15","ENHK ","V020","290,1,N,0067,1","00210,1,C,N","011265,1,N,1","+0110,1","+0100,1","99999,9","02,5,+00120,1,99,9","07,5,+00210,1,99,9",,,"07,99,1,99,9,99,9,99999,9,99,9,99,9",,"10230,1,99999,9","16,1",,,,"MET076METAR ENHK 251350Z 29013KT 250V330 9999 VCSH FEW004 BKN007 11/10 Q1023 REDZ;",
"01044099999","2008-07-25T14:20:00","4","70.486675","22.139744","6.4","HASVIK, NO","FM-15","ENHK ","V020","300,1,N,0062,1","00600,1,C,N","011265,1,N,1","+0100,1","+0090,1","99999,9","02,5,+00240,1,99,9","07,5,+00600,1,99,9",,,"07,99,1,99,9,99,9,99999,9,99,9,99,9",,"10230,1,99999,9","16,1",,,,"MET063METAR ENHK 251420Z 30012KT 9999 VCSH FEW008 BKN020 10/09 Q1023;",
"01044099999","2008-07-27T11:50:00","4","70.486675","22.139744","6.4","HASVIK, NO","FM-15","ENHK ","V020","290,1,N,0046,1","00150,1,C,N","003000,1,N,1","+0100,1","+0100,1","99999,9","07,5,+00150,1,99,9",,,,"07,99,1,99,9,99,9,99999,9,99,9,99,9",,"10271,1,99999,9","41,1","53,1",,,"MET067METAR ENHK 271150Z 29009KT 250V330 3000 BCFG DZ BKN005 10/10 Q1027;",
"01044099999","2008-07-27T12:20:00","4","70.486675","22.139744","6.4","HASVIK, NO","FM-15","ENHK ","V020","270,1,N,0062,1","00090,1,9,N","001500,1,N,1","+0100,1","+0100,1","99999,9","09,1,+00090,1,99,9",,,,"09,99,1,99,9,99,9,00025,1,99,9,99,9",,"10271,1,99999,9","12,1","53,1",,,"MET058METAR ENHK 271220Z 27012KT 1500 MIFG DZ VV003 10/10 Q1027;",
"01044099999","2008-07-27T12:50:00","4","70.486675","22.139744","6.4","HASVIK, NO","FM-15","ENHK ","V020","270,1,N,0062,1","00060,1,9,N","001000,1,N,1","+0100,1","+0100,1","99999,9","09,1,+00060,1,99,9",,,,"09,99,1,99,9,99,9,00025,1,99,9,99,9",,"10271,1,99999,9","12,1","53,1",,,"MET058METAR ENHK 271250Z 27012KT 1000 MIFG DZ VV002 10/10 Q1027;",
"01044099999","2008-07-27T13:20:00","4","70.486675","22.139744","6.4","HASVIK, NO","FM-15","ENHK ","V020","280,1,N,0062,1","00090,1,9,N","001500,1,N,1","+0110,1","+0100,1","99999,9","09,1,+00090,1,99,9",,,,"09,99,1,99,9,99,9,00025,1,99,9,99,9",,"10271,1,99999,9","12,1","53,1",,,"MET058METAR ENHK 271320Z 28012KT 1500 MIFG DZ VV003 11/10 Q1027;",
"01044099999","2008-07-27T13:50:00","4","70.486675","22.139744","6.4","HASVIK, NO","FM-15","ENHK ","V020","280,1,N,0062,1","00060,1,9,N","000800,1,N,1","+0110,1","+0100,1","99999,9","09,1,+00060,1,99,9",,,,"09,99,1,99,9,99,9,00025,1,99,9,99,9",,"10271,1,99999,9","41,1","53,1",,,"MET066METAR ENHK 271350Z 28012KT 240V320 0800 PRFG DZ VV002 11/10 Q1027;",
"01044099999","2008-07-28T03:20:00","4","70.486675","22.139744","6.4","HASVIK, NO","FM-15","ENHK ","V020","290,1,N,0015,1","00060,1,9,N","000600,1,N,1","+0100,1","+0090,1","99999,9","09,1,+00060,1,99,9",,,,"09,99,1,99,9,99,9,00025,1,99,9,99,9",,"10291,1,99999,9","41,1",,,,"MET055METAR ENHK 280320Z 29003KT 0600 PRFG VV002 10/09 Q1029;",
"01044099999","2008-07-28T03:50:00","4","70.486675","22.139744","6.4","HASVIK, NO","FM-15","ENHK ","V020","290,1,N,0021,1","00780,1,9,N","000700,1,N,1","+0100,1","+0090,1","99999,9","09,1,+00780,1,99,9",,,,"09,99,1,99,9,99,9,00025,1,99,9,99,9",,"10291,1,99999,9","41,1",,,,"MET055METAR ENHK 280350Z 29004KT 0700 PRFG VV026 10/09 Q1029;",
"01044099999","2008-07-28T04:50:00","4","70.486675","22.139744","6.4","HASVIK, NO","FM-15","ENHK ","V020","290,1,N,0021,1","00810,1,C,N","008000,1,N,1","+0100,1","+0100,1","99999,9","04,5,+00060,1,99,9","07,5,+00810,1,99,9",,,"07,99,1,99,9,99,9,99999,9,99,9,99,9",,"10291,1,99999,9","41,1",,,,"MET069METAR ENHK 280450Z 29004KT 8000 2500E BCFG SCT002 BKN027 10/10 Q1029;",
"01044099999","2008-07-28T05:20:00","4","70.486675","22.139744","6.4","HASVIK, NO","FM-15","ENHK ","V020","290,1,N,0026,1","00840,1,C,N","011265,1,N,1","+0100,1","+0100,1","99999,9","02,5,+00060,1,99,9","07,5,+00840,1,99,9",,,"07,99,1,99,9,99,9,99999,9,99,9,99,9",,"10291,1,99999,9","41,1",,,,"MET063METAR ENHK 280520Z 29005KT 9999 BCFG FEW002 BKN028 10/10 Q1029;",
"01044099999","2008-07-28T07:20:00","4","70.486675","22.139744","6.4","HASVIK, NO","FM-15","ENHK ","V020","300,1,N,0015,1","00750,1,C,N","011265,1,N,1","+0110,1","+0100,1","99999,9","02,5,+00060,1,99,9","07,5,+00750,1,99,9",,,"07,99,1,99,9,99,9,99999,9,99,9,99,9",,"10291,1,99999,9","40,1",,,,"MET071METAR ENHK 280720Z 30003KT 270V330 9999 VCFG FEW002 BKN025 11/10 Q1029;",
"01044099999","2008-07-28T07:50:00","4","70.486675","22.139744","6.4","HASVIK, NO","FM-15","ENHK ","V020","280,1,N,0015,1","00750,1,C,N","011265,1,N,1","+0110,1","+0100,1","99999,9","02,5,+00060,1,99,9","07,5,+00750,1,99,9",,,"07,99,1,99,9,99,9,99999,9,99,9,99,9",,,"40,1",,,,"MET062METAR ENHK 280750Z 28003KT 9999 VCFG FEW002 BKN025 11/10 1029;",
"01044099999","2008-07-28T11:50:00","4","70.486675","22.139744","6.4","HASVIK, NO","FM-15","ENHK ","V020","999,9,V,0010,1","00720,1,C,N","011265,1,N,1","+0120,1","+0100,1","99999,9","07,5,+00720,1,99,9",,,,"07,99,1,99,9,99,9,99999,9,99,9,99,9",,"10301,1,99999,9",,,,,"MET051METAR ENHK 281150Z VRB02KT 9999 BKN024 12/10 Q1030;",
"01044099999","2008-07-28T12:50:00","4","70.486675","22.139744","6.4","HASVIK, NO","FM-15","ENHK ","V020","320,1,N,0031,1","99999,9,C,N","011265,1,N,1","+0130,1","+0070,1","99999,9","02,5,+00720,1,99,9","04,5,+06000,1,99,9",,,"04,99,1,99,9,99,9,99999,9,99,9,99,9",,"10301,1,99999,9",,,,,"MET058METAR ENHK 281250Z 32006KT 9999 FEW024 SCT200 13/07 Q1030;","P01 060003SCOCIG"
"01044099999","2008-07-28T13:20:00","4","70.486675","22.139744","6.4","HASVIK, NO","FM-15","ENHK ","V020","300,1,N,0026,1","99999,9,C,N","011265,1,N,1","+0130,1","+0080,1","99999,9","02,5,+00720,1,99,9","04,5,+06000,1,99,9",,,"04,99,1,99,9,99,9,99999,9,99,9,99,9",,"10291,1,99999,9",,,,,"MET066METAR ENHK 281320Z 30005KT 260V350 9999 FEW024 SCT200 13/08 Q1029;","P01 060003SCOCIG"
"01044099999","2008-07-28T13:50:00","4","70.486675","22.139744","6.4","HASVIK, NO","FM-15","ENHK ","V020","310,1,N,0026,1","99999,9,C,N","011265,1,N,1","+0130,1","+0080,1","99999,9","02,5,+00720,1,99,9","04,5,+06000,1,99,9",,,"04,99,1,99,9,99,9,99999,9,99,9,99,9",,"10291,1,99999,9",,,,,"MET066METAR ENHK 281350Z 31005KT 270V350 9999 FEW024 SCT200 13/08 Q1029;","P01 060003SCOCIG"
"01044099999","2008-07-29T03:20:00","4","70.486675","22.139744","6.4","HASVIK, NO","FM-15","ENHK ","V020","320,1,N,0021,1","00540,1,C,N","011265,1,N,1","+0110,2","+0080,1","99999,9","02,5,+00210,1,99,9","04,5,+00540,1,99,9","07,5,+00690,1,99,9",,"07,99,1,99,9,99,9,99999,9,99,9,99,9",,"10281,1,99999,9",,,,,"MET066METAR ENHK 290320Z 32004KT 9999 FEW007 SCT018 BKN023 110/08 Q1028;",
"01044099999","2008-07-29T03:50:00","4","70.486675","22.139744","6.4","HASVIK, NO","FM-15","ENHK ","V020","320,1,N,0036,1","00480,1,C,N","011265,1,N,1","+0100,1","+0080,1","99999,9","02,5,+00210,1,99,9","04,5,+00480,1,99,9","07,5,+00600,1,99,9",,"07,99,1,99,9,99,9,99999,9,99,9,99,9",,"10281,1,99999,9","16,1",,,,"MET070METAR ENHK 290350Z 32007KT 9999 VCSH FEW007 SCT016 BKN020 10/08 Q1028;",
"01044099999","2008-07-29T04:50:00","4","70.486675","22.139744","6.4","HASVIK, NO","FM-15","ENHK ","V020","290,1,N,0031,1","00570,1,C,N","011265,1,N,1","+0100,1","+0080,1","99999,9","04,5,+00420,1,99,9","07,5,+00570,1,99,9",,,"07,99,1,99,9,99,9,99999,9,99,9,99,9",,"10281,1,99999,9",,,,,"MET058METAR ENHK 290450Z 29006KT 9999 SCT014 BKN019 10/08 Q1028;",
"01044099999","2008-07-29T07:20:00","4","70.486675","22.139744","6.4","HASVIK, NO","FM-15","ENHK ","V020","310,1,N,0026,1","00360,1,C,N","011265,1,N,1","+0110,1","+0090,1","99999,9","07,5,+00360,1,99,9",,,,"07,99,1,99,9,99,9,99999,9,99,9,99,9",,"10281,1,99999,9","16,1",,,,"MET056METAR ENHK 290720Z 31005KT 9999 VCSH BKN012 11/09 Q1028;",
"01044099999","2008-07-29T08:20:00","4","70.486675","22.139744","6.4","HASVIK, NO","FM-15","ENHK ","V020","320,1,N,0036,1","00300,1,C,N","011265,1,N,1","+0110,1","+0090,1","99999,9","02,5,+00180,1,99,9","07,5,+00300,1,99,9",,,"07,99,1,99,9,99,9,99999,9,99,9,99,9",,"10281,1,99999,9","51,1",,,,"MET062METAR ENHK 290820Z 32007KT 9999 -DZ FEW006 BKN010 11/09 Q1028;",
"01044099999","2008-07-29T10:50:00","4","70.486675","22.139744","6.4","HASVIK, NO","FM-15","ENHK ","V020","330,1,N,0036,1","00240,1,C,N","008000,1,N,1","+0110,1","+0100,1","99999,9","04,5,+00150,1,99,9","07,5,+00240,1,99,9",,,"07,99,1,99,9,99,9,99999,9,99,9,99,9",,"10271,1,99999,9","41,1","51,1",,,"MET075METAR ENHK 291050Z 33007KT 300V360 8000 -DZ BCFG SCT005 BKN008 11/10 Q1027;",
"01044099999","2008-07-29T11:50:00","4","70.486675","22.139744","6.4","HASVIK, NO","FM-15","ENHK ","V020","330,1,N,0031,1","00240,1,C,N","008000,1,N,1","+0110,1","+0100,1","99999,9","04,5,+00150,1,99,9","07,5,+00240,1,99,9",,,"07,99,1,99,9,99,9,99999,9,99,9,99,9",,"10271,1,99999,9","41,1","53,1",,,"MET066METAR ENHK 291150Z 33006KT 8000 DZ BCFG SCT005 BKN008 11/10 Q1027;",
"01044099999","2008-07-29T12:20:00","4","70.486675","22.139744","6.4","HASVIK, NO","FM-15","ENHK ","V020","320,1,N,0031,1","00240,1,C,N","005000,1,N,1","+0110,1","+0100,1","99999,9","04,5,+00150,1,99,9","07,5,+00240,1,99,9",,,"07,99,1,99,9,99,9,99999,9,99,9,99,9",,"10271,1,99999,9","41,1","53,1",,,"MET066METAR ENHK 291220Z 32006KT 5000 DZ BCFG SCT005 BKN008 11/10 Q1027;",
"01044099999","2008-07-29T12:50:00","4","70.486675","22.139744","6.4","HASVIK, NO","FM-15","ENHK ","V020","310,1,N,0026,1","00240,1,C,N","005000,1,N,1","+0110,1","+0100,1","99999,9","04,5,+00150,1,99,9","07,5,+00240,1,99,9",,,"07,99,1,99,9,99,9,99999,9,99,9,99,9",,"10271,1,99999,9","53,1",,,,"MET061METAR ENHK 291250Z 31005KT 5000 DZ SCT005 BKN008 11/10 Q1027;",
"01044099999","2008-07-29T13:50:00","4","70.486675","22.139744","6.4","HASVIK, NO","FM-15","ENHK ","V020","300,1,N,0021,1","00300,1,C,N","008000,1,N,1","+0110,1","+0110,1","99999,9","04,5,+00150,1,99,9","07,5,+00300,1,99,9",,,"07,99,1,99,9,99,9,99999,9,99,9,99,9",,"10261,1,99999,9",,,,,"MET058METAR ENHK 291350Z 30004KT 8000 SCT005 BKN010 11/11 Q1026;",
"01044099999","2008-07-29T14:20:00","4","70.486675","22.139744","6.4","HASVIK, NO","FM-15","ENHK ","V020","310,1,N,0031,1","00300,1,C,N","008000,1,N,1","+0120,1","+0110,1","99999,9","04,5,+00150,1,99,9","07,5,+00300,1,99,9",,,"07,99,1,99,9,99,9,99999,9,99,9,99,9",,"10271,1,99999,9","51,1",,,,"MET062METAR ENHK 291420Z 31006KT 8000 -DZ SCT005 BKN010 12/11 Q1027;",
"01044099999","2008-07-29T14:50:00","4","70.486675","22.139744","6.4","HASVIK, NO","FM-15","ENHK ","V020","320,1,N,0026,1","00300,1,C,N","008000,1,N,1","+0120,1","+0120,1","99999,9","04,5,+00150,1,99,9","07,5,+00300,1,99,9",,,"07,99,1,99,9,99,9,99999,9,99,9,99,9",,"10271,1,99999,9","51,1",,,,"MET062METAR ENHK 291450Z 32005KT 8000 -DZ SCT005 BKN010 12/12 Q1027;",
"01044099999","2008-07-30T03:20:00","4","70.486675","22.139744","6.4","HASVIK, NO","FM-15","ENHK ","V020","999,9,C,0000,1","02550,5,C,N","011265,1,N,1","+0100,1","+0100,1","99999,9","02,5,+00030,1,99,9","07,5,+02550,5,99,9",,,"07,99,1,99,9,99,9,99999,9,99,9,99,9",,"10210,1,99999,9","41,1",,,,"MET063METAR ENHK 300320Z 00000KT 9999 BCFG FEW001 BKN085 10/10 Q1021;",
"01044099999","2008-07-30T03:50:00","4","70.486675","22.139744","6.4","HASVIK, NO","FM-15","ENHK ","V020","290,1,N,0031,1","02400,1,C,N","011265,1,N,1","+0110,1","+0110,1","99999,9","02,5,+00030,1,99,9","07,5,+02400,1,99,9",,,"07,99,1,99,9,99,9,99999,9,99,9,99,9",,"10210,1,99999,9","12,1",,,,"MET069METAR ENHK 300350Z 29006KT 9999 1200W MIFG FEW001 BKN080 11/11 Q1021;",
"01044099999","2008-07-30T04:50:00","4","70.486675","22.139744","6.4","HASVIK, NO","FM-15","ENHK ","V020","320,1,N,0041,1","00660,1,C,N","011265,1,N,1","+0130,1","+0120,1","99999,9","02,5,+00090,1,99,9","04,5,+00660,1,99,9","07,5,+01950,5,99,9",,"07,99,1,99,9,99,9,99999,9,99,9,99,9",,"10210,1,99999,9","41,1",,,,"MET070METAR ENHK 300450Z 32008KT 9999 BCFG FEW003 SCT022 BKN065 13/12 Q1021;",
"01044099999","2008-07-30T05:20:00","4","70.486675","22.139744","6.4","HASVIK, NO","FM-15","ENHK ","V020","300,1,N,0036,1","01950,5,C,N","011265,1,N,1","+0120,1","+0120,1","99999,9","02,5,+00210,1,99,9","07,5,+01950,5,99,9",,,"07,99,1,99,9,99,9,99999,9,99,9,99,9",,"10210,1,99999,9","41,1",,,,"MET069METAR ENHK 300520Z 30007KT 9999 BCFG FEW007 BKN065 12/12 Q1021 -RERA;",
"01044099999","2008-07-30T11:50:00","4","70.486675","22.139744","6.4","HASVIK, NO","FM-15","ENHK ","V020","320,1,N,0036,1","00150,1,C,N","009000,1,N,1","+0110,1","+0100,1","99999,9","04,5,+00120,1,99,9","07,5,+00150,1,99,9",,,"07,99,1,99,9,99,9,99999,9,99,9,99,9",,"10210,1,99999,9","12,1",,,,"MET070METAR ENHK 301150Z 32007KT 9000E 2000W MIFG SCT004 BKN005 11/10 Q1021;",
"01044099999","2008-07-30T12:50:00","4","70.486675","22.139744","6.4","HASVIK, NO","FM-15","ENHK ","V020","340,1,N,0021,1","00180,1,C,N","011265,1,N,1","+0110,1","+0100,1","99999,9","04,5,+00120,1,99,9","07,5,+00180,1,99,9",,,"07,99,1,99,9,99,9,99999,9,99,9,99,9",,"10210,1,99999,9","12,1",,,,"MET071METAR ENHK 301250Z 34004KT 310V020 9999 MIFG SCT004 BKN006 11/10 Q1021;",
"01044099999","2008-07-30T13:20:00","4","70.486675","22.139744","6.4","HASVIK, NO","FM-15","ENHK ","V020","240,1,N,0036,1","00150,1,C,N","011265,1,N,1","+0110,1","+0100,1","99999,9","02,5,+00120,1,99,9","04,5,+00150,1,99,9","07,5,+00210,1,99,9",,"07,99,1,99,9,99,9,99999,9,99,9,99,9",,"10200,1,99999,9","40,1",,,,"MET078METAR ENHK 301320Z 24007KT 310V030 9999 VCFG FEW004 SCT005 BKN007 11/10 Q1020;",
"01044099999","2008-07-30T13:50:00","4","70.486675","22.139744","6.4","HASVIK, NO","FM-15","ENHK ","V020","340,1,N,0031,1","00150,1,C,N","011265,1,N,1","+0110,1","+0100,1","99999,9","02,5,+00120,1,99,9","04,5,+00150,1,99,9","07,5,+00210,1,99,9",,"07,99,1,99,9,99,9,99999,9,99,9,99,9",,"10200,1,99999,9","40,1",,,,"MET070METAR ENHK 301350Z 34006KT 9999 VCFG FEW004 SCT005 BKN007 11/10 Q1020;",
"01044099999","2008-07-31T03:20:00","4","70.486675","22.139744","6.4","HASVIK, NO","FM-15","ENHK ","V020","030,1,N,0021,1","00750,1,C,N","011265,1,N,1","+0090,1","+0040,1","99999,9","02,5,+00600,1,99,9","07,5,+00750,1,99,9",,,"07,99,1,99,9,99,9,99999,9,99,9,99,9",,"10220,1,99999,9",,,,,"MET066METAR ENHK 310320Z 03004KT 360V070 9999 FEW020 BKN025 09/04 Q1022;",
"01044099999","2008-07-31T03:50:00","4","70.486675","22.139744","6.4","HASVIK, NO","FM-15","ENHK ","V020","020,1,N,0021,1","00720,1,C,N","011265,1,N,1","+0090,1","+0040,1","99999,9","02,5,+00600,1,99,9","07,5,+00720,1,99,9",,,"07,99,1,99,9,99,9,99999,9,99,9,99,9",,"10220,1,99999,9",,,,,"MET066METAR ENHK 310350Z 02004KT 350V060 9999 FEW020 BKN024 09/04 Q1022;",
"01044099999","2008-07-31T04:50:00","4","70.486675","22.139744","6.4","HASVIK, NO","FM-15","ENHK ","V020","040,1,N,0031,1","00780,1,C,N","011265,1,N,1","+0090,1","+0040,1","99999,9","02,5,+00600,1,99,9","07,5,+00780,1,99,9",,,"07,99,1,99,9,99,9,99999,9,99,9,99,9",,"10220,1,99999,9",,,,,"MET066METAR ENHK 310450Z 04006KT 360V090 9999 FEW020 BKN026 09/04 Q1022;",
"01044099999","2008-07-31T12:20:00","4","70.486675","22.139744","6.4","HASVIK, NO","FM-15","ENHK ","V020","340,1,N,0046,1","01080,1,C,N","011265,1,N,1","+0080,1","+0010,1","99999,9","02,5,+00600,1,99,9","07,5,+01080,1,99,9",,,"07,99,1,99,9,99,9,99999,9,99,9,99,9",,"10230,1,99999,9",,,,,"MET066METAR ENHK 311220Z 34009KT 310V010 9999 FEW020 BKN036 08/01 Q1023;",
"01044099999","2008-07-31T13:20:00","4","70.486675","22.139744","6.4","HASVIK, NO","FM-15","ENHK ","V020","350,1,N,0046,1","01110,1,C,N","011265,1,N,1","+0090,1","+0020,1","99999,9","02,5,+00660,1,99,9","07,5,+01110,1,99,9",,,"07,99,1,99,9,99,9,99999,9,99,9,99,9",,"10230,1,99999,9",,,,,"MET058METAR ENHK 311320Z 35009KT 9999 FEW022 BKN037 09/02 Q1023;",
"01044099999","2008-07-31T14:20:00","4","70.486675","22.139744","6.4","HASVIK, NO","FM-15","ENHK ","V020","350,1,N,0041,1","01110,1,C,N","011265,1,N,1","+0090,1","+0030,1","99999,9","02,5,+00750,1,99,9","07,5,+01110,1,99,9",,,"07,99,1,99,9,99,9,99999,9,99,9,99,9",,"10230,1,99999,9",,,,,"MET066METAR ENHK 311420Z 35008KT 320V050 9999 FEW025 BKN037 09/03 Q1023;",
"01044099999","2008-08-01T03:20:00","4","70.486675","22.139744","6.4","HASVIK, NO","FM-15","ENHK ","V020","320,1,N,0062,1","00240,1,C,N","009000,1,N,1","+0060,1","+0050,1","99999,9","02,5,+00120,1,99,9","04,5,+00240,1,99,9","07,5,+00450,1,99,9",,"07,99,1,99,9,99,9,99999,9,99,9,99,9",,"10230,1,99999,9","41,1","51,1",,,"MET074METAR ENHK 010320Z 32012KT 9000 -DZ BCFG FEW004 SCT008 BKN015 06/05 Q1023;",
"01044099999","2008-08-01T03:50:00","4","70.486675","22.139744","6.4","HASVIK, NO","FM-15","ENHK ","V020","320,1,N,0041,1","00420,1,C,N","011265,1,N,1","+0070,1","+0050,1","99999,9","02,5,+00150,1,99,9","04,5,+00420,1,99,9","07,5,+00660,1,99,9",,"07,99,1,99,9,99,9,99999,9,99,9,99,9",,"10230,1,99999,9","41,1","51,1",,,"MET074METAR ENHK 010350Z 32008KT 9999 -DZ BCFG FEW005 SCT014 BKN022 07/05 Q1023;",
"01044099999","2008-08-01T04:20:00","4","70.486675","22.139744","6.4","HASVIK, NO","FM-15","ENHK ","V020","290,1,N,0021,1","00600,1,C,N","011265,1,N,1","+0060,1","+0060,1","99999,9","02,5,+00300,1,99,9","04,5,+00600,1,99,9","07,5,+00720,1,99,9",,"07,99,1,99,9,99,9,99999,9,99,9,99,9",,"10230,1,99999,9","16,1","41,1",,,"MET088METAR ENHK 010420Z 29004KT 260V320 9999 BCFG VCSH FEW010 SCT020 BKN024 06/06 Q1023 REDZ;",
"01044099999","2008-08-01T04:50:00","4","70.486675","22.139744","6.4","HASVIK, NO","FM-15","ENHK ","V020","330,1,N,0031,1","00660,1,C,N","011265,1,N,1","+0070,1","+0050,1","99999,9","02,5,+00240,1,99,9","07,5,+00660,1,99,9",,,"07,99,1,99,9,99,9,99999,9,99,9,99,9",,"10230,1,99999,9","41,1",,,,"MET077METAR ENHK 010450Z 33006KT 260V020 9999 BCFG FEW008 BKN022 07/05 Q1023 -RERA;",
"01044099999","2008-08-01T10:20:00","4","70.486675","22.139744","6.4","HASVIK, NO","FM-15","ENHK ","V020","320,1,N,0082,1","01050,1,C,N","011265,1,N,1","+0090,1","+0040,1","99999,9","02,5,+00660,1,99,9","07,5,+01050,1,99,9",,,"07,99,1,99,9,99,9,99999,9,99,9,99,9",,"10220,1,99999,9",,,,,"MET058METAR ENHK 011020Z 32016KT 9999 FEW022 BKN035 09/04 Q1022;",
"01044099999","2008-08-01T11:50:00","4","70.486675","22.139744","6.4","HASVIK, NO","FM-15","ENHK ","V020","320,1,N,0082,1","01500,1,C,N","011265,1,N,1","+0090,1","+0050,1","99999,9","02,5,+00900,1,99,9","07,5,+01500,1,99,9",,,"07,99,1,99,9,99,9,99999,9,99,9,99,9",,"10220,1,99999,9",,,,,"MET058METAR ENHK 011150Z 32016KT 9999 FEW030 BKN050 09/05 Q1022;",
"01044099999","2008-08-01T12:20:00","4","70.486675","22.139744","6.4","HASVIK, NO","FM-15","ENHK ","V020","320,1,N,0077,1","01500,1,C,N","011265,1,N,1","+0100,1","+0050,1","99999,9","02,5,+00900,1,99,9","07,5,+01500,1,99,9",,,"07,99,1,99,9,99,9,99999,9,99,9,99,9",,"10220,1,99999,9",,,,,"MET058METAR ENHK 011220Z 32015KT 9999 FEW030 BKN050 10/05 Q1022;",
"01044099999","2008-08-01T12:50:00","4","70.486675","22.139744","6.4","HASVIK, NO","FM-15","ENHK ","V020","320,1,N,0082,1","01500,1,C,N","011265,1,N,1","+0100,1","+0050,1","99999,9","04,5,+00840,1,99,9","07,5,+01500,1,99,9",,,"07,99,1,99,9,99,9,99999,9,99,9,99,9",,"10220,1,99999,9",,,,,"MET058METAR ENHK 011250Z 32016KT 9999 SCT028 BKN050 10/05 Q1022;",
"01044099999","2008-08-01T13:20:00","4","70.486675","22.139744","6.4","HASVIK, NO","FM-15","ENHK ","V020","320,1,N,0082,1","00840,1,C,N","011265,1,N,1","+0090,1","+0060,1","99999,9","02,5,+00450,1,99,9","04,5,+00840,1,99,9","07,5,+01500,1,99,9",,"07,99,1,99,9,99,9,99999,9,99,9,99,9",,"10220,1,99999,9",,,,,"MET065METAR ENHK 011320Z 32016KT 9999 FEW015 SCT028 BKN050 09/06 Q1022;",
"01044099999","2008-08-01T14:50:00","4","70.486675","22.139744","6.4","HASVIK, NO","FM-15","ENHK ","V020","310,1,N,0077,1","01050,1,C,N","011265,1,N,1","+0090,1","+0050,1","99999,9","04,5,+00750,1,99,9","07,5,+01050,1,99,9",,,"07,99,1,99,9,99,9,99999,9,99,9,99,9",,"10210,1,99999,9",,,,,"MET058METAR ENHK 011450Z 31015KT 9999 SCT025 BKN035 09/05 Q1021;",
"01044099999","2008-08-03T11:50:00","4","70.486675","22.139744","6.4","HASVIK, NO","FM-15","ENHK ","V020","140,1,N,0026,1","01500,1,C,N","011265,1,N,1","+0110,1","+0070,1","99999,9","02,5,+00750,1,99,9","07,5,+01500,1,99,9",,,"07,99,1,99,9,99,9,99999,9,99,9,99,9",,"10169,1,99999,9",,,,,"MET058METAR ENHK 031150Z 14005KT 9999 FEW025 BKN050 11/07 Q1017;",
"01044099999","2008-08-03T12:20:00","4","70.486675","22.139744","6.4","HASVIK, NO","FM-15","ENHK ","V020","999,9,V,0010,1","99999,9,C,N","011265,1,N,1","+0100,1","+0060,1","99999,9","02,5,+00750,1,99,9","04,5,+01500,1,99,9",,,"04,99,1,99,9,99,9,99999,9,99,9,99,9",,"10169,1,99999,9",,,,,"MET058METAR ENHK 031220Z VRB02KT 9999 FEW025 SCT050 10/06 Q1017;","P01 015003SCOCIG"
"01044099999","2008-08-03T12:50:00","4","70.486675","22.139744","6.4","HASVIK, NO","FM-15","ENHK ","V020","300,1,N,0026,1","22000,1,9,N","011265,1,N,1","+0100,1","+0060,1","99999,9","02,5,+00750,1,99,9",,,,"02,99,1,99,9,99,9,99999,9,99,9,99,9",,"10169,1,99999,9",,,,,"MET051METAR ENHK 031250Z 30005KT 9999 FEW025 10/06 Q1017;",
"01044099999","2008-08-03T13:20:00","4","70.486675","22.139744","6.4","HASVIK, NO","FM-15","ENHK ","V020","290,1,N,0026,1","22000,1,9,N","011265,1,N,1","+0100,1","+0060,1","99999,9","02,5,+00750,1,99,9",,,,"02,99,1,99,9,99,9,99999,9,99,9,99,9",,"10169,1,99999,9",,,,,"MET051METAR ENHK 031320Z 29005KT 9999 FEW025 10/06 Q1017;",
"01044099999","2008-08-03T13:50:00","4","70.486675","22.139744","6.4","HASVIK, NO","FM-15","ENHK ","V020","310,1,N,0026,1","22000,1,9,N","011265,1,N,1","+0110,1","+0060,1","99999,9","02,5,+00750,1,99,9",,,,"02,99,1,99,9,99,9,99999,9,99,9,99,9",,"10169,1,99999,9",,,,,"MET051METAR ENHK 031350Z 31005KT 9999 FEW025 11/06 Q1017;",
"01044099999","2008-08-03T14:20:00","4","70.486675","22.139744","6.4","HASVIK, NO","FM-15","ENHK ","V020","140,1,N,0031,1","22000,1,9,N","011265,1,N,1","+0110,1","+0070,1","99999,9","02,5,+00900,1,99,9",,,,"02,99,1,99,9,99,9,99999,9,99,9,99,9",,"10169,1,99999,9",,,,,"MET051METAR ENHK 031420Z 14006KT 9999 FEW030 11/07 Q1017;",
"01044099999","2008-08-04T03:20:00","4","70.486675","22.139744","6.4","HASVIK, NO","FM-15","ENHK ","V020","100,1,N,0031,1","99999,9,C,Y","009900,1,N,1","+0080,1","+0060,1","99999,9",,,,,,,"10169,1,99999,9",,,,,"MET045METAR ENHK 040320Z 10006KT CAVOK 08/06 Q1017;",
"01044099999","2008-08-04T03:50:00","4","70.486675","22.139744","6.4","HASVIK, NO","FM-15","ENHK ","V020","120,1,N,0041,1","99999,9,C,Y","009900,1,N,1","+0090,1","+0060,1","99999,9",,,,,,,"10169,1,99999,9",,,,,"MET045METAR ENHK 040350Z 12008KT CAVOK 09/06 Q1017;",
"01044099999","2008-08-04T04:50:00","4","70.486675","22.139744","6.4","HASVIK, NO","FM-15","ENHK ","V020","100,1,N,0046,1","99999,9,C,Y","009900,1,N,1","+0090,1","+0060,1","99999,9",,,,,,,"10169,1,99999,9",,,,,"MET045METAR ENHK 040450Z 10009KT CAVOK 09/06 Q1017;",
"01044099999","2008-08-04T05:20:00","4","70.486675","22.139744","6.4","HASVIK, NO","FM-15","ENHK ","V020","110,1,N,0041,1","99999,9,C,Y","009900,1,N,1","+0090,1","+0060,1","99999,9",,,,,,,"10169,1,99999,9",,,,,"MET045METAR ENHK 040520Z 11008KT CAVOK 09/06 Q1017;",
"01044099999","2008-08-04T10:50:00","4","70.486675","22.139744","6.4","HASVIK, NO","FM-15","ENHK ","V020","150,1,N,0041,1","99999,9,C,Y","009900,1,N,1","+0140,1","+0070,1","99999,9",,,,,,,"10159,1,99999,9",,,,,"MET045METAR ENHK 041050Z 15008KT CAVOK 14/07 Q1016;",
"01044099999","2008-08-04T11:50:00","4","70.486675","22.139744","6.4","HASVIK, NO","FM-15","ENHK ","V020","140,1,N,0041,1","99999,9,C,Y","009900,1,N,1","+0140,1","+0070,1","99999,9",,,,,,,"10159,1,99999,9",,,,,"MET045METAR ENHK 041150Z 14008KT CAVOK 14/07 Q1016;",
"01044099999","2008-08-04T12:20:00","4","70.486675","22.139744","6.4","HASVIK, NO","FM-15","ENHK ","V020","120,1,N,0046,1","99999,9,C,Y","009900,1,N,1","+0140,1","+0060,1","99999,9",,,,,,,"10159,1,99999,9",,,,,"MET045METAR ENHK 041220Z 12009KT CAVOK 14/06 Q1016;",
"01044099999","2008-08-04T12:50:00","4","70.486675","22.139744","6.4","HASVIK, NO","FM-15","ENHK ","V020","110,1,N,0046,1","99999,9,C,Y","009900,1,N,1","+0140,1","+0060,1","99999,9",,,,,,,"10159,1,99999,9",,,,,"MET045METAR ENHK 041250Z 11009KT CAVOK 14/06 Q1016;",
"01044099999","2008-08-04T13:20:00","4","70.486675","22.139744","6.4","HASVIK, NO","FM-15","ENHK ","V020","120,1,N,0046,1","99999,9,C,Y","009900,1,N,1","+0130,1","+0050,1","99999,9",,,,,,,"10159,1,99999,9",,,,,"MET045METAR ENHK 041320Z 12009KT CAVOK 13/05 Q1016;",
"01044099999","2008-08-04T13:50:00","4","70.486675","22.139744","6.4","HASVIK, NO","FM-15","ENHK ","V020","120,1,N,0057,1","99999,9,C,Y","009900,1,N,1","+0130,1","+0060,1","99999,9",,,,,,,"10159,1,99999,9",,,,,"MET045METAR ENHK 041350Z 12011KT CAVOK 13/06 Q1016;",
"01044099999","2008-08-04T14:20:00","4","70.486675","22.139744","6.4","HASVIK, NO","FM-15","ENHK ","V020","120,1,N,0057,1","99999,9,C,Y","009900,1,N,1","+0120,1","+0060,1","99999,9",,,,,,,"10159,1,99999,9",,,,,"MET045METAR ENHK 041420Z 12011KT CAVOK 12/06 Q1016;",
"01044099999","2008-08-05T03:20:00","4","70.486675","22.139744","6.4","HASVIK, NO","FM-15","ENHK ","V020","140,1,N,0031,1","99999,9,C,Y","009900,1,N,1","+0110,1","+0060,1","99999,9",,,,,,,"10139,1,99999,9",,,,,"MET045METAR ENHK 050320Z 14006KT CAVOK 11/06 Q1014;",
"01044099999","2008-08-05T03:50:00","4","70.486675","22.139744","6.4","HASVIK, NO","FM-15","ENHK ","V020","130,1,N,0026,1","99999,9,C,Y","009900,1,N,1","+0110,1","+0050,1","99999,9",,,,,,,"10149,1,99999,9",,,,,"MET045METAR ENHK 050350Z 13005KT CAVOK 11/05 Q1015;",
"01044099999","2008-08-05T04:20:00","4","70.486675","22.139744","6.4","HASVIK, NO","FM-15","ENHK ","V020","130,1,N,0026,1","99999,9,C,Y","009900,1,N,1","+0120,1","+0050,1","99999,9",,,,,,,"10149,1,99999,9",,,,,"MET045METAR ENHK 050420Z 13005KT CAVOK 12/05 Q1015;",
"01044099999","2008-08-05T04:50:00","4","70.486675","22.139744","6.4","HASVIK, NO","FM-15","ENHK ","V020","130,1,N,0031,1","99999,9,C,Y","009900,1,N,1","+0120,1","+0050,1","99999,9",,,,,,,"10139,1,99999,9",,,,,"MET045METAR ENHK 050450Z 13006KT CAVOK 12/05 Q1014;",
"01044099999","2008-08-05T05:20:00","4","70.486675","22.139744","6.4","HASVIK, NO","FM-15","ENHK ","V020","130,1,N,0036,1","99999,9,C,Y","009900,1,N,1","+0120,1","+0070,1","99999,9",,,,,,,"10139,1,99999,9",,,,,"MET045METAR ENHK 050520Z 13007KT CAVOK 12/07 Q1014;",
"01044099999","2008-08-05T12:50:00","4","70.486675","22.139744","6.4","HASVIK, NO","FM-15","ENHK ","V020","300,1,N,0026,1","99999,9,C,Y","009900,1,N,1","+0150,1","+0060,1","99999,9",,,,,,,"10149,1,99999,9",,,,,"MET053METAR ENHK 051250Z 30005KT 260V350 CAVOK 15/06 Q1015;",
"01044099999","2008-08-05T13:20:00","4","70.486675","22.139744","6.4","HASVIK, NO","FM-15","ENHK ","V020","300,1,N,0036,1","99999,9,C,N","011265,1,N,1","+0140,1","+0060,1","99999,9","02,5,+01350,1,99,9","04,5,+02010,5,99,9",,,"04,99,1,99,9,99,9,99999,9,99,9,99,9",,"10139,1,99999,9",,,,,"MET058METAR ENHK 051320Z 30007KT 9999 FEW045 SCT067 14/06 Q1014;","P01 020103SCOCIG"
"01044099999","2008-08-05T13:50:00","4","70.486675","22.139744","6.4","HASVIK, NO","FM-15","ENHK ","V020","290,1,N,0036,1","02010,5,C,N","011265,1,N,1","+0130,1","+0060,1","99999,9","02,5,+01050,1,99,9","07,5,+02010,5,99,9",,,"07,99,1,99,9,99,9,99999,9,99,9,99,9",,"10139,1,99999,9",,,,,"MET058METAR ENHK 051350Z 29007KT 9999 FEW035 BKN067 13/06 Q1014;",
"01044099999","2008-08-06T03:20:00","4","70.486675","22.139744","6.4","HASVIK, NO","FM-15","ENHK ","V020","320,1,N,0036,1","00480,1,C,N","011265,1,N,1","+0080,1","+0050,1","99999,9","04,5,+00300,1,99,9","07,5,+00480,1,99,9",,,"07,99,1,99,9,99,9,99999,9,99,9,99,9",,"10129,1,99999,9",,,,,"MET058METAR ENHK 060320Z 32007KT 9999 SCT010 BKN016 08/05 Q1013;",
"01044099999","2008-08-06T03:50:00","4","70.486675","22.139744","6.4","HASVIK, NO","FM-15","ENHK ","V020","330,1,N,0031,1","00510,1,C,N","011265,1,N,1","+0080,1","+0060,1","99999,9","04,5,+00330,1,99,9","07,5,+00510,1,99,9",,,"07,99,1,99,9,99,9,99999,9,99,9,99,9",,"10129,1,99999,9",,,,,"MET058METAR ENHK 060350Z 33006KT 9999 SCT011 BKN017 08/06 Q1013;",
"01044099999","2008-08-06T04:50:00","4","70.486675","22.139744","6.4","HASVIK, NO","FM-15","ENHK ","V020","320,1,N,0036,1","00360,1,C,N","011265,1,N,1","+0080,1","+0060,1","99999,9","07,5,+00360,1,99,9",,,,"07,99,1,99,9,99,9,99999,9,99,9,99,9",,"10129,1,99999,9",,,,,"MET051METAR ENHK 060450Z 32007KT 9999 BKN012 08/06 Q1013;",
"01044099999","2008-08-06T05:50:00","4","70.486675","22.139744","6.4","HASVIK, NO","FM-15","ENHK ","V020","330,1,N,0031,1","00390,1,C,N","011265,1,N,1","+0080,1","+0060,1","99999,9","07,5,+00390,1,99,9",,,,"07,99,1,99,9,99,9,99999,9,99,9,99,9",,"10129,1,99999,9",,,,,"MET051METAR ENHK 060550Z 33006KT 9999 BKN013 08/06 Q1013;",
"01044099999","2008-08-06T10:50:00","4","70.486675","22.139744","6.4","HASVIK, NO","FM-15","ENHK ","V020","320,1,N,0026,1","00330,1,C,N","011265,1,N,1","+0080,1","+0060,1","99999,9","02,5,+00180,1,99,9","07,5,+00330,1,99,9",,,"07,99,1,99,9,99,9,99999,9,99,9,99,9",,"10119,1,99999,9","51,1",,,,"MET070METAR ENHK 061050Z 32005KT 280V350 9999 -DZ FEW006 BKN011 08/06 Q1012;",
"01044099999","2008-08-06T13:20:00","4","70.486675","22.139744","6.4","HASVIK, NO","FM-15","ENHK ","V020","310,1,N,0015,1","00360,1,C,N","011265,1,N,1","+0080,1","+0070,1","99999,9","02,5,+00210,1,99,9","04,5,+00360,1,99,9","07,5,+00630,1,99,9",,"07,99,1,99,9,99,9,99999,9,99,9,99,9",,"10108,1,99999,9",,,,,"MET073METAR ENHK 061320Z 31003KT 270V360 9999 FEW007 SCT012 BKN021 08/07 Q1011;",
"01044099999","2008-08-06T13:50:00","4","70.486675","22.139744","6.4","HASVIK, NO","FM-15","ENHK ","V020","320,1,N,0041,1","00420,1,C,N","011265,1,N,1","+0090,1","+0070,1","99999,9","02,5,+00270,1,99,9","04,5,+00420,1,99,9","07,5,+00900,1,99,9",,"07,99,1,99,9,99,9,99999,9,99,9,99,9",,"10108,1,99999,9",,,,,"MET073METAR ENHK 061350Z 32008KT 300V360 9999 FEW009 SCT014 BKN030 09/07 Q1011;",
"01044099999","2008-08-06T20:20:00","4","70.486675","22.139744","6.4","HASVIK, NO","FM-15","ENHK ","V020","330,1,N,0026,1","00750,1,C,N","011265,1,N,1","+0070,1","+0050,1","99999,9","02,5,+00450,1,99,9","07,5,+00750,1,99,9",,,"07,99,1,99,9,99,9,99999,9,99,9,99,9",,"10091,1,99999,9",,,,,"MET058METAR ENHK 062020Z 33005KT 9999 FEW015 BKN025 07/05 Q1009;",
"01044099999","2008-08-07T03:20:00","4","70.486675","22.139744","6.4","HASVIK, NO","FM-15","ENHK ","V020","290,1,N,0031,1","00990,1,C,N","011265,1,N,1","+0080,1","+0030,1","99999,9","04,5,+00780,1,99,9","07,5,+00990,1,99,9",,,"07,99,1,99,9,99,9,99999,9,99,9,99,9",,"10081,1,99999,9",,,,,"MET058METAR ENHK 070320Z 29006KT 9999 SCT026 BKN033 08/03 Q1008;",
"01044099999","2008-08-07T03:50:00","4","70.486675","22.139744","6.4","HASVIK, NO","FM-15","ENHK ","V020","270,1,N,0036,1","01020,1,C,N","011265,1,N,1","+0080,1","+0050,1","99999,9","04,5,+00810,1,99,9","07,5,+01020,1,99,9",,,"07,99,1,99,9,99,9,99999,9,99,9,99,9",,"10081,1,99999,9",,,,,"MET058METAR ENHK 070350Z 27007KT 9999 SCT027 BKN034 08/05 Q1008;",
"01044099999","2008-08-07T04:20:00","4","70.486675","22.139744","6.4","HASVIK, NO","FM-15","ENHK ","V020","260,1,N,0041,1","00960,1,C,N","011265,1,N,1","+0080,1","+0050,1","99999,9","04,5,+00810,1,99,9","07,5,+00960,1,99,9",,,"07,99,1,99,9,99,9,99999,9,99,9,99,9",,"10081,1,99999,9",,,,,"MET058METAR ENHK 070420Z 26008KT 9999 SCT027 BKN032 08/05 Q1008;",
"01044099999","2008-08-07T04:50:00","4","70.486675","22.139744","6.4","HASVIK, NO","FM-15","ENHK ","V020","290,1,N,0046,1","00840,1,C,N","011265,1,N,1","+0080,1","+0060,1","99999,9","02,5,+00420,1,99,9","04,5,+00840,1,99,9","07,5,+00990,1,99,9",,"07,99,1,99,9,99,9,99999,9,99,9,99,9",,"10081,1,99999,9","81,1",,,,"MET070METAR ENHK 070450Z 29009KT 9999 SHRA FEW014 SCT028 BKN033 08/06 Q1008;",
"01044099999","2008-08-07T05:20:00","4","70.486675","22.139744","6.4","HASVIK, NO","FM-15","ENHK ","V020","300,1,N,0046,1","00780,1,C,N","011265,1,N,1","+0080,1","+0060,1","99999,9","02,5,+00390,1,99,9","04,5,+00780,1,99,9","07,5,+00960,1,99,9",,"07,99,1,99,9,99,9,99999,9,99,9,99,9",,"10081,1,99999,9","80,1",,,,"MET071METAR ENHK 070520Z 30009KT 9999 -SHRA FEW013 SCT026 BKN032 08/06 Q1008;",
"01044099999","2008-08-07T08:20:00","4","70.486675","22.139744","6.4","HASVIK, NO","FM-15","ENHK ","V020","280,1,N,0046,1","00660,1,C,N","011265,1,N,1","+0090,1","+0060,1","99999,9","02,5,+00330,1,99,9","04,5,+00660,1,99,9","07,5,+01020,1,99,9",,"07,99,1,99,9,99,9,99999,9,99,9,99,9",,"10071,1,99999,9",,,,,"MET065METAR ENHK 070820Z 28009KT 9999 FEW011 SCT022 BKN034 09/06 Q1007;",
"01044099999","2008-08-07T12:50:00","4","70.486675","22.139744","6.4","HASVIK, NO","FM-15","ENHK ","V020","310,1,N,0077,1","00750,1,C,N","011265,1,N,1","+0080,1","+0060,1","99999,9","02,5,+00300,1,99,9","04,5,+00750,1,99,9","07,5,+01050,1,99,9",,"07,99,1,99,9,99,9,99999,9,99,9,99,9",,"10071,1,99999,9","53,1",,,,"MET068METAR ENHK 071250Z 31015KT 9999 DZ FEW010 SCT025 BKN035 08/06 Q1007;",
"01044099999","2008-08-07T13:20:00","4","70.486675","22.139744","6.4","HASVIK, NO","FM-15","ENHK ","V020","290,1,N,0057,1","00750,1,C,N","011265,1,N,1","+0080,1","+0050,1","99999,9","02,5,+00450,1,99,9","04,5,+00750,1,99,9","07,5,+01050,1,99,9",,"07,99,1,99,9,99,9,99999,9,99,9,99,9",,"10071,1,99999,9",,,,,"MET065METAR ENHK 071320Z 29011KT 9999 FEW015 SCT025 BKN035 08/05 Q1007;",
"01044099999","2008-08-07T14:20:00","4","70.486675","22.139744","6.4","HASVIK, NO","FM-15","ENHK ","V020","290,1,N,0057,1","00750,1,C,N","011265,1,N,1","+0090,1","+0050,1","99999,9","02,5,+00450,1,99,9","04,5,+00750,1,99,9","07,5,+01050,1,99,9",,"07,99,1,99,9,99,9,99999,9,99,9,99,9",,"10061,1,99999,9",,,,,"MET065METAR ENHK 071420Z 29011KT 9999 FEW015 SCT025 BKN035 09/05 Q1006;",
"01044099999","2008-08-08T03:20:00","4","70.486675","22.139744","6.4","HASVIK, NO","FM-15","ENHK ","V020","270,1,N,0051,1","00600,1,C,N","011265,1,N,1","+0080,1","+0050,1","99999,9","02,5,+00450,1,99,9","04,5,+00600,1,99,9","07,5,+00900,1,99,9",,"07,99,1,99,9,99,9,99999,9,99,9,99,9",,"10041,1,99999,9",,,,,"MET065METAR ENHK 080320Z 27010KT 9999 FEW015 SCT020 BKN030 08/05 Q1004;",
"01044099999","2008-08-08T03:50:00","4","70.486675","22.139744","6.4","HASVIK, NO","FM-15","ENHK ","V020","270,1,N,0057,1","00900,1,C,N","011265,1,N,1","+0080,1","+0050,1","99999,9","04,5,+00750,1,99,9","07,5,+00900,1,99,9",,,"07,99,1,99,9,99,9,99999,9,99,9,99,9",,"10031,1,99999,9",,,,,"MET058METAR ENHK 080350Z 27011KT 9999 SCT025 BKN030 08/05 Q1003;",
"01044099999","2008-08-08T04:20:00","4","70.486675","22.139744","6.4","HASVIK, NO","FM-15","ENHK ","V020","270,1,N,0051,1","00900,1,C,N","011265,1,N,1","+0090,1","+0050,1","99999,9","04,5,+00600,1,99,9","07,5,+00900,1,99,9",,,"07,99,1,99,9,99,9,99999,9,99,9,99,9",,"10031,1,99999,9",,,,,"MET058METAR ENHK 080420Z 27010KT 9999 SCT020 BKN030 09/05 Q1003;",
"01044099999","2008-08-08T05:20:00","4","70.486675","22.139744","6.4","HASVIK, NO","FM-15","ENHK ","V020","270,1,N,0062,1","00900,1,C,N","011265,1,N,1","+0080,1","+0050,1","99999,9","04,5,+00600,1,99,9","07,5,+00900,1,99,9",,,"07,99,1,99,9,99,9,99999,9,99,9,99,9",,"10041,1,99999,9",,,,,"MET058METAR ENHK 080520Z 27012KT 9999 SCT020 BKN030 08/05 Q1004;",
"01044099999","2008-08-08T12:20:00","4","70.486675","22.139744","6.4","HASVIK, NO","FM-15","ENHK ","V020","320,1,N,0026,1","00510,1,C,N","011265,1,N,1","+0080,1","+0070,1","99999,9","02,5,+00270,1,99,9","04,5,+00510,1,99,9","07,5,+00960,1,99,9",,"07,99,1,99,9,99,9,99999,9,99,9,99,9",,"10051,1,99999,9","40,1",,,,"MET070METAR ENHK 081220Z 32005KT 9999 VCFG FEW009 SCT017 BKN032 08/07 Q1005;",
"01044099999","2008-08-08T13:20:00","4","70.486675","22.139744","6.4","HASVIK, NO","FM-15","ENHK ","V020","340,1,N,0036,1","00990,1,C,N","011265,1,N,1","+0090,1","+0050,1","99999,9","02,5,+00300,1,99,9","07,5,+00990,1,99,9",,,"07,99,1,99,9,99,9,99999,9,99,9,99,9",,"10051,1,99999,9",,,,,"MET066METAR ENHK 081320Z 34007KT 300V360 9999 FEW010 BKN033 09/05 Q1005;",
"01044099999","2008-08-08T14:20:00","4","70.486675","22.139744","6.4","HASVIK, NO","FM-15","ENHK ","V020","350,1,N,0041,1","00630,1,C,N","011265,1,N,1","+0090,1","+0050,1","99999,9","02,5,+00300,1,99,9","04,5,+00630,1,99,9","07,5,+00930,1,99,9",,"07,99,1,99,9,99,9,99999,9,99,9,99,9",,"10051,1,99999,9",,,,,"MET073METAR ENHK 081420Z 35008KT 330V030 9999 FEW010 SCT021 BKN031 09/05 Q1005;",
"01044099999","2008-08-10T11:50:00","4","70.486675","22.139744","6.4","HASVIK, NO","FM-15","ENHK ","V020","310,1,N,0041,1","22000,1,9,N","011265,1,N,1","+0100,1","+0020,1","99999,9","02,5,+00900,1,99,9",,,,"02,99,1,99,9,99,9,99999,9,99,9,99,9",,"10020,1,99999,9",,,,,"MET051METAR ENHK 101150Z 31008KT 9999 FEW030 10/02 Q1002;",
"01044099999","2008-08-10T12:50:00","4","70.486675","22.139744","6.4","HASVIK, NO","FM-15","ENHK ","V020","310,1,N,0041,1","22000,1,9,N","011265,1,N,1","+0110,1","+0030,1","99999,9","02,5,+00900,1,99,9",,,,"02,99,1,99,9,99,9,99999,9,99,9,99,9",,"10020,1,99999,9",,,,,"MET059METAR ENHK 101250Z 31008KT 270V340 9999 FEW030 11/03 Q1002;",
"01044099999","2008-08-11T03:20:00","4","70.486675","22.139744","6.4","HASVIK, NO","FM-15","ENHK ","V020","110,1,N,0072,1","99999,9,C,Y","009900,1,N,1","+0100,1","+0060,1","99999,9",,,,,,,"10000,1,99999,9",,,,,"MET045METAR ENHK 110320Z 11014KT CAVOK 10/06 Q1000;",
"01044099999","2008-08-11T03:50:00","4","70.486675","22.139744","6.4","HASVIK, NO","FM-15","ENHK ","V020","100,1,N,0072,1","99999,9,C,Y","009900,1,N,1","+0100,1","+0060,1","99999,9",,,,,,,"10000,1,99999,9",,,,,"MET045METAR ENHK 110350Z 10014KT CAVOK 10/06 Q1000;",
"01044099999","2008-08-11T04:20:00","4","70.486675","22.139744","6.4","HASVIK, NO","FM-15","ENHK ","V020","100,1,N,0072,1","99999,9,C,Y","009900,1,N,1","+0100,1","+0060,1","99999,9",,,,,,,"10000,1,99999,9",,,,,"MET045METAR ENHK 110420Z 10014KT CAVOK 10/06 Q1000;",
"01044099999","2008-08-11T04:50:00","4","70.486675","22.139744","6.4","HASVIK, NO","FM-15","ENHK ","V020","100,1,N,0082,1","99999,9,C,Y","009900,1,N,1","+0110,1","+0060,1","99999,9",,,,,,,"10000,1,99999,9",,,,,"MET045METAR ENHK 110450Z 10016KT CAVOK 11/06 Q1000;",
"01044099999","2008-08-11T05:20:00","4","70.486675","22.139744","6.4","HASVIK, NO","FM-15","ENHK ","V020","100,1,N,0082,1","99999,9,C,Y","009900,1,N,1","+0110,1","+0060,1","99999,9",,,,,,,"10000,1,99999,9",,,,,"MET045METAR ENHK 110520Z 10016KT CAVOK 11/06 Q1000;",
"01044099999","2008-08-11T05:50:00","4","70.486675","22.139744","6.4","HASVIK, NO","FM-15","ENHK ","V020","100,1,N,0072,1","99999,9,C,Y","009900,1,N,1","+0110,1","+0070,1","99999,9",,,,,,,"10000,1,99999,9",,,,,"MET045METAR ENHK 110550Z 10014KT CAVOK 11/07 Q1000;",
"01044099999","2008-08-11T08:50:00","4","70.486675","22.139744","6.4","HASVIK, NO","FM-15","ENHK ","V020","110,1,N,0051,1","99999,9,C,Y","009900,1,N,1","+0140,1","+0080,1","99999,9",,,,,,,"09990,1,99999,9",,,,,"MET045METAR ENHK 110850Z 11010KT CAVOK 14/08 Q0999;",
"01044099999","2008-08-11T09:20:00","4","70.486675","22.139744","6.4","HASVIK, NO","FM-15","ENHK ","V020","110,1,N,0062,1","99999,9,C,Y","009900,1,N,1","+0130,1","+0070,1","99999,9",,,,,,,"09990,1,99999,9",,,,,"MET045METAR ENHK 110920Z 11012KT CAVOK 13/07 Q0999;",
"01044099999","2008-08-11T11:20:00","4","70.486675","22.139744","6.4","HASVIK, NO","FM-15","ENHK ","V020","150,1,N,0021,1","02010,5,C,N","011265,1,N,1","+0140,1","+0090,1","99999,9","02,5,+00780,1,99,9","07,5,+02010,5,99,9",,,"07,99,1,99,9,99,9,99999,9,99,9,99,9",,"09990,1,99999,9",,,,,"MET066METAR ENHK 111120Z 15004KT 120V180 9999 FEW026 BKN067 14/09 Q0999;",
"01044099999","2008-08-11T12:50:00","4","70.486675","22.139744","6.4","HASVIK, NO","FM-15","ENHK ","V020","130,1,N,0021,1","22000,1,9,N","011265,1,N,1","+0160,1","+0080,1","99999,9","02,5,+00960,1,99,9",,,,"02,99,1,99,9,99,9,99999,9,99,9,99,9",,"09990,1,99999,9",,,,,"MET051METAR ENHK 111250Z 13004KT 9999 FEW032 16/08 Q0999;",
"01044099999","2008-08-11T13:20:00","4","70.486675","22.139744","6.4","HASVIK, NO","FM-15","ENHK ","V020","130,1,N,0021,1","22000,1,9,N","011265,1,N,1","+0160,1","+0080,1","99999,9","02,5,+00960,1,99,9",,,,"02,99,1,99,9,99,9,99999,9,99,9,99,9",,"09990,1,99999,9",,,,,"MET051METAR ENHK 111320Z 13004KT 9999 FEW032 16/08 Q0999;",
"01044099999","2008-08-12T03:20:00","4","70.486675","22.139744","6.4","HASVIK, NO","FM-15","ENHK ","V020","120,1,N,0036,1","01500,1,C,N","011265,1,N,1","+0120,1","+0090,1","99999,9","02,5,+00900,1,99,9","04,5,+01500,1,99,9","07,5,+02160,5,99,9",,"07,99,1,99,9,99,9,99999,9,99,9,99,9",,"09959,1,99999,9","16,1",,,,"MET078METAR ENHK 120320Z 12007KT 090V160 9999 VCSH FEW030 SCT050 BKN072 12/09 Q0996;",
"01044099999","2008-08-12T03:50:00","4","70.486675","22.139744","6.4","HASVIK, NO","FM-15","ENHK ","V020","130,1,N,0046,1","01800,1,C,N","011265,1,N,1","+0120,1","+0090,1","99999,9","02,5,+00900,1,99,9","04,5,+01800,1,99,9","07,5,+02100,1,99,9",,"07,99,1,99,9,99,9,99999,9,99,9,99,9",,"09949,1,99999,9","61,1",,,,"MET077METAR ENHK 120350Z 13009KT 100V160 9999 -RA FEW030 SCT060 BKN070 12/09 Q0995;",
"01044099999","2008-08-12T04:20:00","4","70.486675","22.139744","6.4","HASVIK, NO","FM-15","ENHK ","V020","080,1,N,0051,1","01320,1,C,N","011265,1,N,1","+0120,1","+0090,1","99999,9","02,5,+00750,1,99,9","04,5,+01320,1,99,9","07,5,+02100,1,99,9",,"07,99,1,99,9,99,9,99999,9,99,9,99,9",,"09949,1,99999,9","61,1",,,,"MET077METAR ENHK 120420Z 08010KT 050V110 9999 -RA FEW025 SCT044 BKN070 12/09 Q0995;",
"01044099999","2008-08-12T04:50:00","4","70.486675","22.139744","6.4","HASVIK, NO","FM-15","ENHK ","V020","090,1,N,0062,1","01800,1,C,N","011265,1,N,1","+0120,1","+0090,1","99999,9","02,5,+00810,1,99,9","07,5,+01800,1,99,9",,,"07,99,1,99,9,99,9,99999,9,99,9,99,9",,"09949,1,99999,9","61,1",,,,"MET062METAR ENHK 120450Z 09012KT 9999 -RA FEW027 BKN060 12/09 Q0995;",
"01044099999","2008-08-12T05:20:00","4","70.486675","22.139744","6.4","HASVIK, NO","FM-15","ENHK ","V020","090,1,N,0057,1","01140,1,C,N","011265,1,N,1","+0120,1","+0090,1","99999,9","02,5,+00840,1,99,9","04,5,+01140,1,99,9","07,5,+02250,5,99,9",,"07,99,1,99,9,99,9,99999,9,99,9,99,9",,"09949,1,99999,9",,,,,"MET070METAR ENHK 120520Z 09011KT 9999 FEW028 SCT038 BKN075 12/09 Q0995 RERA;",
"01044099999","2008-08-12T12:50:00","4","70.486675","22.139744","6.4","HASVIK, NO","FM-15","ENHK ","V020","999,9,V,0005,1","01710,5,C,N","011265,1,N,1","+0140,1","+0100,1","99999,9","04,5,+01050,1,99,9","07,5,+01710,5,99,9",,,"07,99,1,99,9,99,9,99999,9,99,9,99,9",,"09970,1,99999,9",,,,,"MET058METAR ENHK 121250Z VRB01KT 9999 SCT035 BKN057 14/10 Q0997;",
"01044099999","2008-08-12T13:20:00","4","70.486675","22.139744","6.4","HASVIK, NO","FM-15","ENHK ","V020","320,1,N,0036,1","01860,5,C,N","011265,1,N,1","+0120,1","+0090,1","99999,9","04,5,+01110,1,99,9","07,5,+01860,5,99,9",,,"07,99,1,99,9,99,9,99999,9,99,9,99,9",,"09980,1,99999,9",,,,,"MET058METAR ENHK 121320Z 32007KT 9999 SCT037 BKN062 12/09 Q0998;",
"01044099999","2008-08-12T13:50:00","4","70.486675","22.139744","6.4","HASVIK, NO","FM-15","ENHK ","V020","320,1,N,0031,1","01860,5,C,N","011265,1,N,1","+0120,1","+0100,1","99999,9","02,5,+01110,1,99,9","07,5,+01860,5,99,9",,,"07,99,1,99,9,99,9,99999,9,99,9,99,9",,"09980,1,99999,9",,,,,"MET058METAR ENHK 121350Z 32006KT 9999 FEW037 BKN062 12/10 Q0998;",
"01044099999","2008-08-13T03:20:00","4","70.486675","22.139744","6.4","HASVIK, NO","FM-15","ENHK ","V020","999,9,V,0010,1","00330,1,C,N","011265,1,N,1","+0090,1","+0070,1","99999,9","02,5,+00270,1,99,9","04,5,+00330,1,99,9","07,5,+00450,1,99,9",,"07,99,1,99,9,99,9,99999,9,99,9,99,9",,"10031,1,99999,9",,,,,"MET065METAR ENHK 130320Z VRB02KT 9999 FEW009 SCT011 BKN015 09/07 Q1003;",
"01044099999","2008-08-13T03:50:00","4","70.486675","22.139744","6.4","HASVIK, NO","FM-15","ENHK ","V020","999,9,V,0005,1","00360,1,C,N","011265,1,N,1","+0090,1","+0070,1","99999,9","02,5,+00270,1,99,9","07,5,+00360,1,99,9",,,"07,99,1,99,9,99,9,99999,9,99,9,99,9",,"10031,1,99999,9",,,,,"MET058METAR ENHK 130350Z VRB01KT 9999 FEW009 BKN012 09/07 Q1003;",
"01044099999","2008-08-13T04:20:00","4","70.486675","22.139744","6.4","HASVIK, NO","FM-15","ENHK ","V020","330,1,N,0015,1","00360,1,C,N","011265,1,N,1","+0090,1","+0070,1","99999,9","02,5,+00240,1,99,9","07,5,+00360,1,99,9",,,"07,99,1,99,9,99,9,99999,9,99,9,99,9",,"10031,1,99999,9","16,1",,,,"MET071METAR ENHK 130420Z 33003KT 290V010 9999 VCSH FEW008 BKN012 09/07 Q1003;",
"01044099999","2008-08-13T04:50:00","4","70.486675","22.139744","6.4","HASVIK, NO","FM-15","ENHK ","V020","999,9,V,0005,1","00390,1,C,N","011265,1,N,1","+0090,1","+0070,1","99999,9","02,5,+00240,1,99,9","07,5,+00390,1,99,9",,,"07,99,1,99,9,99,9,99999,9,99,9,99,9",,"10031,1,99999,9","16,1",,,,"MET063METAR ENHK 130450Z VRB01KT 9999 VCSH FEW008 BKN013 09/07 Q1003;",
"01044099999","2008-08-13T05:20:00","4","70.486675","22.139744","6.4","HASVIK, NO","FM-15","ENHK ","V020","100,1,N,0026,1","00540,1,C,N","011265,1,N,1","+0090,1","+0070,1","99999,9","04,5,+00330,1,99,9","07,5,+00540,1,99,9",,,"07,99,1,99,9,99,9,99999,9,99,9,99,9",,"10031,1,99999,9",,,,,"MET066METAR ENHK 130520Z 10005KT 070V130 9999 SCT011 BKN018 09/07 Q1003;",
"01044099999","2008-08-13T11:50:00","4","70.486675","22.139744","6.4","HASVIK, NO","FM-15","ENHK ","V020","110,1,N,0072,1","01620,5,C,N","011265,1,N,1","+0110,1","+0070,1","99999,9","04,5,+00660,1,99,9","07,5,+01620,5,99,9",,,"07,99,1,99,9,99,9,99999,9,99,9,99,9",,"10020,1,99999,9",,,,,"MET058METAR ENHK 131150Z 11014KT 9999 SCT022 BKN054 11/07 Q1002;",
"01044099999","2008-08-13T12:20:00","4","70.486675","22.139744","6.4","HASVIK, NO","FM-15","ENHK ","V020","110,1,N,0077,1","01650,5,C,N","011265,1,N,1","+0110,1","+0080,1","99999,9","04,5,+00750,1,99,9","07,5,+01650,5,99,9",,,"07,99,1,99,9,99,9,99999,9,99,9,99,9",,"10010,1,99999,9",,,,,"MET058METAR ENHK 131220Z 11015KT 9999 SCT025 BKN055 11/08 Q1001;",
"01044099999","2008-08-13T12:50:00","4","70.486675","22.139744","6.4","HASVIK, NO","FM-15","ENHK ","V020","110,1,N,0072,1","01620,5,C,N","011265,1,N,1","+0110,1","+0080,1","99999,9","04,5,+00750,1,99,9","07,5,+01620,5,99,9",,,"07,99,1,99,9,99,9,99999,9,99,9,99,9",,"10010,1,99999,9",,,,,"MET063METAR ENHK 131250Z 11014KT 9999 SCT025 BKN054 11/08 Q1001 RERA;",
"01044099999","2008-08-13T13:20:00","4","70.486675","22.139744","6.4","HASVIK, NO","FM-15","ENHK ","V020","110,1,N,0077,1","01710,5,C,N","011265,1,N,1","+0110,1","+0070,1","99999,9","04,5,+00780,1,99,9","07,5,+01710,5,99,9",,,"07,99,1,99,9,99,9,99999,9,99,9,99,9",,"10010,1,99999,9",,,,,"MET058METAR ENHK 131320Z 11015KT 9999 SCT026 BKN057 11/07 Q1001;",
"01044099999","2008-08-13T13:50:00","4","70.486675","22.139744","6.4","HASVIK, NO","FM-15","ENHK ","V020","110,1,N,0077,1","01800,1,C,N","011265,1,N,1","+0120,1","+0080,1","99999,9","04,5,+00750,1,99,9","07,5,+01800,1,99,9",,,"07,99,1,99,9,99,9,99999,9,99,9,99,9",,"10010,1,99999,9",,,,,"MET058METAR ENHK 131350Z 11015KT 9999 SCT025 BKN060 12/08 Q1001;",
"01044099999","2008-08-14T03:20:00","4","70.486675","22.139744","6.4","HASVIK, NO","FM-15","ENHK ","V020","999,9,V,0010,1","00900,1,C,N","011265,1,N,1","+0110,1","+0080,1","99999,9","02,5,+00420,1,99,9","07,5,+00900,1,99,9",,,"07,99,1,99,9,99,9,99999,9,99,9,99,9",,"09929,1,99999,9",,,,,"MET058METAR ENHK 140320Z VRB02KT 9999 FEW014 BKN030 11/08 Q0993;",
"01044099999","2008-08-14T03:50:00","4","70.486675","22.139744","6.4","HASVIK, NO","FM-15","ENHK ","V020","999,9,V,0010,1","00750,1,C,N","011265,1,N,1","+0110,1","+0080,1","99999,9","02,5,+00390,1,99,9","07,5,+00750,1,99,9",,,"07,99,1,99,9,99,9,99999,9,99,9,99,9",,"09929,1,99999,9",,,,,"MET058METAR ENHK 140350Z VRB02KT 9999 FEW013 BKN025 11/08 Q0993;",
"01044099999","2008-08-14T04:50:00","4","70.486675","22.139744","6.4","HASVIK, NO","FM-15","ENHK ","V020","120,1,N,0026,1","00870,1,C,N","011265,1,N,1","+0110,1","+0080,1","99999,9","02,5,+00420,1,99,9","04,5,+00870,1,99,9","07,5,+02100,1,99,9",,"07,99,1,99,9,99,9,99999,9,99,9,99,9",,"09919,1,99999,9",,,,,"MET073METAR ENHK 140450Z 12005KT 090V150 9999 FEW014 SCT029 BKN070 11/08 Q0992;",
"01044099999","2008-08-14T05:20:00","4","70.486675","22.139744","6.4","HASVIK, NO","FM-15","ENHK ","V020","120,1,N,0041,1","00630,1,C,N","011265,1,N,1","+0110,1","+0080,1","99999,9","02,5,+00390,1,99,9","07,5,+00630,1,99,9",,,"07,99,1,99,9,99,9,99999,9,99,9,99,9",,,,,,,"MET057METAR ENHK 140520Z 12008KT 9999 FEW013 BKN021 11/08 0992;",
"01044099999","2008-08-14T12:20:00","4","70.486675","22.139744","6.4","HASVIK, NO","FM-15","ENHK ","V020","220,1,N,0015,1","00600,1,C,N","011265,1,N,1","+0110,1","+0090,1","99999,9","02,5,+00360,1,99,9","07,5,+00600,1,99,9",,,"07,99,1,99,9,99,9,99999,9,99,9,99,9",,"09909,1,99999,9",,,,,"MET058METAR ENHK 141220Z 22003KT 9999 FEW012 BKN020 11/09 Q0991;",
"01044099999","2008-08-14T12:50:00","4","70.486675","22.139744","6.4","HASVIK, NO","FM-15","ENHK ","V020","999,9,V,0021,1","00720,1,C,N","011265,1,N,1","+0110,1","+0090,1","99999,9","04,5,+00480,1,99,9","07,5,+00720,1,99,9",,,"07,99,1,99,9,99,9,99999,9,99,9,99,9",,"09919,1,99999,9",,,,,"MET058METAR ENHK 141250Z VRB04KT 9999 SCT016 BKN024 11/09 Q0992;",
"01044099999","2008-08-14T13:20:00","4","70.486675","22.139744","6.4","HASVIK, NO","FM-15","ENHK ","V020","340,1,N,0031,1","00480,1,C,N","011265,1,N,1","+0110,1","+0090,1","99999,9","07,5,+00480,1,99,9",,,,"07,99,1,99,9,99,9,99999,9,99,9,99,9",,"09919,1,99999,9",,,,,"MET051METAR ENHK 141320Z 34006KT 9999 BKN016 11/09 Q0992;",
"01044099999","2008-08-14T13:50:00","4","70.486675","22.139744","6.4","HASVIK, NO","FM-15","ENHK ","V020","340,1,N,0031,1","00450,1,C,N","011265,1,N,1","+0110,1","+0090,1","99999,9","07,5,+00450,1,99,9",,,,"07,99,1,99,9,99,9,99999,9,99,9,99,9",,"09919,1,99999,9",,,,,"MET051METAR ENHK 141350Z 34006KT 9999 BKN015 11/09 Q0992;",
"01044099999","2008-08-14T14:20:00","4","70.486675","22.139744","6.4","HASVIK, NO","FM-15","ENHK ","V020","999,9,V,0021,1","00510,1,C,N","011265,1,N,1","+0110,1","+0080,1","99999,9","07,5,+00510,1,99,9",,,,"07,99,1,99,9,99,9,99999,9,99,9,99,9",,"09919,1,99999,9",,,,,"MET051METAR ENHK 141420Z VRB04KT 9999 BKN017 11/08 Q0992;",
"01044099999","2008-08-15T03:20:00","4","70.486675","22.139744","6.4","HASVIK, NO","FM-15","ENHK ","V020","330,1,N,0062,1","00210,1,C,N","011265,1,N,1","+0080,1","+0070,1","99999,9","02,5,+00150,1,99,9","04,5,+00210,1,99,9","07,5,+00360,1,99,9",,"07,99,1,99,9,99,9,99999,9,99,9,99,9",,"10000,1,99999,9","40,1","61,1",,,"MET082METAR ENHK 150320Z 33012KT 300V010 9999 -RA VCFG FEW005 SCT007 BKN012 08/07 Q1000;",
"01044099999","2008-08-15T03:50:00","4","70.486675","22.139744","6.4","HASVIK, NO","FM-15","ENHK ","V020","330,1,N,0057,1","00390,1,C,N","011265,1,N,1","+0080,1","+0070,1","99999,9","02,5,+00180,1,99,9","07,5,+00390,1,99,9",,,"07,99,1,99,9,99,9,99999,9,99,9,99,9",,"10000,1,99999,9",,,,,"MET064METAR ENHK 150350Z 33011KT 9999 FEW006 BKN013 08/07 Q1000 -RERA;",
"01044099999","2008-08-15T04:20:00","4","70.486675","22.139744","6.4","HASVIK, NO","FM-15","ENHK ","V020","330,1,N,0051,1","00390,1,C,N","011265,1,N,1","+0080,1","+0060,1","99999,9","02,5,+00210,1,99,9","04,5,+00390,1,99,9","07,5,+00570,1,99,9",,"07,99,1,99,9,99,9,99999,9,99,9,99,9",,"10010,1,99999,9","16,1",,,,"MET078METAR ENHK 150420Z 33010KT 300V010 9999 VCSH FEW007 SCT013 BKN019 08/06 Q1001;",
"01044099999","2008-08-15T04:50:00","4","70.486675","22.139744","6.4","HASVIK, NO","FM-15","ENHK ","V020","330,1,N,0046,1","00360,1,C,N","011265,1,N,1","+0080,1","+0070,1","99999,9","02,5,+00270,1,99,9","04,5,+00360,1,99,9","07,5,+00720,1,99,9",,"07,99,1,99,9,99,9,99999,9,99,9,99,9",,"10010,1,99999,9","16,1",,,,"MET078METAR ENHK 150450Z 33009KT 300V010 9999 VCSH FEW009 SCT012 BKN024 08/07 Q1001;",
"01044099999","2008-08-15T05:20:00","4","70.486675","22.139744","6.4","HASVIK, NO","FM-15","ENHK ","V020","330,1,N,0051,1","00390,1,C,N","011265,1,N,1","+0090,1","+0060,1","99999,9","02,5,+00270,1,99,9","04,5,+00390,1,99,9","07,5,+00570,1,99,9",,"07,99,1,99,9,99,9,99999,9,99,9,99,9",,"10010,1,99999,9",,,,,"MET073METAR ENHK 150520Z 33010KT 300V360 9999 FEW009 SCT013 BKN019 09/06 Q1001;",
"01044099999","2008-08-15T05:50:00","4","70.486675","22.139744","6.4","HASVIK, NO","FM-15","ENHK ","V020","320,1,N,0057,1","00450,1,C,N","011265,1,N,1","+0090,1","+0060,1","99999,9","02,5,+00300,1,99,9","07,5,+00450,1,99,9",,,"07,99,1,99,9,99,9,99999,9,99,9,99,9",,"10020,1,99999,9",,,,,"MET058METAR ENHK 150550Z 32011KT 9999 FEW010 BKN015 09/06 Q1002;",
"01044099999","2008-08-15T07:50:00","4","70.486675","22.139744","6.4","HASVIK, NO","FM-15","ENHK ","V020","310,1,N,0067,1","00570,1,C,N","011265,1,N,1","+0090,1","+0050,1","99999,9","02,5,+00300,1,99,9","04,5,+00570,1,99,9","07,5,+01290,1,99,9",,"07,99,1,99,9,99,9,99999,9,99,9,99,9",,"10031,1,99999,9",,,,,"MET070METAR ENHK 150750Z 31013KT 9999 FEW010 SCT019 BKN043 09/05 Q1003 RERA;",
"01044099999","2008-08-15T08:50:00","4","70.486675","22.139744","6.4","HASVIK, NO","FM-15","ENHK ","V020","300,1,N,0062,1","00600,1,C,N","011265,1,N,1","+0090,1","+0060,1","99999,9","02,5,+00360,1,99,9","04,5,+00600,1,99,9","07,5,+01110,1,99,9",,"07,99,1,99,9,99,9,99999,9,99,9,99,9",,"10041,1,99999,9",,,,,"MET065METAR ENHK 150850Z 30012KT 9999 FEW012 SCT020 BKN037 09/06 Q1004;",
"01044099999","2008-08-15T09:20:00","4","70.486675","22.139744","6.4","HASVIK, NO","FM-15","ENHK ","V020","300,1,N,0062,1","00570,1,C,N","011265,1,N,1","+0090,1","+0050,1","99999,9","02,5,+00360,1,99,9","04,5,+00570,1,99,9","07,5,+01200,1,99,9",,"07,99,1,99,9,99,9,99999,9,99,9,99,9",,"10051,1,99999,9","53,1",,,,"MET076METAR ENHK 150920Z 30012KT 270V330 9999 DZ FEW012 SCT019 BKN040 09/05 Q1005;",
"01044099999","2008-08-15T10:50:00","4","70.486675","22.139744","6.4","HASVIK, NO","FM-15","ENHK ","V020","300,1,N,0057,1","99999,9,C,N","011265,1,N,1","+0090,1","+0070,1","99999,9","02,5,+00300,1,99,9","04,5,+00390,1,99,9",,,"04,99,1,99,9,99,9,99999,9,99,9,99,9",,"10051,1,99999,9",,,,,"MET058METAR ENHK 151050Z 30011KT 9999 FEW010 SCT013 09/07 Q1005;","P01 003903SCOCIG"
"01044099999","2008-08-15T11:20:00","4","70.486675","22.139744","6.4","HASVIK, NO","FM-15","ENHK ","V020","300,1,N,0072,1","99999,9,C,N","011265,1,N,1","+0100,1","+0060,1","99999,9","02,5,+00300,1,99,9","04,5,+00630,1,99,9",,,"04,99,1,99,9,99,9,99999,9,99,9,99,9",,"10061,1,99999,9",,,,,"MET058METAR ENHK 151120Z 30014KT 9999 FEW010 SCT021 10/06 Q1006;","P01 006303SCOCIG"
"01044099999","2008-08-15T11:50:00","4","70.486675","22.139744","6.4","HASVIK, NO","FM-15","ENHK ","V020","290,1,N,0072,1","00930,1,C,N","011265,1,N,1","+0100,1","+0060,1","99999,9","04,5,+00660,1,99,9","07,5,+00930,1,99,9",,,"07,99,1,99,9,99,9,99999,9,99,9,99,9",,"10061,1,99999,9","16,1",,,,"MET063METAR ENHK 151150Z 29014KT 9999 VCSH SCT022 BKN031 10/06 Q1006;",
"01044099999","2008-08-15T12:20:00","4","70.486675","22.139744","6.4","HASVIK, NO","FM-15","ENHK ","V020","300,1,N,0082,1","99999,9,C,N","011265,1,N,1","+0100,1","+0060,1","99999,9","02,5,+00720,1,99,9","04,5,+00990,1,99,9",,,"04,99,1,99,9,99,9,99999,9,99,9,99,9",,"10071,1,99999,9","16,1",,,,"MET063METAR ENHK 151220Z 30016KT 9999 VCSH FEW024 SCT033 10/06 Q1007;","P01 009903SCOCIG"
"01044099999","2008-08-15T12:50:00","4","70.486675","22.139744","6.4","HASVIK, NO","FM-15","ENHK ","V020","300,1,N,0072,1","00960,1,C,N","011265,1,N,1","+0100,1","+0050,1","99999,9","02,5,+00630,1,99,9","07,5,+00960,1,99,9",,,"07,99,1,99,9,99,9,99999,9,99,9,99,9",,"10071,1,99999,9",,,,,"MET058METAR ENHK 151250Z 30014KT 9999 FEW021 BKN032 10/05 Q1007;",
"01044099999","2008-08-15T13:20:00","4","70.486675","22.139744","6.4","HASVIK, NO","FM-15","ENHK ","V020","280,1,N,0077,1","99999,9,C,N","011265,1,N,1","+0090,1","+0050,1","99999,9","02,5,+00660,1,99,9","04,5,+01020,1,99,9",,,"04,99,1,99,9,99,9,99999,9,99,9,99,9",,"10081,1,99999,9",,,,,"MET058METAR ENHK 151320Z 28015KT 9999 FEW022 SCT034 09/05 Q1008;","P01 010203SCOCIG"
"01044099999","2008-08-15T13:50:00","4","70.486675","22.139744","6.4","HASVIK, NO","FM-15","ENHK ","V020","280,1,N,0087,1","99999,9,C,N","011265,1,N,1","+0100,1","+0060,1","99999,9","02,5,+00630,1,99,9","04,5,+01020,1,99,9",,,"04,99,1,99,9,99,9,99999,9,99,9,99,9",,"10081,1,99999,9",,,,,"MET058METAR ENHK 151350Z 28017KT 9999 FEW021 SCT034 10/06 Q1008;","P01 010203SCOCIG"
"01044099999","2008-08-15T14:20:00","4","70.486675","22.139744","6.4","HASVIK, NO","FM-15","ENHK ","V020","280,1,N,0077,1","22000,1,9,N","011265,1,N,1","+0100,1","+0050,1","99999,9","02,5,+00990,1,99,9",,,,"02,99,1,99,9,99,9,99999,9,99,9,99,9",,"10081,1,99999,9",,,,,"MET051METAR ENHK 151420Z 28015KT 9999 FEW033 10/05 Q1008;",
"01044099999","2008-08-15T15:20:00","4","70.486675","22.139744","6.4","HASVIK, NO","FM-15","ENHK ","V020","270,1,N,0046,1","99999,9,C,N","011265,1,N,1","+0100,1","+0050,1","99999,9","02,5,+01110,1,99,9","04,5,+03000,1,99,9",,,"04,99,1,99,9,99,9,99999,9,99,9,99,9",,"10081,1,99999,9",,,,,"MET058METAR ENHK 151520Z 27009KT 9999 FEW037 SCT100 10/05 Q1008;","P01 030003SCOCIG"
"01044099999","2008-08-17T11:50:00","4","70.486675","22.139744","6.4","HASVIK, NO","FM-15","ENHK ","V020","290,1,N,0046,1","00810,1,C,N","011265,1,N,1","+0110,1","+0090,1","99999,9","04,5,+00270,1,99,9","07,5,+00810,1,99,9",,,"07,99,1,99,9,99,9,99999,9,99,9,99,9",,"10200,1,99999,9",,,,,"MET058METAR ENHK 171150Z 29009KT 9999 SCT009 BKN027 11/09 Q1020;",
"01044099999","2008-08-17T12:20:00","4","70.486675","22.139744","6.4","HASVIK, NO","FM-15","ENHK ","V020","270,1,N,0041,1","00780,1,C,N","011265,1,N,1","+0110,1","+0080,1","99999,9","04,5,+00300,1,99,9","07,5,+00780,1,99,9",,,"07,99,1,99,9,99,9,99999,9,99,9,99,9",,"10210,1,99999,9",,,,,"MET058METAR ENHK 171220Z 27008KT 9999 SCT010 BKN026 11/08 Q1021;",
"01044099999","2008-08-17T12:50:00","4","70.486675","22.139744","6.4","HASVIK, NO","FM-15","ENHK ","V020","270,1,N,0036,1","00750,1,C,N","011265,1,N,1","+0100,1","+0090,1","99999,9","04,5,+00360,1,99,9","07,5,+00750,1,99,9",,,"07,99,1,99,9,99,9,99999,9,99,9,99,9",,"10210,1,99999,9","80,1",,,,"MET064METAR ENHK 171250Z 27007KT 9999 -SHRA SCT012 BKN025 10/09 Q1021;",
"01044099999","2008-08-17T13:20:00","4","70.486675","22.139744","6.4","HASVIK, NO","FM-15","ENHK ","V020","270,1,N,0067,1","00330,1,C,N","011265,1,N,1","+0100,1","+0090,1","99999,9","04,5,+00180,1,99,9","07,5,+00330,1,99,9",,,"07,99,1,99,9,99,9,99999,9,99,9,99,9",,"10210,1,99999,9","80,1",,,,"MET064METAR ENHK 171320Z 27013KT 9999 -SHRA SCT006 BKN011 10/09 Q1021;",
"01044099999","2008-08-18T03:20:00","4","70.486675","22.139744","6.4","HASVIK, NO","FM-15","ENHK ","V020","999,9,C,0000,1","00510,1,C,N","011265,1,N,1","+0070,1","+0070,1","99999,9","02,5,+00420,1,99,9","07,5,+00510,1,99,9",,,"07,99,1,99,9,99,9,99999,9,99,9,99,9",,"10230,1,99999,9",,,,,"MET058METAR ENHK 180320Z 00000KT 9999 FEW014 BKN017 07/07 Q1023;",
"01044099999","2008-08-18T03:50:00","4","70.486675","22.139744","6.4","HASVIK, NO","FM-15","ENHK ","V020","999,9,V,0005,1","00510,1,C,N","011265,1,N,1","+0080,1","+0070,1","99999,9","02,5,+00420,1,99,9","07,5,+00510,1,99,9",,,"07,99,1,99,9,99,9,99999,9,99,9,99,9",,"10230,1,99999,9",,,,,"MET058METAR ENHK 180350Z VRB01KT 9999 FEW014 BKN017 08/07 Q1023;",
"01044099999","2008-08-18T04:50:00","4","70.486675","22.139744","6.4","HASVIK, NO","FM-15","ENHK ","V020","130,1,N,0021,1","00480,1,C,N","011265,1,N,1","+0090,1","+0070,1","99999,9","07,5,+00480,1,99,9",,,,"07,99,1,99,9,99,9,99999,9,99,9,99,9",,"10220,1,99999,9",,,,,"MET059METAR ENHK 180450Z 13004KT 100V170 9999 BKN016 09/07 Q1022;",
"01044099999","2008-08-18T05:50:00","4","70.486675","22.139744","6.4","HASVIK, NO","FM-15","ENHK ","V020","130,1,N,0015,1","00510,1,C,N","011265,1,N,1","+0100,1","+0070,1","99999,9","07,5,+00510,1,99,9",,,,"07,99,1,99,9,99,9,99999,9,99,9,99,9",,"10220,1,99999,9",,,,,"MET059METAR ENHK 180550Z 13003KT 110V170 9999 BKN017 10/07 Q1022;",
"01044099999","2008-08-18T06:20:00","4","70.486675","22.139744","6.4","HASVIK, NO","FM-15","ENHK ","V020","999,9,V,0010,1","22000,1,9,N","011265,1,N,1","+0110,1","+0070,1","99999,9","02,5,+00510,1,99,9",,,,"02,99,1,99,9,99,9,99999,9,99,9,99,9",,"10220,1,99999,9",,,,,"MET051METAR ENHK 180620Z VRB02KT 9999 FEW017 11/07 Q1022;",
"01044099999","2008-08-18T06:50:00","4","70.486675","22.139744","6.4","HASVIK, NO","FM-15","ENHK ","V020","100,1,N,0031,1","22000,1,9,N","011265,1,N,1","+0110,1","+0070,1","99999,9","04,5,+00510,1,99,9",,,,"04,99,1,99,9,99,9,99999,9,99,9,99,9",,"10220,1,99999,9",,,,,"MET059METAR ENHK 180650Z 10006KT 080V140 9999 SCT017 11/07 Q1022;",
"01044099999","2008-08-18T07:20:00","4","70.486675","22.139744","6.4","HASVIK, NO","FM-15","ENHK ","V020","120,1,N,0041,1","22000,1,9,N","011265,1,N,1","+0110,1","+0070,1","99999,9","02,5,+00510,1,99,9",,,,"02,99,1,99,9,99,9,99999,9,99,9,99,9",,"10220,1,99999,9",,,,,"MET051METAR ENHK 180720Z 12008KT 9999 FEW017 11/07 Q1022;",
"01044099999","2008-08-18T07:50:00","4","70.486675","22.139744","6.4","HASVIK, NO","FM-15","ENHK ","V020","120,1,N,0036,1","22000,1,9,N","011265,1,N,1","+0100,1","+0070,1","99999,9","02,5,+00510,1,99,9",,,,"02,99,1,99,9,99,9,99999,9,99,9,99,9",,"10220,1,99999,9",,,,,"MET051METAR ENHK 180750Z 12007KT 9999 FEW017 10/07 Q1022;",
"01044099999","2008-08-18T08:50:00","4","70.486675","22.139744","6.4","HASVIK, NO","FM-15","ENHK ","V020","120,1,N,0036,1","22000,1,9,N","011265,1,N,1","+0110,1","+0070,1","99999,9","02,5,+00510,1,99,9",,,,"02,99,1,99,9,99,9,99999,9,99,9,99,9",,"10210,1,99999,9",,,,,"MET051METAR ENHK 180850Z 12007KT 9999 FEW017 11/07 Q1021;",
"01044099999","2008-08-18T09:20:00","4","70.486675","22.139744","6.4","HASVIK, NO","FM-15","ENHK ","V020","130,1,N,0031,1","22000,1,9,N","011265,1,N,1","+0110,1","+0070,1","99999,9",,,,,"00,99,1,99,9,99,9,99999,9,99,9,99,9",,"10210,1,99999,9",,,,,"MET048METAR ENHK 180920Z 13006KT 9999 NSC 11/07 Q1021;","Q01    003SCCGA1"
"01044099999","2008-08-18T09:50:00","4","70.486675","22.139744","6.4","HASVIK, NO","FM-15","ENHK ","V020","130,1,N,0036,1","22000,1,9,N","011265,1,N,1","+0110,1","+0080,1","99999,9",,,,,"00,99,1,99,9,99,9,99999,9,99,9,99,9",,"10210,1,99999,9",,,,,"MET048METAR ENHK 180950Z 13007KT 9999 NSC 11/08 Q1021;","Q01    003SCCGA1"
"01044099999","2008-08-18T10:50:00","4","70.486675","22.139744","6.4","HASVIK, NO","FM-15","ENHK ","V020","140,1,N,0031,1","99999,9,C,Y","009900,1,N,1","+0120,1","+0090,1","99999,9",,,,,,,"10200,1,99999,9",,,,,"MET045METAR ENHK 181050Z 14006KT CAVOK 12/09 Q1020;",
"01044099999","2008-08-18T11:20:00","4","70.486675","22.139744","6.4","HASVIK, NO","FM-15","ENHK ","V020","120,1,N,0036,1","99999,9,C,Y","009900,1,N,1","+0110,1","+0080,1","99999,9",,,,,,,"10200,1,99999,9",,,,,"MET045METAR ENHK 181120Z 12007KT CAVOK 11/08 Q1020;",
"01044099999","2008-08-18T11:50:00","4","70.486675","22.139744","6.4","HASVIK, NO","FM-15","ENHK ","V020","120,1,N,0031,1","99999,9,C,Y","009900,1,N,1","+0120,1","+0080,1","99999,9",,,,,,,"10200,1,99999,9",,,,,"MET045METAR ENHK 181150Z 12006KT CAVOK 12/08 Q1020;",
"01044099999","2008-08-18T12:20:00","4","70.486675","22.139744","6.4","HASVIK, NO","FM-15","ENHK ","V020","120,1,N,0041,1","99999,9,C,Y","009900,1,N,1","+0110,1","+0080,1","99999,9",,,,,,,"10200,1,99999,9",,,,,"MET045METAR ENHK 181220Z 12008KT CAVOK 11/08 Q1020;",
"01044099999","2008-08-18T12:50:00","4","70.486675","22.139744","6.4","HASVIK, NO","FM-15","ENHK ","V020","999,9,V,0015,1","99999,9,C,Y","009900,1,N,1","+0120,1","+0090,1","99999,9",,,,,,,"10200,1,99999,9",,,,,"MET045METAR ENHK 181250Z VRB03KT CAVOK 12/09 Q1020;",
"01044099999","2008-08-18T13:20:00","4","70.486675","22.139744","6.4","HASVIK, NO","FM-15","ENHK ","V020","999,9,V,0015,1","99999,9,C,Y","009900,1,N,1","+0130,1","+0080,1","99999,9",,,,,,,"10200,1,99999,9",,,,,"MET045METAR ENHK 181320Z VRB03KT CAVOK 13/08 Q1020;",
"01044099999","2008-08-18T13:50:00","4","70.486675","22.139744","6.4","HASVIK, NO","FM-15","ENHK ","V020","280,1,N,0021,1","99999,9,C,Y","009900,1,N,1","+0130,1","+0080,1","99999,9",,,,,,,"10190,1,99999,9",,,,,"MET045METAR ENHK 181350Z 28004KT CAVOK 13/08 Q1019;",
"01044099999","2008-08-18T14:20:00","4","70.486675","22.139744","6.4","HASVIK, NO","FM-15","ENHK ","V020","300,1,N,0026,1","99999,9,C,Y","009900,1,N,1","+0130,1","+0080,1","99999,9",,,,,,,"10190,1,99999,9",,,,,"MET045METAR ENHK 181420Z 30005KT CAVOK 13/08 Q1019;",
"01044099999","2008-08-19T03:20:00","4","70.486675","22.139744","6.4","HASVIK, NO","FM-15","ENHK ","V020","100,1,N,0077,1","99999,9,C,Y","009900,1,N,1","+0100,1","+0050,1","99999,9",,,,,,,"10139,1,99999,9",,,,,"MET045METAR ENHK 190320Z 10015KT CAVOK 10/05 Q1014;",
"01044099999","2008-08-19T03:50:00","4","70.486675","22.139744","6.4","HASVIK, NO","FM-15","ENHK ","V020","100,1,N,0072,1","99999,9,C,Y","009900,1,N,1","+0100,1","+0060,1","99999,9",,,,,,,"10129,1,99999,9",,,,,"MET045METAR ENHK 190350Z 10014KT CAVOK 10/06 Q1013;",
"01044099999","2008-08-19T04:20:00","4","70.486675","22.139744","6.4","HASVIK, NO","FM-15","ENHK ","V020","100,1,N,0082,1","99999,9,C,Y","009900,1,N,1","+0100,1","+0060,1","99999,9",,,,,,,"10129,1,99999,9",,,,,"MET045METAR ENHK 190420Z 10016KT CAVOK 10/06 Q1013;",
"01044099999","2008-08-19T04:50:00","4","70.486675","22.139744","6.4","HASVIK, NO","FM-15","ENHK ","V020","110,1,N,0093,1","99999,9,C,Y","009900,1,N,1","+0110,1","+0060,1","99999,9",,,,,,,"10129,1,99999,9",,,,,"MET045METAR ENHK 190450Z 11018KT CAVOK 11/06 Q1013;",
"01044099999","2008-08-19T05:20:00","4","70.486675","22.139744","6.4","HASVIK, NO","FM-15","ENHK ","V020","110,1,N,0093,1","99999,9,C,Y","009900,1,N,1","+0110,1","+0060,1","99999,9",,,,,,,"10119,1,99999,9",,,,,"MET045METAR ENHK 190520Z 11018KT CAVOK 11/06 Q1012;",
"01044099999","2008-08-19T13:20:00","4","70.486675","22.139744","6.4","HASVIK, NO","FM-15","ENHK ","V020","110,1,N,0062,1","99999,9,C,N","011265,1,N,1","+0130,1","+0080,1","99999,9","02,5,+00900,1,99,9","04,5,+01800,1,99,9",,,"04,99,1,99,9,99,9,99999,9,99,9,99,9",,"10081,1,99999,9",,,,,"MET058METAR ENHK 191320Z 11012KT 9999 FEW030 SCT060 13/08 Q1008;","P01 018003SCOCIG"
"01044099999","2008-08-19T13:50:00","4","70.486675","22.139744","6.4","HASVIK, NO","FM-15","ENHK ","V020","140,1,N,0067,1","99999,9,C,N","011265,1,N,1","+0140,1","+0070,1","99999,9","02,5,+01050,1,99,9","04,5,+02400,1,99,9",,,"04,99,1,99,9,99,9,99999,9,99,9,99,9",,"10071,1,99999,9",,,,,"MET058METAR ENHK 191350Z 14013KT 9999 FEW035 SCT080 14/07 Q1007;","P01 024003SCOCIG"
"01044099999","2008-08-20T03:20:00","4","70.486675","22.139744","6.4","HASVIK, NO","FM-15","ENHK ","V020","120,1,N,0082,1","01230,1,C,N","011265,1,N,1","+0120,1","+0070,1","99999,9","02,5,+00960,1,99,9","07,5,+01230,1,99,9",,,"07,99,1,99,9,99,9,99999,9,99,9,99,9",,"10031,1,99999,9",,,,,"MET058METAR ENHK 200320Z 12016KT 9999 FEW032 BKN041 12/07 Q1003;",
"01044099999","2008-08-20T03:50:00","4","70.486675","22.139744","6.4","HASVIK, NO","FM-15","ENHK ","V020","110,1,N,0082,1","01290,1,C,N","011265,1,N,1","+0110,1","+0080,1","99999,9","02,5,+00960,1,99,9","07,5,+01290,1,99,9",,,"07,99,1,99,9,99,9,99999,9,99,9,99,9",,"10020,1,99999,9",,,,,"MET058METAR ENHK 200350Z 11016KT 9999 FEW032 BKN043 11/08 Q1002;",
"01044099999","2008-08-20T04:20:00","4","70.486675","22.139744","6.4","HASVIK, NO","FM-15","ENHK ","V020","130,1,N,0067,1","01260,1,C,N","011265,1,N,1","+0120,1","+0070,1","99999,9","02,5,+00960,1,99,9","04,5,+01260,1,99,9","07,5,+02610,5,99,9",,"07,99,1,99,9,99,9,99999,9,99,9,99,9",,"10020,1,99999,9",,,,,"MET065METAR ENHK 200420Z 13013KT 9999 FEW032 SCT042 BKN087 12/07 Q1002;",
"01044099999","2008-08-20T04:50:00","4","70.486675","22.139744","6.4","HASVIK, NO","FM-15","ENHK ","V020","130,1,N,0093,1","02670,5,C,N","011265,1,N,1","+0110,1","+0070,1","99999,9","04,5,+01200,1,99,9","07,5,+02670,5,99,9",,,"07,99,1,99,9,99,9,99999,9,99,9,99,9",,"10020,1,99999,9",,,,,"MET058METAR ENHK 200450Z 13018KT 9999 SCT040 BKN089 11/07 Q1002;",
"01044099999","2008-08-20T12:50:00","4","70.486675","22.139744","6.4","HASVIK, NO","FM-15","ENHK ","V020","110,1,N,0057,1","22000,1,9,N","011265,1,N,1","+0140,1","+0080,1","99999,9","02,5,+00750,1,99,9",,,,"02,99,1,99,9,99,9,99999,9,99,9,99,9",,"10010,1,99999,9",,,,,"MET051METAR ENHK 201250Z 11011KT 9999 FEW025 14/08 Q1001;",
"01044099999","2008-08-21T03:20:00","4","70.486675","22.139744","6.4","HASVIK, NO","FM-15","ENHK ","V020","150,1,N,0015,1","01110,1,C,N","011265,1,N,1","+0110,1","+0090,1","99999,9","07,5,+01110,1,99,9",,,,"07,99,1,99,9,99,9,99999,9,99,9,99,9",,"10010,1,99999,9",,,,,"MET051METAR ENHK 210320Z 15003KT 9999 BKN037 11/09 Q1001;",
"01044099999","2008-08-21T03:50:00","4","70.486675","22.139744","6.4","HASVIK, NO","FM-15","ENHK ","V020","140,1,N,0021,1","01110,1,C,N","011265,1,N,1","+0110,1","+0100,1","99999,9","07,5,+01110,1,99,9",,,,"07,99,1,99,9,99,9,99999,9,99,9,99,9",,"10010,1,99999,9",,,,,"MET051METAR ENHK 210350Z 14004KT 9999 BKN037 11/10 Q1001;",
"01044099999","2008-08-21T04:20:00","4","70.486675","22.139744","6.4","HASVIK, NO","FM-15","ENHK ","V020","150,1,N,0015,1","01170,1,C,N","011265,1,N,1","+0110,1","+0100,1","99999,9","07,5,+01170,1,99,9",,,,"07,99,1,99,9,99,9,99999,9,99,9,99,9",,"10010,1,99999,9",,,,,"MET051METAR ENHK 210420Z 15003KT 9999 BKN039 11/10 Q1001;",
"01044099999","2008-08-21T04:50:00","4","70.486675","22.139744","6.4","HASVIK, NO","FM-15","ENHK ","V020","999,9,V,0005,1","01200,1,C,N","011265,1,N,1","+0120,1","+0100,1","99999,9","07,5,+01200,1,99,9",,,,"07,99,1,99,9,99,9,99999,9,99,9,99,9",,"10010,1,99999,9",,,,,"MET051METAR ENHK 210450Z VRB01KT 9999 BKN040 12/10 Q1001;",
"01044099999","2008-08-21T12:50:00","4","70.486675","22.139744","6.4","HASVIK, NO","FM-15","ENHK ","V020","999,9,9,9999,9","00840,5,9,N","011265,1,N,1","+0130,1","+0100,1","99999,9","02,5,+00600,5,99,9","04,5,+00840,5,99,9","07,5,+01800,5,99,9",,,,"10010,1,99999,9",,,,,"MET070METAR ENHK 211250Z -----KT 9999 VCSH FEW020 SCT028 BKN060 13/10 Q1001;",
"01044099999","2008-08-21T13:50:00","4","70.486675","22.139744","6.4","HASVIK, NO","FM-15","ENHK ","V020","999,9,9,9999,9","00840,5,9,N","011265,1,N,1","+0130,1","+0100,1","99999,9","02,5,+00300,5,99,9","04,5,+00840,5,99,9","07,5,+02100,5,99,9",,,,"10010,1,99999,9",,,,,"MET068METAR ENHK 211350Z ----- 9999 VCSH FEW010 SCT028 BKN070 13/10 Q1001;",
"01044099999","2008-08-22T03:20:00","4","70.486675","22.139744","6.4","HASVIK, NO","FM-15","ENHK ","V020","999,9,9,9999,9","99999,9,C,N","011265,1,N,1","+0090,1","+0090,1","99999,9","02,5,+00750,1,99,9","04,5,+01380,1,99,9",,,"04,99,1,99,9,99,9,99999,9,99,9,99,9",,"10010,1,99999,9",,,,,"MET058METAR ENHK 220320Z /////KT 9999 FEW025 SCT046 09/09 Q1001;","P01 013803SCOCIG"
"01044099999","2008-08-22T03:50:00","4","70.486675","22.139744","6.4","HASVIK, NO","FM-15","ENHK ","V020","999,9,9,9999,9","01260,1,C,N","011265,1,N,1","+0100,1","+0090,1","99999,9","02,5,+00750,1,99,9","07,5,+01260,1,99,9",,,"07,99,1,99,9,99,9,99999,9,99,9,99,9",,"10010,1,99999,9",,,,,"MET058METAR ENHK 220350Z /////KT 9999 FEW025 BKN042 10/09 Q1001;",
"01044099999","2008-08-22T04:20:00","4","70.486675","22.139744","6.4","HASVIK, NO","FM-15","ENHK ","V020","999,9,9,9999,9","99999,9,C,N","011265,1,N,1","+0100,1","+0090,1","99999,9","02,5,+00450,1,99,9","04,5,+01200,1,99,9",,,"04,99,1,99,9,99,9,99999,9,99,9,99,9",,"10010,1,99999,9",,,,,"MET058METAR ENHK 220420Z /////KT 9999 FEW015 SCT040 10/09 Q1001;","P01 012003SCOCIG"
"01044099999","2008-08-22T04:50:00","4","70.486675","22.139744","6.4","HASVIK, NO","FM-15","ENHK ","V020","999,9,9,9999,9","00450,1,C,N","011265,1,N,1","+0100,1","+0090,1","99999,9","07,5,+00450,1,99,9",,,,"07,99,1,99,9,99,9,99999,9,99,9,99,9",,"10010,1,99999,9",,,,,"MET051METAR ENHK 220450Z /////KT 9999 BKN015 10/09 Q1001;",
"01044099999","2008-08-22T05:50:00","4","70.486675","22.139744","6.4","HASVIK, NO","FM-15","ENHK ","V020","999,9,9,9999,9","00450,1,C,N","011265,1,N,1","+0110,1","+0100,1","99999,9","07,5,+00450,1,99,9",,,,"07,99,1,99,9,99,9,99999,9,99,9,99,9",,"10010,1,99999,9",,,,,"MET051METAR ENHK 220550Z /////KT 9999 BKN015 11/10 Q1001;",
"01044099999","2008-08-22T06:50:00","4","70.486675","22.139744","6.4","HASVIK, NO","FM-15","ENHK ","V020","999,9,9,9999,9","00450,1,C,N","011265,1,N,1","+0110,1","+0100,1","99999,9","07,5,+00450,1,99,9",,,,"07,99,1,99,9,99,9,99999,9,99,9,99,9",,"10020,1,99999,9",,,,,"MET051METAR ENHK 220650Z /////KT 9999 BKN015 11/10 Q1002;",
"01044099999","2008-08-22T08:20:00","4","70.486675","22.139744","6.4","HASVIK, NO","FM-15","ENHK ","V020","999,9,9,9999,9","00180,1,C,N","011265,1,N,1","+0120,1","+0100,1","99999,9","07,5,+00180,1,99,9",,,,"07,99,1,99,9,99,9,99999,9,99,9,99,9",,"10020,1,99999,9",,,,,"MET051METAR ENHK 220820Z /////KT 9999 BKN006 12/10 Q1002;",
"01044099999","2008-08-22T08:50:00","4","70.486675","22.139744","6.4","HASVIK, NO","FM-15","ENHK ","V020","999,9,9,9999,9","00180,1,C,N","011265,1,N,1","+0110,1","+0100,1","99999,9","07,5,+00180,1,99,9",,,,"07,99,1,99,9,99,9,99999,9,99,9,99,9",,"10020,1,99999,9",,,,,"MET051METAR ENHK 220850Z /////KT 9999 BKN006 11/10 Q1002;",
"01044099999","2008-08-22T09:50:00","4","70.486675","22.139744","6.4","HASVIK, NO","FM-15","ENHK ","V020","999,9,9,9999,9","00330,1,C,N","011265,1,N,1","+0120,1","+0100,1","99999,9","04,5,+00180,1,99,9","07,5,+00330,1,99,9",,,"07,99,1,99,9,99,9,99999,9,99,9,99,9",,"10020,1,99999,9",,,,,"MET058METAR ENHK 220950Z /////KT 9999 SCT006 BKN011 12/10 Q1002;",
"01044099999","2008-08-22T10:20:00","4","70.486675","22.139744","6.4","HASVIK, NO","FM-15","ENHK ","V020","310,1,N,0026,1","00300,1,C,N","011265,1,N,1","+0110,1","+0100,1","99999,9","02,5,+00150,1,99,9","07,5,+00300,1,99,9",,,"07,99,1,99,9,99,9,99999,9,99,9,99,9",,"10020,1,99999,9","53,1",,,,"MET061METAR ENHK 221020Z 31005KT 9999 DZ FEW005 BKN010 11/10 Q1002;",
"01044099999","2008-08-22T10:50:00","4","70.486675","22.139744","6.4","HASVIK, NO","FM-15","ENHK ","V020","320,1,N,0021,1","00300,1,C,N","008000,1,N,1","+0110,1","+0100,1","99999,9","04,5,+00180,1,99,9","07,5,+00300,1,99,9",,,"07,99,1,99,9,99,9,99999,9,99,9,99,9",,"10020,1,99999,9","53,1",,,,"MET061METAR ENHK 221050Z 32004KT 8000 DZ SCT006 BKN010 11/10 Q1002;",
"01044099999","2008-08-22T11:20:00","4","70.486675","22.139744","6.4","HASVIK, NO","FM-15","ENHK ","V020","280,1,N,0057,1","00300,1,C,N","006000,1,N,1","+0100,1","+0100,1","99999,9","04,5,+00180,1,99,9","07,5,+00300,1,99,9",,,"07,99,1,99,9,99,9,99999,9,99,9,99,9",,"10031,1,99999,9","53,1","63,1",,,"MET063METAR ENHK 221120Z 28011KT 6000 RADZ SCT006 BKN010 10/10 Q1003;",
"01044099999","2008-08-22T11:50:00","4","70.486675","22.139744","6.4","HASVIK, NO","FM-15","ENHK ","V020","320,1,N,0026,1","00300,1,C,N","006000,1,N,1","+0100,1","+0090,1","99999,9","04,5,+00180,1,99,9","07,5,+00300,1,99,9",,,"07,99,1,99,9,99,9,99999,9,99,9,99,9",,"10031,1,99999,9",,,,,"MET058METAR ENHK 221150Z 32005KT 6000 SCT006 BKN010 10/09 Q1003;",
"01044099999","2008-08-22T12:20:00","4","70.486675","22.139744","6.4","HASVIK, NO","FM-15","ENHK ","V020","310,1,N,0026,1","00300,1,C,N","006000,1,N,1","+0100,1","+0090,1","99999,9","04,5,+00180,1,99,9","07,5,+00300,1,99,9",,,"07,99,1,99,9,99,9,99999,9,99,9,99,9",,"10031,1,99999,9",,,,,"MET058METAR ENHK 221220Z 31005KT 6000 SCT006 BKN010 10/09 Q1003;",
"01044099999","2008-08-22T12:50:00","4","70.486675","22.139744","6.4","HASVIK, NO","FM-15","ENHK ","V020","280,1,N,0036,1","00300,1,C,N","006000,1,N,1","+0100,1","+0100,1","99999,9","04,5,+00180,1,99,9","07,5,+00300,1,99,9",,,"07,99,1,99,9,99,9,99999,9,99,9,99,9",,"10031,1,99999,9","53,1",,,,"MET061METAR ENHK 221250Z 28007KT 6000 DZ SCT006 BKN010 10/10 Q1003;",
"01044099999","2008-08-22T13:20:00","4","70.486675","22.139744","6.4","HASVIK, NO","FM-15","ENHK ","V020","310,1,N,0031,1","00390,1,C,N","006000,1,N,1","+0100,1","+0090,1","99999,9","04,5,+00240,1,99,9","07,5,+00390,1,99,9",,,"07,99,1,99,9,99,9,99999,9,99,9,99,9",,"10031,1,99999,9",,,,,"MET058METAR ENHK 221320Z 31006KT 6000 SCT008 BKN013 10/09 Q1003;",
"01044099999","2008-08-22T14:50:00","4","70.486675","22.139744","6.4","HASVIK, NO","FM-15","ENHK ","V020","330,1,N,0036,1","00600,1,C,N","011265,1,N,1","+0100,1","+0090,1","99999,9","04,5,+00360,1,99,9","07,5,+00600,1,99,9",,,"07,99,1,99,9,99,9,99999,9,99,9,99,9",,"10031,1,99999,9",,,,,"MET058METAR ENHK 221450Z 33007KT 9999 SCT012 BKN020 10/09 Q1003;",
"01044099999","2008-08-24T11:50:00","4","70.486675","22.139744","6.4","HASVIK, NO","FM-15","ENHK ","V020","120,1,N,0041,1","99999,9,C,Y","009900,1,N,1","+0120,1","+0080,1","99999,9",,,,,,,"10139,1,99999,9",,,,,"MET045METAR ENHK 241150Z 12008KT CAVOK 12/08 Q1014;",
"01044099999","2008-08-24T12:20:00","4","70.486675","22.139744","6.4","HASVIK, NO","FM-15","ENHK ","V020","120,1,N,0046,1","99999,9,C,Y","009900,1,N,1","+0120,1","+0060,1","99999,9",,,,,,,"10139,1,99999,9",,,,,"MET045METAR ENHK 241220Z 12009KT CAVOK 12/06 Q1014;",
"01044099999","2008-08-24T13:20:00","4","70.486675","22.139744","6.4","HASVIK, NO","FM-15","ENHK ","V020","110,1,N,0051,1","99999,9,C,Y","009900,1,N,1","+0130,1","+0050,1","99999,9",,,,,,,"10139,1,99999,9",,,,,"MET045METAR ENHK 241320Z 11010KT CAVOK 13/05 Q1014;",
"01044099999","2008-08-24T13:50:00","4","70.486675","22.139744","6.4","HASVIK, NO","FM-15","ENHK ","V020","100,1,N,0051,1","99999,9,C,Y","009900,1,N,1","+0130,1","+0050,1","99999,9",,,,,,,"10139,1,99999,9",,,,,"MET045METAR ENHK 241350Z 10010KT CAVOK 13/05 Q1014;",
"01044099999","2008-08-24T14:20:00","4","70.486675","22.139744","6.4","HASVIK, NO","FM-15","ENHK ","V020","090,1,N,0051,1","99999,9,C,Y","009900,1,N,1","+0130,1","+0050,1","99999,9",,,,,,,"10139,1,99999,9",,,,,"MET045METAR ENHK 241420Z 09010KT CAVOK 13/05 Q1014;",
"01044099999","2008-08-25T03:20:00","4","70.486675","22.139744","6.4","HASVIK, NO","FM-15","ENHK ","V020","999,9,9,9999,9","99999,9,9,Y","009900,1,N,1","+0110,1","+0070,1","99999,9",,,,,,,"10150,1,99999,9",,,,,"MET044METAR ENHK 250320Z ////KT CAVOK 11/07 Q1015;",
"01044099999","2008-08-25T03:50:00","4","70.486675","22.139744","6.4","HASVIK, NO","FM-15","ENHK ","V020","999,9,9,9999,9","99999,9,9,Y","009900,1,N,1","+0110,1","+0070,1","99999,9",,,,,,,"10150,1,99999,9",,,,,"MET044METAR ENHK 250350Z ////KT CAVOK 11/07 Q1015;",
"01044099999","2008-08-25T04:20:00","4","70.486675","22.139744","6.4","HASVIK, NO","FM-15","ENHK ","V020","999,9,9,9999,9","99999,9,C,Y","009900,1,N,1","+0110,1","+0070,1","99999,9",,,,,,,"10149,1,99999,9",,,,,"MET045METAR ENHK 250420Z /////KT CAVOK 11/07 Q1015;",
"01044099999","2008-08-25T04:50:00","4","70.486675","22.139744","6.4","HASVIK, NO","FM-15","ENHK ","V020","999,9,9,9999,9","99999,9,C,Y","009900,1,N,1","+0120,1","+0070,1","99999,9",,,,,,,"10149,1,99999,9",,,,,"MET045METAR ENHK 250450Z /////KT CAVOK 12/07 Q1015;",
"01044099999","2008-08-25T11:50:00","4","70.486675","22.139744","6.4","HASVIK, NO","FM-15","ENHK ","V020","999,9,9,9999,9","99999,9,C,Y","009900,1,N,1","+0150,1","+0080,1","99999,9",,,,,,,"10149,1,99999,9",,,,,"MET045METAR ENHK 251150Z /////KT CAVOK 15/08 Q1015;",
"01044099999","2008-08-25T12:20:00","4","70.486675","22.139744","6.4","HASVIK, NO","FM-15","ENHK ","V020","999,9,9,9999,9","99999,9,C,Y","009900,1,N,1","+0150,1","+0070,1","99999,9",,,,,,,"10149,1,99999,9",,,,,"MET045METAR ENHK 251220Z /////KT CAVOK 15/07 Q1015;",
"01044099999","2008-08-25T12:50:00","4","70.486675","22.139744","6.4","HASVIK, NO","FM-15","ENHK ","V020","999,9,9,9999,9","99999,9,C,Y","009900,1,N,1","+0160,1","+0070,1","99999,9",,,,,,,"10149,1,99999,9",,,,,"MET045METAR ENHK 251250Z /////KT CAVOK 16/07 Q1015;",
"01044099999","2008-08-25T13:20:00","4","70.486675","22.139744","6.4","HASVIK, NO","FM-15","ENHK ","V020","999,9,9,9999,9","99999,9,C,Y","009900,1,N,1","+0160,1","+0070,1","99999,9",,,,,,,"10149,1,99999,9",,,,,"MET045METAR ENHK 251320Z /////KT CAVOK 16/07 Q1015;",
"01044099999","2008-08-25T13:50:00","4","70.486675","22.139744","6.4","HASVIK, NO","FM-15","ENHK ","V020","999,9,9,9999,9","99999,9,C,Y","009900,1,N,1","+0140,1","+0070,1","99999,9",,,,,,,"10149,1,99999,9",,,,,"MET045METAR ENHK 251350Z /////KT CAVOK 14/07 Q1015;",
"01044099999","2008-08-25T14:20:00","4","70.486675","22.139744","6.4","HASVIK, NO","FM-15","ENHK ","V020","999,9,9,9999,9","99999,9,C,Y","009900,1,N,1","+0160,1","+0070,1","99999,9",,,,,,,"10149,1,99999,9",,,,,"MET045METAR ENHK 251420Z /////KT CAVOK 16/07 Q1015;",
"01044099999","2008-08-26T03:20:00","4","70.486675","22.139744","6.4","HASVIK, NO","FM-15","ENHK ","V020","999,9,9,9999,9","99999,9,C,Y","009900,1,N,1","+0110,1","+0080,1","99999,9",,,,,,,"10129,1,99999,9",,,,,"MET045METAR ENHK 260320Z /////KT CAVOK 11/08 Q1013;",
"01044099999","2008-08-26T03:50:00","4","70.486675","22.139744","6.4","HASVIK, NO","FM-15","ENHK ","V020","999,9,9,9999,9","99999,9,C,Y","009900,1,N,1","+0120,1","+0080,1","99999,9",,,,,,,"10129,1,99999,9",,,,,"MET045METAR ENHK 260350Z /////KT CAVOK 12/08 Q1013;",
"01044099999","2008-08-26T04:20:00","4","70.486675","22.139744","6.4","HASVIK, NO","FM-15","ENHK ","V020","999,9,9,9999,9","99999,9,C,Y","009900,1,N,1","+0120,1","+0080,1","99999,9",,,,,,,"10129,1,99999,9",,,,,"MET045METAR ENHK 260420Z /////KT CAVOK 12/08 Q1013;",
"01044099999","2008-08-26T04:50:00","4","70.486675","22.139744","6.4","HASVIK, NO","FM-15","ENHK ","V020","999,9,9,9999,9","99999,9,C,Y","009900,1,N,1","+0120,1","+0080,1","99999,9",,,,,,,"10129,1,99999,9",,,,,"MET045METAR ENHK 260450Z /////KT CAVOK 12/08 Q1013;",
"01044099999","2008-08-26T05:20:00","4","70.486675","22.139744","6.4","HASVIK, NO","FM-15","ENHK ","V020","999,9,9,9999,9","99999,9,C,Y","009900,1,N,1","+0120,1","+0090,1","99999,9",,,,,,,"10129,1,99999,9",,,,,"MET045METAR ENHK 260520Z /////KT CAVOK 12/09 Q1013;",
"01044099999","2008-08-26T12:50:00","4","70.486675","22.139744","6.4","HASVIK, NO","FM-15","ENHK ","V020","120,1,N,0036,1","99999,9,C,N","011265,1,N,1","+0150,1","+0090,1","99999,9","02,5,+00900,1,99,9","04,5,+01470,1,99,9",,,"04,99,1,99,9,99,9,99999,9,99,9,99,9",,"10129,1,99999,9",,,,,"MET058METAR ENHK 261250Z 12007KT 9999 FEW030 SCT049 15/09 Q1013;","P01 014703SCOCIG"
"01044099999","2008-08-26T13:20:00","4","70.486675","22.139744","6.4","HASVIK, NO","FM-15","ENHK ","V020","120,1,N,0036,1","99999,9,C,N","011265,1,N,1","+0150,1","+0080,1","99999,9","02,5,+00900,1,99,9","04,5,+01440,1,99,9",,,"04,99,1,99,9,99,9,99999,9,99,9,99,9",,"10119,1,99999,9",,,,,"MET058METAR ENHK 261320Z 12007KT 9999 FEW030 SCT048 15/08 Q1012;","P01 014403SCOCIG"
"01044099999","2008-08-26T13:50:00","4","70.486675","22.139744","6.4","HASVIK, NO","FM-15","ENHK ","V020","100,1,N,0062,1","01440,1,C,N","011265,1,N,1","+0140,1","+0080,1","99999,9","02,5,+00900,1,99,9","07,5,+01440,1,99,9",,,"07,99,1,99,9,99,9,99999,9,99,9,99,9",,"10119,1,99999,9",,,,,"MET066METAR ENHK 261350Z 10012KT 050V120 9999 FEW030 BKN048 14/08 Q1012;",
"01044099999","2008-08-27T03:20:00","4","70.486675","22.139744","6.4","HASVIK, NO","FM-15","ENHK ","V020","100,1,N,0057,1","22000,1,9,N","011265,1,N,1","+0110,1","+0070,1","99999,9","02,5,+00900,1,99,9",,,,"02,99,1,99,9,99,9,99999,9,99,9,99,9",,"10102,1,99999,9",,,,,"MET051METAR ENHK 270320Z 10011KT 9999 FEW030 11/07 Q1010;",
"01044099999","2008-08-27T03:50:00","4","70.486675","22.139744","6.4","HASVIK, NO","FM-15","ENHK ","V020","100,1,N,0057,1","22000,1,9,N","011265,1,N,1","+0110,1","+0070,1","99999,9",,,,,"00,99,1,99,9,99,9,99999,9,99,9,99,9",,"10102,1,99999,9",,,,,"MET048METAR ENHK 270350Z 10011KT 9999 NSC 11/07 Q1010;","Q01    003SCCGA1"
"01044099999","2008-08-27T04:20:00","4","70.486675","22.139744","6.4","HASVIK, NO","FM-15","ENHK ","V020","100,1,N,0067,1","22000,1,9,N","011265,1,N,1","+0120,1","+0070,1","99999,9",,,,,"00,99,1,99,9,99,9,99999,9,99,9,99,9",,"10102,1,99999,9",,,,,"MET048METAR ENHK 270420Z 10013KT 9999 NSC 12/07 Q1010;","Q01    003SCCGA1"
"01044099999","2008-08-27T04:50:00","4","70.486675","22.139744","6.4","HASVIK, NO","FM-15","ENHK ","V020","110,1,N,0062,1","22000,1,9,N","011265,1,N,1","+0120,1","+0080,1","99999,9",,,,,"00,99,1,99,9,99,9,99999,9,99,9,99,9",,"10091,1,99999,9",,,,,"MET048METAR ENHK 270450Z 11012KT 9999 NSC 12/08 Q1009;","Q01    003SCCGA1"
"01044099999","2008-08-27T05:50:00","4","70.486675","22.139744","6.4","HASVIK, NO","FM-15","ENHK ","V020","110,1,N,0067,1","22000,1,9,N","011265,1,N,1","+0120,1","+0080,1","99999,9",,,,,"00,99,1,99,9,99,9,99999,9,99,9,99,9",,"10091,1,99999,9",,,,,"MET048METAR ENHK 270550Z 11013KT 9999 NSC 12/08 Q1009;","Q01    003SCCGA1"
"01044099999","2008-08-27T06:20:00","4","70.486675","22.139744","6.4","HASVIK, NO","FM-15","ENHK ","V020","110,1,N,0072,1","22000,1,9,N","011265,1,N,1","+0120,1","+0080,1","99999,9",,,,,"00,99,1,99,9,99,9,99999,9,99,9,99,9",,"10091,1,99999,9",,,,,"MET048METAR ENHK 270620Z 11014KT 9999 NSC 12/08 Q1009;","Q01    003SCCGA1"
"01044099999","2008-08-27T06:50:00","4","70.486675","22.139744","6.4","HASVIK, NO","FM-15","ENHK ","V020","110,1,N,0072,1","22000,1,9,N","011265,1,N,1","+0120,1","+0080,1","99999,9",,,,,"00,99,1,99,9,99,9,99999,9,99,9,99,9",,"10091,1,99999,9",,,,,"MET048METAR ENHK 270650Z 11014KT 9999 NSC 12/08 Q1009;","Q01    003SCCGA1"
"01044099999","2008-08-27T12:50:00","4","70.486675","22.139744","6.4","HASVIK, NO","FM-15","ENHK ","V020","100,1,N,0051,1","99999,9,C,Y","009900,1,N,1","+0140,1","+0070,1","99999,9",,,,,,,"10091,1,99999,9",,,,,"MET045METAR ENHK 271250Z 10010KT CAVOK 14/07 Q1009;",
"01044099999","2008-08-27T13:20:00","4","70.486675","22.139744","6.4","HASVIK, NO","FM-15","ENHK ","V020","100,1,N,0057,1","99999,9,C,Y","009900,1,N,1","+0140,1","+0070,1","99999,9",,,,,,,"10091,1,99999,9",,,,,"MET045METAR ENHK 271320Z 10011KT CAVOK 14/07 Q1009;",
"01044099999","2008-08-27T13:50:00","4","70.486675","22.139744","6.4","HASVIK, NO","FM-15","ENHK ","V020","100,1,N,0057,1","99999,9,C,Y","009900,1,N,1","+0150,1","+0070,1","99999,9",,,,,,,"10091,1,99999,9",,,,,"MET045METAR ENHK 271350Z 10011KT CAVOK 15/07 Q1009;",
"01044099999","2008-08-27T14:20:00","4","70.486675","22.139744","6.4","HASVIK, NO","FM-15","ENHK ","V020","090,1,N,0057,1","99999,9,C,Y","009900,1,N,1","+0150,1","+0070,1","99999,9",,,,,,,"10081,1,99999,9",,,,,"MET045METAR ENHK 271420Z 09011KT CAVOK 15/07 Q1008;",
"01044099999","2008-08-28T03:50:00","4","70.486675","22.139744","6.4","HASVIK, NO","FM-15","ENHK ","V020","120,1,N,0031,1","22000,1,9,N","011265,1,N,1","+0090,1","+0070,1","99999,9",,,,,"00,99,1,99,9,99,9,99999,9,99,9,99,9",,"10071,1,99999,9",,,,,"MET048METAR ENHK 280350Z 12006KT 9999 NSC 09/07 Q1007;","Q01    003SCCGA1"
"01044099999","2008-08-28T04:20:00","4","70.486675","22.139744","6.4","HASVIK, NO","FM-15","ENHK ","V020","120,1,N,0031,1","22000,1,9,N","011265,1,N,1","+0090,1","+0060,1","99999,9","02,5,+01410,1,99,9",,,,"02,99,1,99,9,99,9,99999,9,99,9,99,9",,"10071,1,99999,9",,,,,"MET051METAR ENHK 280420Z 12006KT 9999 FEW047 09/06 Q1007;",
"01044099999","2008-08-28T04:50:00","4","70.486675","22.139744","6.4","HASVIK, NO","FM-15","ENHK ","V020","100,1,N,0026,1","99999,9,C,N","011265,1,N,1","+0100,1","+0070,1","99999,9","02,5,+00300,1,99,9","04,5,+01380,1,99,9",,,"04,99,1,99,9,99,9,99999,9,99,9,99,9",,"10071,1,99999,9",,,,,"MET058METAR ENHK 280450Z 10005KT 9999 FEW010 SCT046 10/07 Q1007;","P01 013803SCOCIG"
"01044099999","2008-08-28T11:50:00","4","70.486675","22.139744","6.4","HASVIK, NO","FM-15","ENHK ","V020","100,1,N,0057,1","22000,1,9,N","011265,1,N,1","+0110,1","+0070,1","99999,9","02,5,+00870,1,02,1",,,,"02,99,1,99,9,99,9,99999,9,99,9,99,9",,"10071,1,99999,9",,,,,"MET054METAR ENHK 281150Z 10011KT 9999 FEW029TCU 11/07 Q1007;",
"01044099999","2008-08-28T12:20:00","4","70.486675","22.139744","6.4","HASVIK, NO","FM-15","ENHK ","V020","100,1,N,0057,1","22000,1,9,N","011265,1,N,1","+0110,1","+0070,1","99999,9","02,5,+00900,1,02,1",,,,"02,99,1,99,9,99,9,99999,9,99,9,99,9",,"10071,1,99999,9",,,,,"MET054METAR ENHK 281220Z 10011KT 9999 FEW030TCU 11/07 Q1007;",
"01044099999","2008-08-28T12:50:00","4","70.486675","22.139744","6.4","HASVIK, NO","FM-15","ENHK ","V020","100,1,N,0051,1","22000,1,9,N","011265,1,N,1","+0120,1","+0070,1","99999,9","02,5,+00900,1,02,1",,,,"02,99,1,99,9,99,9,99999,9,99,9,99,9",,"10071,1,99999,9",,,,,"MET054METAR ENHK 281250Z 10010KT 9999 FEW030TCU 12/07 Q1007;",
"01044099999","2008-08-28T13:20:00","4","70.486675","22.139744","6.4","HASVIK, NO","FM-15","ENHK ","V020","100,1,N,0057,1","22000,1,9,N","011265,1,N,1","+0120,1","+0060,1","99999,9","02,5,+00960,1,02,1",,,,"02,99,1,99,9,99,9,99999,9,99,9,99,9",,"10071,1,99999,9",,,,,"MET054METAR ENHK 281320Z 10011KT 9999 FEW032TCU 12/06 Q1007;",
"01044099999","2008-08-29T03:20:00","4","70.486675","22.139744","6.4","HASVIK, NO","FM-15","ENHK ","V020","999,9,V,0010,1","01380,1,C,N","011265,1,N,1","+0090,1","+0060,1","99999,9","04,5,+00780,1,99,9","07,5,+01380,1,99,9",,,"07,99,1,99,9,99,9,99999,9,99,9,99,9",,"10102,1,99999,9",,,,,"MET058METAR ENHK 290320Z VRB02KT 9999 SCT026 BKN046 09/06 Q1010;",
"01044099999","2008-08-29T03:50:00","4","70.486675","22.139744","6.4","HASVIK, NO","FM-15","ENHK ","V020","999,9,V,0015,1","01350,1,C,N","011265,1,N,1","+0090,1","+0060,1","99999,9","04,5,+00720,1,99,9","07,5,+01350,1,99,9",,,"07,99,1,99,9,99,9,99999,9,99,9,99,9",,"10102,1,99999,9",,,,,"MET058METAR ENHK 290350Z VRB03KT 9999 SCT024 BKN045 09/06 Q1010;",
"01044099999","2008-08-29T04:20:00","4","70.486675","22.139744","6.4","HASVIK, NO","FM-15","ENHK ","V020","999,9,V,0010,1","01350,1,C,N","011265,1,N,1","+0090,1","+0050,1","99999,9","02,5,+00750,1,99,9","07,5,+01350,1,99,9",,,"07,99,1,99,9,99,9,99999,9,99,9,99,9",,"10102,1,99999,9",,,,,"MET058METAR ENHK 290420Z VRB02KT 9999 FEW025 BKN045 09/05 Q1010;",
"01044099999","2008-08-29T04:50:00","4","70.486675","22.139744","6.4","HASVIK, NO","FM-15","ENHK ","V020","270,1,N,0015,1","01290,1,C,N","011265,1,N,1","+0090,1","+0050,1","99999,9","02,5,+00720,1,99,9","07,5,+01290,1,99,9",,,"07,99,1,99,9,99,9,99999,9,99,9,99,9",,"10102,1,99999,9",,,,,"MET058METAR ENHK 290450Z 27003KT 9999 FEW024 BKN043 09/05 Q1010;",
"01044099999","2008-08-29T05:20:00","4","70.486675","22.139744","6.4","HASVIK, NO","FM-15","ENHK ","V020","320,1,N,0015,1","01290,1,C,N","011265,1,N,1","+0090,1","+0050,1","99999,9","02,5,+00660,1,99,9","07,5,+01290,1,99,9",,,"07,99,1,99,9,99,9,99999,9,99,9,99,9",,"10102,1,99999,9",,,,,"MET066METAR ENHK 290520Z 32003KT 270V360 9999 FEW022 BKN043 09/05 Q1010;",
"01044099999","2008-08-29T05:50:00","4","70.486675","22.139744","6.4","HASVIK, NO","FM-15","ENHK ","V020","999,9,V,0005,1","01290,1,C,N","011265,1,N,1","+0090,1","+0050,1","99999,9","02,5,+00630,1,99,9","07,5,+01290,1,99,9",,,"07,99,1,99,9,99,9,99999,9,99,9,99,9",,"10108,1,99999,9",,,,,"MET058METAR ENHK 290550Z VRB01KT 9999 FEW021 BKN043 09/05 Q1011;",
"01044099999","2008-08-29T12:50:00","4","70.486675","22.139744","6.4","HASVIK, NO","FM-15","ENHK ","V020","020,1,N,0036,1","02220,5,C,N","011265,1,N,1","+0100,1","+0030,1","99999,9","02,5,+00660,1,99,9","07,5,+02220,5,99,9",,,"07,99,1,99,9,99,9,99999,9,99,9,99,9",,"10139,1,99999,9",,,,,"MET066METAR ENHK 291250Z 02007KT 330V070 9999 FEW022 BKN074 10/03 Q1014;",
"01044099999","2008-08-29T13:50:00","4","70.486675","22.139744","6.4","HASVIK, NO","FM-15","ENHK ","V020","050,1,N,0041,1","01200,1,C,N","011265,1,N,1","+0100,1","+0030,1","99999,9","02,5,+00630,1,99,9","04,5,+01200,1,99,9","07,5,+02250,5,99,9",,"07,99,1,99,9,99,9,99999,9,99,9,99,9",,"10139,1,99999,9",,,,,"MET065METAR ENHK 291350Z 05008KT 9999 FEW021 SCT040 BKN075 10/03 Q1014;",
"01044099999","2008-08-31T11:50:00","4","70.486675","22.139744","6.4","HASVIK, NO","FM-15","ENHK ","V020","290,1,N,0118,1","00330,1,C,N","011265,1,N,1","+0070,1","+0060,1","99999,9","02,5,+00210,1,99,9","04,5,+00330,1,99,9","07,5,+00510,1,99,9",,"07,99,1,99,9,99,9,99999,9,99,9,99,9",,,"61,1",,,,"MET069METAR ENHK 311150Z 29023KT 9999 -RA FEW007 SCT011 BKN017 07/06 W1018;",
"01044099999","2008-08-31T12:20:00","4","70.486675","22.139744","6.4","HASVIK, NO","FM-15","ENHK ","V020","300,1,N,0113,1","00390,1,C,N","011265,1,N,1","+0080,1","+0060,1","99999,9","02,5,+00210,1,99,9","04,5,+00390,1,99,9","07,5,+00630,1,99,9",,"07,99,1,99,9,99,9,99999,9,99,9,99,9",,"10180,1,99999,9","61,1",,,,"MET069METAR ENHK 311220Z 30022KT 9999 -RA FEW007 SCT013 BKN021 08/06 Q1018;",
"01044099999","2008-08-31T12:50:00","4","70.486675","22.139744","6.4","HASVIK, NO","FM-15","ENHK ","V020","290,1,N,0103,1","00390,1,C,N","006000,1,N,1","+0080,1","+0060,1","99999,9","02,5,+00240,1,99,9","04,5,+00390,1,99,9","07,5,+00540,1,99,9",,"07,99,1,99,9,99,9,99999,9,99,9,99,9",,"10180,1,99999,9","63,1",,,,"MET069METAR ENHK 311250Z 29020KT 6000W RA FEW008 SCT013 BKN018 08/06 Q1018;",
"01044099999","2008-09-01T03:20:00","4","70.486675","22.139744","6.4","HASVIK, NO","FM-15","ENHK ","V020","340,1,N,0067,1","00660,1,C,N","011265,1,N,1","+0050,1","+0000,1","99999,9","02,5,+00420,1,99,9","07,5,+00660,1,99,9",,,"07,99,1,99,9,99,9,99999,9,99,9,99,9",,"10149,1,99999,9","16,1",,,,"MET063METAR ENHK 010320Z 34013KT 9999 VCSH FEW014 BKN022 05/00 Q1015;",
"01044099999","2008-09-01T03:50:00","4","70.486675","22.139744","6.4","HASVIK, NO","FM-15","ENHK ","V020","330,1,N,0067,1","00450,1,C,N","011265,1,N,1","+0050,1","+0010,1","99999,9","02,5,+00300,1,99,9","04,5,+00450,1,99,9","07,5,+00630,1,99,9",,"07,99,1,99,9,99,9,99999,9,99,9,99,9",,"10149,1,99999,9","61,1",,,,"MET069METAR ENHK 010350Z 33013KT 9999 -RA FEW010 SCT015 BKN021 05/01 Q1015;",
"01044099999","2008-09-01T04:20:00","4","70.486675","22.139744","6.4","HASVIK, NO","FM-15","ENHK ","V020","330,1,N,0072,1","00570,1,C,N","011265,1,N,1","+0050,1","+0010,1","99999,9","02,5,+00420,1,99,9","04,5,+00570,1,99,9","07,5,+00750,1,99,9",,"07,99,1,99,9,99,9,99999,9,99,9,99,9",,"10149,1,99999,9","16,1",,,,"MET076METAR ENHK 010420Z 33014KT 9999 VCSH FEW014 SCT019 BKN025 05/01 Q1015 -RERA;",
"01044099999","2008-09-01T04:50:00","4","70.486675","22.139744","6.4","HASVIK, NO","FM-15","ENHK ","V020","330,1,N,0072,1","00600,1,C,N","011265,1,N,1","+0050,1","+0010,1","99999,9","02,5,+00450,1,99,9","04,5,+00600,1,99,9","07,5,+00900,1,99,9",,"07,99,1,99,9,99,9,99999,9,99,9,99,9",,"10149,1,99999,9","16,1",,,,"MET078METAR ENHK 010450Z 33014KT 310V010 9999 VCSH FEW015 SCT020 BKN030 05/01 Q1015;",
"01044099999","2008-09-01T13:20:00","4","70.486675","22.139744","6.4","HASVIK, NO","FM-15","ENHK ","V020","350,1,N,0046,1","00660,1,C,N","011265,1,N,1","+0050,1","+0030,1","99999,9","04,5,+00450,1,99,9","07,5,+00660,1,99,9",,,"07,99,1,99,9,99,9,99999,9,99,9,99,9",,"10129,1,99999,9","61,1",,,,"MET070METAR ENHK 011320Z 35009KT 310V040 9999 -RA SCT015 BKN022 05/03 Q1013;",
"01044099999","2008-09-02T03:20:00","4","70.486675","22.139744","6.4","HASVIK, NO","FM-15","ENHK ","V020","330,1,N,0057,1","00600,1,C,N","011265,1,N,1","+0050,1","+0020,1","99999,9","02,5,+00450,1,99,9","04,5,+00600,1,99,9","07,5,+00960,1,99,9",,"07,99,1,99,9,99,9,99999,9,99,9,99,9",,"10071,1,99999,9","80,1",,,,"MET071METAR ENHK 020320Z 33011KT 9999 -SHRA FEW015 SCT020 BKN032 05/02 Q1007;",
"01044099999","2008-09-02T03:50:00","4","70.486675","22.139744","6.4","HASVIK, NO","FM-15","ENHK ","V020","330,1,N,0036,1","00600,1,C,N","011265,1,N,1","+0050,1","+0020,1","99999,9","02,5,+00480,1,99,9","04,5,+00600,1,99,9","07,5,+00960,1,99,9",,"07,99,1,99,9,99,9,99999,9,99,9,99,9",,"10061,1,99999,9","16,1",,,,"MET076METAR ENHK 020350Z 33007KT 9999 VCSH FEW016 SCT020 BKN032 05/02 Q1006 -RERA;",
"01044099999","2008-09-02T04:20:00","4","70.486675","22.139744","6.4","HASVIK, NO","FM-15","ENHK ","V020","330,1,N,0057,1","00600,1,C,N","011265,1,N,1","+0050,1","+0030,1","99999,9","02,5,+00360,1,99,9","04,5,+00600,1,99,9","07,5,+01110,1,99,9",,"07,99,1,99,9,99,9,99999,9,99,9,99,9",,"10061,1,99999,9","16,1",,,,"MET076METAR ENHK 020420Z 33011KT 9999 VCSH FEW012 SCT020 BKN037 05/03 Q1006 -RERA;",
"01044099999","2008-09-02T04:50:00","4","70.486675","22.139744","6.4","HASVIK, NO","FM-15","ENHK ","V020","340,1,N,0036,1","00510,1,C,N","011265,1,N,1","+0050,1","+0030,1","99999,9","02,5,+00330,1,99,9","04,5,+00510,1,99,9","07,5,+01110,1,99,9",,"07,99,1,99,9,99,9,99999,9,99,9,99,9",,"10061,1,99999,9","80,1",,,,"MET079METAR ENHK 020450Z 34007KT 310V020 9999 -SHRA FEW011 SCT017 BKN037 05/03 Q1006;",
"01044099999","2008-09-02T06:50:00","4","70.486675","22.139744","6.4","HASVIK, NO","FM-15","ENHK ","V020","340,1,N,0046,1","00600,1,C,N","011265,1,N,1","+0050,1","+0030,1","99999,9","04,5,+00390,1,99,9","07,5,+00600,1,99,9",,,"07,99,1,99,9,99,9,99999,9,99,9,99,9",,"10051,1,99999,9","53,1","80,1",,,"MET074METAR ENHK 020650Z 34009KT 310V010 9999 -SHRADZ SCT013 BKN020 05/03 Q1005;",
"01044099999","2008-09-02T08:20:00","4","70.486675","22.139744","6.4","HASVIK, NO","FM-15","ENHK ","V020","320,1,N,0046,1","00510,1,C,N","011265,1,N,1","+0050,1","+0030,1","99999,9","02,5,+00300,1,99,9","07,5,+00510,1,99,9",,,"07,99,1,99,9,99,9,99999,9,99,9,99,9",,"10051,1,99999,9","80,1",,,,"MET064METAR ENHK 020820Z 32009KT 9999 -SHRA FEW010 BKN017 05/03 Q1005;",
"01044099999","2008-09-02T08:50:00","4","70.486675","22.139744","6.4","HASVIK, NO","FM-15","ENHK ","V020","320,1,N,0041,1","00540,1,C,N","011265,1,N,1","+0060,1","+0040,1","99999,9","02,5,+00300,1,99,9","07,5,+00540,1,99,9",,,"07,99,1,99,9,99,9,99999,9,99,9,99,9",,"10051,1,99999,9","80,1",,,,"MET064METAR ENHK 020850Z 32008KT 9999 -SHRA FEW010 BKN018 06/04 Q1005;",
"01044099999","2008-09-02T09:20:00","4","70.486675","22.139744","6.4","HASVIK, NO","FM-15","ENHK ","V020","330,1,N,0041,1","00510,1,C,N","011265,1,N,1","+0050,1","+0040,1","99999,9","02,5,+00300,1,99,9","07,5,+00510,1,99,9",,,"07,99,1,99,9,99,9,99999,9,99,9,99,9",,"10041,1,99999,9","16,1",,,,"MET063METAR ENHK 020920Z 33008KT 9999 VCSH FEW010 BKN017 05/04 Q1004;",
"01044099999","2008-09-02T09:50:00","4","70.486675","22.139744","6.4","HASVIK, NO","FM-15","ENHK ","V020","320,1,N,0046,1","00510,1,C,N","011265,1,N,1","+0050,1","+0040,1","99999,9","04,5,+00300,1,99,9","07,5,+00510,1,99,9",,,"07,99,1,99,9,99,9,99999,9,99,9,99,9",,"10041,1,99999,9","80,1",,,,"MET070METAR ENHK 020950Z 32009KT 9999 6000E -SHRA SCT010 BKN017 05/04 Q1004;",
"01044099999","2008-09-02T12:20:00","4","70.486675","22.139744","6.4","HASVIK, NO","FM-15","ENHK ","V020","320,1,N,0051,1","00540,1,C,N","011265,1,N,1","+0060,1","+0040,1","99999,9","02,5,+00300,1,99,9","07,5,+00540,1,99,9",,,"07,99,1,99,9,99,9,99999,9,99,9,99,9",,"10041,1,99999,9","16,1",,,,"MET063METAR ENHK 021220Z 32010KT 9999 VCSH FEW010 BKN018 06/04 Q1004;",
"01044099999","2008-09-02T12:50:00","4","70.486675","22.139744","6.4","HASVIK, NO","FM-15","ENHK ","V020","310,1,N,0077,1","00540,1,C,N","011265,1,N,1","+0050,1","+0040,1","99999,9","02,5,+00300,1,99,9","07,5,+00540,1,99,9",,,"07,99,1,99,9,99,9,99999,9,99,9,99,9",,"10031,1,99999,9","80,1",,,,"MET064METAR ENHK 021250Z 31015KT 9999 -SHRA FEW010 BKN018 05/04 Q1003;",
"01044099999","2008-09-02T13:20:00","4","70.486675","22.139744","6.4","HASVIK, NO","FM-15","ENHK ","V020","320,1,N,0062,1","00570,1,C,N","011265,1,N,1","+0050,1","+0040,1","99999,9","02,5,+00300,1,99,9","07,5,+00570,1,99,9",,,"07,99,1,99,9,99,9,99999,9,99,9,99,9",,"10031,1,99999,9","61,1",,,,"MET062METAR ENHK 021320Z 32012KT 9999 -RA FEW010 BKN019 05/04 Q1003;",
"01044099999","2008-09-02T14:20:00","4","70.486675","22.139744","6.4","HASVIK, NO","FM-15","ENHK ","V020","310,1,N,0082,1","00540,1,C,N","011265,1,N,1","+0060,1","+0040,1","99999,9","02,5,+00300,1,99,9","07,5,+00540,1,99,9",,,"07,99,1,99,9,99,9,99999,9,99,9,99,9",,"10031,1,99999,9",,,,,"MET063METAR ENHK 021420Z 31016KT 9999 FEW010 BKN018 06/04 Q1003 RERA;",
"01044099999","2008-09-03T03:20:00","4","70.486675","22.139744","6.4","HASVIK, NO","FM-15","ENHK ","V020","300,1,N,0077,1","00630,1,C,N","011265,1,N,1","+0050,1","+0020,1","99999,9","04,5,+00480,1,99,9","07,5,+00630,1,99,9",,,"07,99,1,99,9,99,9,99999,9,99,9,99,9",,"09959,1,99999,9",,,,,"MET058METAR ENHK 030320Z 30015KT 9999 SCT016 BKN021 05/02 Q0996;",
"01044099999","2008-09-03T03:50:00","4","70.486675","22.139744","6.4","HASVIK, NO","FM-15","ENHK ","V020","300,1,N,0077,1","00720,1,C,N","011265,1,N,1","+0050,1","+0020,1","99999,9","04,5,+00510,1,99,9","07,5,+00720,1,99,9",,,"07,99,1,99,9,99,9,99999,9,99,9,99,9",,"09959,1,99999,9","16,1",,,,"MET063METAR ENHK 030350Z 30015KT 9999 VCSH SCT017 BKN024 05/02 Q0996;",
"01044099999","2008-09-03T04:20:00","4","70.486675","22.139744","6.4","HASVIK, NO","FM-15","ENHK ","V020","300,1,N,0077,1","00750,1,C,N","011265,1,N,1","+0050,1","+0030,1","99999,9","04,5,+00480,1,99,9","07,5,+00750,1,99,9",,,"07,99,1,99,9,99,9,99999,9,99,9,99,9",,"09959,1,99999,9","16,1",,,,"MET063METAR ENHK 030420Z 30015KT 9999 VCSH SCT016 BKN025 05/03 Q0996;",
"01044099999","2008-09-03T04:50:00","4","70.486675","22.139744","6.4","HASVIK, NO","FM-15","ENHK ","V020","280,1,N,0072,1","00660,1,C,N","011265,1,N,1","+0050,1","+0030,1","99999,9","02,5,+00480,1,99,9","07,5,+00660,1,99,9",,,"07,99,1,99,9,99,9,99999,9,99,9,99,9",,"09959,1,99999,9","80,1",,,,"MET064METAR ENHK 030450Z 28014KT 9999 -SHRA FEW016 BKN022 05/03 Q0996;",
"01044099999","2008-09-03T05:20:00","4","70.486675","22.139744","6.4","HASVIK, NO","FM-15","ENHK ","V020","280,1,N,0072,1","00690,1,C,N","011265,1,N,1","+0050,1","+0030,1","99999,9","02,5,+00420,1,99,9","07,5,+00690,1,99,9",,,"07,99,1,99,9,99,9,99999,9,99,9,99,9",,"09959,1,99999,9","80,1",,,,"MET064METAR ENHK 030520Z 28014KT 9999 -SHRA FEW014 BKN023 05/03 Q0996;",
"01044099999","2008-09-03T11:50:00","4","70.486675","22.139744","6.4","HASVIK, NO","FM-15","ENHK ","V020","270,1,N,0051,1","00480,1,C,N","011265,1,N,1","+0060,1","+0040,1","99999,9","02,5,+00300,1,99,9","04,5,+00480,1,99,9","07,5,+00960,1,99,9",,"07,99,1,99,9,99,9,99999,9,99,9,99,9",,"09939,1,99999,9","16,1",,,,"MET070METAR ENHK 031150Z 27010KT 9999 VCSH FEW010 SCT016 BKN032 06/04 Q0994;",
"01044099999","2008-09-03T12:20:00","4","70.486675","22.139744","6.4","HASVIK, NO","FM-15","ENHK ","V020","270,1,N,0036,1","00540,1,C,N","011265,1,N,1","+0060,1","+0050,1","99999,9","04,5,+00360,1,99,9","07,5,+00540,1,99,9",,,"07,99,1,99,9,99,9,99999,9,99,9,99,9",,"09939,1,99999,9","80,1",,,,"MET064METAR ENHK 031220Z 27007KT 9999 -SHRA SCT012 BKN018 06/05 Q0994;",
"01044099999","2008-09-03T12:50:00","4","70.486675","22.139744","6.4","HASVIK, NO","FM-15","ENHK ","V020","300,1,N,0051,1","00510,1,C,N","011265,1,N,1","+0060,1","+0050,1","99999,9","04,5,+00360,1,99,9","07,5,+00510,1,99,9",,,"07,99,1,99,9,99,9,99999,9,99,9,99,9",,"09939,1,99999,9","80,1",,,,"MET064METAR ENHK 031250Z 30010KT 9999 -SHRA SCT012 BKN017 06/05 Q0994;",
"01044099999","2008-09-03T13:20:00","4","70.486675","22.139744","6.4","HASVIK, NO","FM-15","ENHK ","V020","280,1,N,0036,1","00480,1,C,N","008000,1,N,1","+0060,1","+0050,1","99999,9","04,5,+00360,1,99,9","07,5,+00480,1,99,9",,,"07,99,1,99,9,99,9,99999,9,99,9,99,9",,"09939,1,99999,9","61,1",,,,"MET062METAR ENHK 031320Z 28007KT 8000 -RA SCT012 BKN016 06/05 Q0994;",
"01044099999","2008-09-03T13:50:00","4","70.486675","22.139744","6.4","HASVIK, NO","FM-15","ENHK ","V020","270,1,N,0036,1","00510,1,C,N","011265,1,N,1","+0060,1","+0050,1","99999,9","04,5,+00330,1,99,9","07,5,+00510,1,99,9",,,"07,99,1,99,9,99,9,99999,9,99,9,99,9",,"09939,1,99999,9","61,1",,,,"MET062METAR ENHK 031350Z 27007KT 9999 -RA SCT011 BKN017 06/05 Q0994;",
"01044099999","2008-09-04T03:20:00","4","70.486675","22.139744","6.4","HASVIK, NO","FM-15","ENHK ","V020","090,1,N,0046,1","02220,5,C,N","011265,1,N,1","+0070,1","+0040,1","99999,9","02,5,+01050,1,99,9","07,5,+02220,5,99,9",,,"07,99,1,99,9,99,9,99999,9,99,9,99,9",,"09851,1,99999,9","80,1",,,,"MET064METAR ENHK 040320Z 09009KT 9999 -SHRA FEW035 BKN074 07/04 Q0985;",
"01044099999","2008-09-04T03:50:00","4","70.486675","22.139744","6.4","HASVIK, NO","FM-15","ENHK ","V020","100,1,N,0046,1","02250,5,C,N","011265,1,N,1","+0070,1","+0040,1","99999,9","04,5,+01020,1,99,9","07,5,+02250,5,99,9",,,"07,99,1,99,9,99,9,99999,9,99,9,99,9",,"09851,1,99999,9","80,1",,,,"MET064METAR ENHK 040350Z 10009KT 9999 -SHRA SCT034 BKN075 07/04 Q0985;",
"01044099999","2008-09-04T04:20:00","4","70.486675","22.139744","6.4","HASVIK, NO","FM-15","ENHK ","V020","100,1,N,0046,1","02340,5,C,N","011265,1,N,1","+0070,1","+0040,1","99999,9","04,5,+01050,1,99,9","07,5,+02340,5,99,9",,,"07,99,1,99,9,99,9,99999,9,99,9,99,9",,"09851,1,99999,9","80,1",,,,"MET064METAR ENHK 040420Z 10009KT 9999 -SHRA SCT035 BKN078 07/04 Q0985;",
"01044099999","2008-09-04T08:20:00","4","70.486675","22.139744","6.4","HASVIK, NO","FM-15","ENHK ","V020","999,9,V,0010,1","02160,5,C,N","011265,1,N,1","+0080,1","+0050,1","99999,9","02,5,+00810,1,99,9","07,5,+02160,5,99,9",,,"07,99,1,99,9,99,9,99999,9,99,9,99,9",,"09841,1,99999,9","16,1",,,,"MET063METAR ENHK 040820Z VRB02KT 9999 VCSH FEW027 BKN072 08/05 Q0984;",
"01044099999","2008-09-04T08:50:00","4","70.486675","22.139744","6.4","HASVIK, NO","FM-15","ENHK ","V020","320,1,N,0031,1","01500,1,C,N","011265,1,N,1","+0080,1","+0060,1","99999,9","02,5,+00750,1,99,9","04,5,+01650,5,99,9","07,5,+02100,1,99,9",,"07,99,1,99,9,99,9,99999,9,99,9,99,9",,"09841,1,99999,9",,,,,"MET065METAR ENHK 040850Z 32006KT 9999 FEW025 SCT055 BKN070 08/06 Q0984;",
"01044099999","2008-09-04T12:50:00","4","70.486675","22.139744","6.4","HASVIK, NO","FM-15","ENHK ","V020","330,1,N,0031,1","01050,1,C,N","011265,1,N,1","+0080,1","+0050,1","99999,9","02,5,+00750,1,99,9","04,5,+01050,1,99,9","07,5,+02100,1,99,9",,"07,99,1,99,9,99,9,99999,9,99,9,99,9",,"09851,1,99999,9","61,1",,,,"MET069METAR ENHK 041250Z 33006KT 9999 -RA FEW025 SCT035 BKN070 08/05 Q0985;",
"01044099999","2008-09-04T13:20:00","4","70.486675","22.139744","6.4","HASVIK, NO","FM-15","ENHK ","V020","320,1,N,0031,1","01050,1,C,N","011265,1,N,1","+0080,1","+0060,1","99999,9","02,5,+00750,1,99,9","04,5,+01050,1,99,9","07,5,+02100,1,99,9",,"07,99,1,99,9,99,9,99999,9,99,9,99,9",,"09851,1,99999,9",,,,,"MET065METAR ENHK 041320Z 32006KT 9999 FEW025 SCT035 BKN070 08/06 Q0985;",
"01044099999","2008-09-04T14:20:00","4","70.486675","22.139744","6.4","HASVIK, NO","FM-15","ENHK ","V020","330,1,N,0036,1","01050,1,C,N","011265,1,N,1","+0080,1","+0060,1","99999,9","02,5,+00750,1,99,9","04,5,+01050,1,99,9","07,5,+02100,1,99,9",,"07,99,1,99,9,99,9,99999,9,99,9,99,9",,"09861,1,99999,9","61,1",,,,"MET069METAR ENHK 041420Z 33007KT 9999 -RA FEW025 SCT035 BKN070 08/06 Q0986;",
"01044099999","2008-09-04T14:50:00","4","70.486675","22.139744","6.4","HASVIK, NO","FM-15","ENHK ","V020","320,1,N,0036,1","01050,1,C,N","011265,1,N,1","+0080,1","+0060,1","99999,9","02,5,+00750,1,99,9","04,5,+01050,1,99,9","07,5,+02100,1,99,9",,"07,99,1,99,9,99,9,99999,9,99,9,99,9",,"09861,1,99999,9","61,1",,,,"MET069METAR ENHK 041450Z 32007KT 9999 -RA FEW025 SCT035 BKN070 08/06 Q0986;",
"01044099999","2008-09-05T03:20:00","4","70.486675","22.139744","6.4","HASVIK, NO","FM-15","ENHK ","V020","250,1,N,0046,1","00990,1,C,N","011265,1,N,1","+0070,1","+0050,1","99999,9","02,5,+00690,1,99,9","07,5,+00990,1,99,9",,,"07,99,1,99,9,99,9,99999,9,99,9,99,9",,"09929,1,99999,9",,,,,"MET058METAR ENHK 050320Z 25009KT 9999 FEW023 BKN033 07/05 Q0993;",
"01044099999","2008-09-05T03:50:00","4","70.486675","22.139744","6.4","HASVIK, NO","FM-15","ENHK ","V020","250,1,N,0041,1","00960,1,C,N","011265,1,N,1","+0070,1","+0050,1","99999,9","02,5,+00480,1,99,9","07,5,+00960,1,99,9",,,"07,99,1,99,9,99,9,99999,9,99,9,99,9",,"09929,1,99999,9",,,,,"MET058METAR ENHK 050350Z 25008KT 9999 FEW016 BKN032 07/05 Q0993;",
"01044099999","2008-09-05T04:20:00","4","70.486675","22.139744","6.4","HASVIK, NO","FM-15","ENHK ","V020","250,1,N,0041,1","00930,1,C,N","011265,1,N,1","+0070,1","+0050,1","99999,9","02,5,+00510,1,99,9","07,5,+00930,1,99,9",,,"07,99,1,99,9,99,9,99999,9,99,9,99,9",,"09929,1,99999,9",,,,,"MET058METAR ENHK 050420Z 25008KT 9999 FEW017 BKN031 07/05 Q0993;",
"01044099999","2008-09-05T04:50:00","4","70.486675","22.139744","6.4","HASVIK, NO","FM-15","ENHK ","V020","260,1,N,0067,1","00900,1,C,N","011265,1,N,1","+0080,1","+0050,1","99999,9","04,5,+00480,1,99,9","07,5,+00900,1,99,9",,,"07,99,1,99,9,99,9,99999,9,99,9,99,9",,"09929,1,99999,9","80,1",,,,"MET064METAR ENHK 050450Z 26013KT 9999 -SHRA SCT016 BKN030 08/05 Q0993;",
"01044099999","2008-09-05T05:20:00","4","70.486675","22.139744","6.4","HASVIK, NO","FM-15","ENHK ","V020","250,1,N,0051,1","00900,1,C,N","011265,1,N,1","+0070,1","+0050,1","99999,9","04,5,+00480,1,99,9","07,5,+00900,1,99,9",,,"07,99,1,99,9,99,9,99999,9,99,9,99,9",,"09929,1,99999,9","80,1",,,,"MET064METAR ENHK 050520Z 25010KT 9999 -SHRA SCT016 BKN030 07/05 Q0993;",
"01044099999","2008-09-05T05:50:00","4","70.486675","22.139744","6.4","HASVIK, NO","FM-15","ENHK ","V020","260,1,N,0051,1","00930,1,C,N","011265,1,N,1","+0070,1","+0050,1","99999,9","04,5,+00480,1,99,9","07,5,+00930,1,99,9",,,"07,99,1,99,9,99,9,99999,9,99,9,99,9",,"09939,1,99999,9","80,1",,,,"MET064METAR ENHK 050550Z 26010KT 9999 -SHRA SCT016 BKN031 07/05 Q0994;",
"01044099999","2008-09-05T06:20:00","4","70.486675","22.139744","6.4","HASVIK, NO","FM-15","ENHK ","V020","250,1,N,0082,1","00900,1,C,N","011265,1,N,1","+0070,1","+0050,1","99999,9","04,5,+00390,1,99,9","07,5,+00900,1,99,9",,,"07,99,1,99,9,99,9,99999,9,99,9,99,9",,"09939,1,99999,9","51,1","61,1",,,"MET070METAR ENHK 050620Z 25016KT 9999 7000E -DZRA SCT013 BKN030 07/05 Q0994;",
"01044099999","2008-09-05T06:50:00","4","70.486675","22.139744","6.4","HASVIK, NO","FM-15","ENHK ","V020","280,1,N,0062,1","00900,1,C,N","011265,1,N,1","+0070,1","+0050,1","99999,9","04,5,+00450,1,99,9","07,5,+00900,1,99,9",,,"07,99,1,99,9,99,9,99999,9,99,9,99,9",,"09939,1,99999,9","16,1",,,,"MET068METAR ENHK 050650Z 28012KT 9999 VCSH SCT015 BKN030 07/05 Q0994 RERA;",
"01044099999","2008-09-05T07:20:00","4","70.486675","22.139744","6.4","HASVIK, NO","FM-15","ENHK ","V020","270,1,N,0051,1","00780,1,C,N","011265,1,N,1","+0070,1","+0040,1","99999,9","02,5,+00480,1,99,9","04,5,+00780,1,99,9","07,5,+01020,1,99,9",,"07,99,1,99,9,99,9,99999,9,99,9,99,9",,"09939,1,99999,9","16,1",,,,"MET070METAR ENHK 050720Z 27010KT 9999 VCSH FEW016 SCT026 BKN034 07/04 Q0994;",
"01044099999","2008-09-05T07:50:00","4","70.486675","22.139744","6.4","HASVIK, NO","FM-15","ENHK ","V020","270,1,N,0051,1","00990,1,C,N","011265,1,N,1","+0080,1","+0050,1","99999,9","04,5,+00720,1,99,9","07,5,+00990,1,99,9",,,"07,99,1,99,9,99,9,99999,9,99,9,99,9",,"09949,1,99999,9",,,,,"MET058METAR ENHK 050750Z 27010KT 9999 SCT024 BKN033 08/05 Q0995;",
"01044099999","2008-09-05T08:20:00","4","70.486675","22.139744","6.4","HASVIK, NO","FM-15","ENHK ","V020","280,1,N,0077,1","01080,1,C,N","011265,1,N,1","+0080,1","+0030,1","99999,9","04,5,+00750,1,99,9","07,5,+01080,1,99,9",,,"07,99,1,99,9,99,9,99999,9,99,9,99,9",,"09949,1,99999,9",,,,,"MET058METAR ENHK 050820Z 28015KT 9999 SCT025 BKN036 08/03 Q0995;",
"01044099999","2008-09-05T09:20:00","4","70.486675","22.139744","6.4","HASVIK, NO","FM-15","ENHK ","V020","270,1,N,0067,1","22000,1,9,N","011265,1,N,1","+0080,1","+0030,1","99999,9","04,5,+01110,1,99,9",,,,"04,99,1,99,9,99,9,99999,9,99,9,99,9",,"09949,1,99999,9",,,,,"MET051METAR ENHK 050920Z 27013KT 9999 SCT037 08/03 Q0995;",
"01044099999","2008-09-05T09:50:00","4","70.486675","22.139744","6.4","HASVIK, NO","FM-15","ENHK ","V020","270,1,N,0067,1","01050,1,C,N","011265,1,N,1","+0080,1","+0030,1","99999,9","02,5,+00750,1,99,9","07,5,+01050,1,99,9",,,"07,99,1,99,9,99,9,99999,9,99,9,99,9",,"09949,1,99999,9",,,,,"MET058METAR ENHK 050950Z 27013KT 9999 FEW025 BKN035 08/03 Q0995;",
"01044099999","2008-09-05T10:50:00","4","70.486675","22.139744","6.4","HASVIK, NO","FM-15","ENHK ","V020","270,1,N,0062,1","00990,1,C,N","011265,1,N,1","+0080,1","+0040,1","99999,9","02,5,+00720,1,99,9","07,5,+00990,1,99,9",,,"07,99,1,99,9,99,9,99999,9,99,9,99,9",,"09959,1,99999,9",,,,,"MET058METAR ENHK 051050Z 27012KT 9999 FEW024 BKN033 08/04 Q0996;",
"01044099999","2008-09-05T11:50:00","4","70.486675","22.139744","6.4","HASVIK, NO","FM-15","ENHK ","V020","270,1,N,0067,1","00960,1,C,N","011265,1,N,1","+0070,1","+0040,1","99999,9","02,5,+00600,1,99,9","07,5,+00960,1,99,9",,,"07,99,1,99,9,99,9,99999,9,99,9,99,9",,"09949,1,99999,9","61,1",,,,"MET062METAR ENHK 051150Z 27013KT 9999 -RA FEW020 BKN032 07/04 Q0995;",
"01044099999","2008-09-05T12:50:00","4","70.486675","22.139744","6.4","HASVIK, NO","FM-15","ENHK ","V020","260,1,N,0031,1","00810,1,C,N","011265,1,N,1","+0080,1","+0040,1","99999,9","02,5,+00600,1,99,9","04,5,+00810,1,99,9","07,5,+01050,1,99,9",,"07,99,1,99,9,99,9,99999,9,99,9,99,9",,"09959,1,99999,9","16,1",,,,"MET070METAR ENHK 051250Z 26006KT 9999 VCSH FEW020 SCT027 BKN035 08/04 Q0996;",
"01044099999","2008-09-05T13:50:00","4","70.486675","22.139744","6.4","HASVIK, NO","FM-15","ENHK ","V020","260,1,N,0051,1","00990,1,C,N","011265,1,N,1","+0080,1","+0040,1","99999,9","02,5,+00360,1,99,9","07,5,+00990,1,99,9",,,"07,99,1,99,9,99,9,99999,9,99,9,99,9",,"09959,1,99999,9","61,1",,,,"MET062METAR ENHK 051350Z 26010KT 9999 -RA FEW012 BKN033 08/04 Q0996;",
"01044099999","2008-09-05T14:20:00","4","70.486675","22.139744","6.4","HASVIK, NO","FM-15","ENHK ","V020","270,1,N,0051,1","01050,1,C,N","011265,1,N,1","+0080,1","+0040,1","99999,9","02,5,+00750,1,99,9","07,5,+01050,1,99,9",,,"07,99,1,99,9,99,9,99999,9,99,9,99,9",,"09959,1,99999,9","16,1",,,,"MET063METAR ENHK 051420Z 27010KT 9999 VCSH FEW025 BKN035 08/04 Q0996;",
"01044099999","2008-09-07T11:50:00","4","70.486675","22.139744","6.4","HASVIK, NO","FM-15","ENHK ","V020","999,9,V,0015,1","22000,1,9,N","011265,1,N,1","+0110,1","+0040,1","99999,9","02,5,+00960,1,99,9",,,,"02,99,1,99,9,99,9,99999,9,99,9,99,9",,"10108,1,99999,9",,,,,"MET051METAR ENHK 071150Z VRB03KT 9999 FEW032 11/04 Q1011;",
"01044099999","2008-09-07T12:20:00","4","70.486675","22.139744","6.4","HASVIK, NO","FM-15","ENHK ","V020","300,1,N,0026,1","99999,9,C,N","011265,1,N,1","+0100,1","+0040,1","99999,9","02,5,+00960,1,99,9","04,5,+01380,1,99,9",,,"04,99,1,99,9,99,9,99999,9,99,9,99,9",,"10108,1,99999,9",,,,,"MET058METAR ENHK 071220Z 30005KT 9999 FEW032 SCT046 10/04 Q1011;","P01 013803SCOCIG"
"01044099999","2008-09-07T12:50:00","4","70.486675","22.139744","6.4","HASVIK, NO","FM-15","ENHK ","V020","310,1,N,0026,1","01410,1,C,N","011265,1,N,1","+0100,1","+0040,1","99999,9","02,5,+00930,1,99,9","07,5,+01410,1,99,9",,,"07,99,1,99,9,99,9,99999,9,99,9,99,9",,"10108,1,99999,9",,,,,"MET058METAR ENHK 071250Z 31005KT 9999 FEW031 BKN047 10/04 Q1011;",
"01044099999","2008-09-07T13:50:00","4","70.486675","22.139744","6.4","HASVIK, NO","FM-15","ENHK ","V020","310,1,N,0031,1","01380,1,C,N","011265,1,N,1","+0090,1","+0050,1","99999,9","02,5,+00900,1,99,9","07,5,+01380,1,99,9",,,"07,99,1,99,9,99,9,99999,9,99,9,99,9",,"10119,1,99999,9",,,,,"MET058METAR ENHK 071350Z 31006KT 9999 FEW030 BKN046 09/05 Q1012;",
"01044099999","2008-09-07T14:20:00","4","70.486675","22.139744","6.4","HASVIK, NO","FM-15","ENHK ","V020","300,1,N,0026,1","01410,1,C,N","011265,1,N,1","+0090,1","+0050,1","99999,9","02,5,+00930,1,99,9","07,5,+01410,1,99,9",,,"07,99,1,99,9,99,9,99999,9,99,9,99,9",,"10119,1,99999,9",,,,,"MET058METAR ENHK 071420Z 30005KT 9999 FEW031 BKN047 09/05 Q1012;",
"01044099999","2008-09-08T03:20:00","4","70.486675","22.139744","6.4","HASVIK, NO","FM-15","ENHK ","V020","290,1,N,0067,1","00240,1,C,N","009000,1,N,1","+0080,1","+0070,1","99999,9","02,5,+00150,1,99,9","04,5,+00240,1,99,9","07,5,+00450,1,99,9",,"07,99,1,99,9,99,9,99999,9,99,9,99,9",,"10129,1,99999,9","61,1",,,,"MET069METAR ENHK 080320Z 29013KT 9000 -RA FEW005 SCT008 BKN015 08/07 Q1013;",
"01044099999","2008-09-08T03:50:00","4","70.486675","22.139744","6.4","HASVIK, NO","FM-15","ENHK ","V020","310,1,N,0046,1","00360,1,C,N","011265,1,N,1","+0080,1","+0070,1","99999,9","02,5,+00150,1,99,9","04,5,+00360,1,99,9","07,5,+00750,1,99,9",,"07,99,1,99,9,99,9,99999,9,99,9,99,9",,"10139,1,99999,9","16,1",,,,"MET075METAR ENHK 080350Z 31009KT 9999 VCSH FEW005 SCT012 BKN025 08/07 Q1014 RERA;",
"01044099999","2008-09-08T04:20:00","4","70.486675","22.139744","6.4","HASVIK, NO","FM-15","ENHK ","V020","330,1,N,0031,1","01050,1,C,N","011265,1,N,1","+0080,1","+0070,1","99999,9","02,5,+00150,1,99,9","07,5,+01050,1,99,9",,,"07,99,1,99,9,99,9,99999,9,99,9,99,9",,"10139,1,99999,9",,,,,"MET058METAR ENHK 080420Z 33006KT 9999 FEW005 BKN035 08/07 Q1014;",
"01044099999","2008-09-08T04:50:00","4","70.486675","22.139744","6.4","HASVIK, NO","FM-15","ENHK ","V020","330,1,N,0031,1","01200,1,C,N","011265,1,N,1","+0080,1","+0070,1","99999,9","02,5,+00150,1,99,9","07,5,+01200,1,99,9",,,"07,99,1,99,9,99,9,99999,9,99,9,99,9",,"10149,1,99999,9",,,,,"MET058METAR ENHK 080450Z 33006KT 9999 FEW005 BKN040 08/07 Q1015;",
"01044099999","2008-09-08T12:20:00","4","70.486675","22.139744","6.4","HASVIK, NO","FM-15","ENHK ","V020","300,1,N,0021,1","00810,1,C,N","011265,1,N,1","+0100,1","+0070,1","99999,9","02,5,+00450,1,99,9","07,5,+00810,1,99,9",,,"07,99,1,99,9,99,9,99999,9,99,9,99,9",,"10200,1,99999,9",,,,,"MET066METAR ENHK 081220Z 30004KT 260V330 9999 FEW015 BKN027 10/07 Q1020;",
"01044099999","2008-09-08T12:50:00","4","70.486675","22.139744","6.4","HASVIK, NO","FM-15","ENHK ","V020","300,1,N,0026,1","00750,1,C,N","011265,1,N,1","+0100,1","+0070,1","99999,9","02,5,+00450,1,99,9","07,5,+00750,1,99,9",,,"07,99,1,99,9,99,9,99999,9,99,9,99,9",,"10210,1,99999,9",,,,,"MET058METAR ENHK 081250Z 30005KT 9999 FEW015 BKN025 10/07 Q1021;",
"01044099999","2008-09-08T13:50:00","4","70.486675","22.139744","6.4","HASVIK, NO","FM-15","ENHK ","V020","290,1,N,0026,1","22000,1,9,N","011265,1,N,1","+0100,1","+0060,1","99999,9","04,5,+00690,1,99,9",,,,"04,99,1,99,9,99,9,99999,9,99,9,99,9",,"10210,1,99999,9",,,,,"MET051METAR ENHK 081350Z 29005KT 9999 SCT023 10/06 Q1021;",
"01044099999","2008-09-08T14:20:00","4","70.486675","22.139744","6.4","HASVIK, NO","FM-15","ENHK ","V020","310,1,N,0026,1","99999,9,C,N","011265,1,N,1","+0100,1","+0050,1","99999,9","02,5,+00690,1,99,9","04,5,+06000,1,99,9",,,"04,99,1,99,9,99,9,99999,9,99,9,99,9",,"10210,1,99999,9",,,,,"MET066METAR ENHK 081420Z 31005KT 270V350 9999 FEW023 SCT200 10/05 Q1021;","P01 060003SCOCIG"
"01044099999","2008-09-09T03:20:00","4","70.486675","22.139744","6.4","HASVIK, NO","FM-15","ENHK ","V020","150,1,N,0026,1","22000,1,9,N","011265,1,N,1","+0070,1","+0050,1","99999,9","04,5,+02250,5,99,9",,,,"04,99,1,99,9,99,9,99999,9,99,9,99,9",,"10230,1,99999,9",,,,,"MET051METAR ENHK 090320Z 15005KT 9999 SCT075 07/05 Q1023;",
"01044099999","2008-09-09T03:50:00","4","70.486675","22.139744","6.4","HASVIK, NO","FM-15","ENHK ","V020","999,9,V,0005,1","99999,9,C,Y","009900,1,N,1","+0050,1","+0030,1","99999,9",,,,,,,"10230,1,99999,9",,,,,"MET045METAR ENHK 090350Z VRB01KT CAVOK 05/03 Q1023;",
"01044099999","2008-09-09T04:50:00","4","70.486675","22.139744","6.4","HASVIK, NO","FM-15","ENHK ","V020","120,1,N,0021,1","99999,9,C,Y","009900,1,N,1","+0080,1","+0050,1","99999,9",,,,,,,"10230,1,99999,9",,,,,"MET053METAR ENHK 090450Z 12004KT 090V150 CAVOK 08/05 Q1023;",
"01044099999","2008-09-09T05:20:00","4","70.486675","22.139744","6.4","HASVIK, NO","FM-15","ENHK ","V020","120,1,N,0026,1","99999,9,C,Y","009900,1,N,1","+0080,1","+0050,1","99999,9",,,,,,,"10230,1,99999,9",,,,,"MET045METAR ENHK 090520Z 12005KT CAVOK 08/05 Q1023;",
"01044099999","2008-09-09T06:20:00","4","70.486675","22.139744","6.4","HASVIK, NO","FM-15","ENHK ","V020","120,1,N,0031,1","99999,9,C,Y","009900,1,N,1","+0090,1","+0050,1","99999,9",,,,,,,"10230,1,99999,9",,,,,"MET045METAR ENHK 090620Z 12006KT CAVOK 09/05 Q1023;",
"01044099999","2008-09-09T06:50:00","4","70.486675","22.139744","6.4","HASVIK, NO","FM-15","ENHK ","V020","120,1,N,0031,1","99999,9,C,Y","009900,1,N,1","+0090,1","+0060,1","99999,9",,,,,,,"10230,1,99999,9",,,,,"MET045METAR ENHK 090650Z 12006KT CAVOK 09/06 Q1023;",
"01044099999","2008-09-09T07:50:00","4","70.486675","22.139744","6.4","HASVIK, NO","FM-15","ENHK ","V020","110,1,N,0046,1","99999,9,C,Y","009900,1,N,1","+0090,1","+0050,1","99999,9",,,,,,,"10230,1,99999,9",,,,,"MET045METAR ENHK 090750Z 11009KT CAVOK 09/05 Q1023;",
"01044099999","2008-09-09T11:20:00","4","70.486675","22.139744","6.4","HASVIK, NO","FM-15","ENHK ","V020","140,1,N,0026,1","99999,9,C,Y","009900,1,N,1","+0100,1","+0060,1","99999,9",,,,,,,"10240,1,99999,9",,,,,"MET045METAR ENHK 091120Z 14005KT CAVOK 10/06 Q1024;",
"01044099999","2008-09-09T11:50:00","4","70.486675","22.139744","6.4","HASVIK, NO","FM-15","ENHK ","V020","150,1,N,0026,1","99999,9,C,Y","009900,1,N,1","+0100,1","+0050,1","99999,9",,,,,,,"10240,1,99999,9",,,,,"MET045METAR ENHK 091150Z 15005KT CAVOK 10/05 Q1024;",
"01044099999","2008-09-09T12:50:00","4","70.486675","22.139744","6.4","HASVIK, NO","FM-15","ENHK ","V020","150,1,N,0015,1","99999,9,C,Y","009900,1,N,1","+0100,1","+0060,1","99999,9",,,,,,,"10240,1,99999,9",,,,,"MET053METAR ENHK 091250Z 15003KT 120V180 CAVOK 10/06 Q1024;",
"01044099999","2008-09-09T13:20:00","4","70.486675","22.139744","6.4","HASVIK, NO","FM-15","ENHK ","V020","270,1,N,0026,1","99999,9,C,Y","009900,1,N,1","+0110,1","+0060,1","99999,9",,,,,,,"10240,1,99999,9",,,,,"MET045METAR ENHK 091320Z 27005KT CAVOK 11/06 Q1024;",
"01044099999","2008-09-10T03:20:00","4","70.486675","22.139744","6.4","HASVIK, NO","FM-15","ENHK ","V020","100,1,N,0036,1","99999,9,C,Y","009900,1,N,1","+0070,1","+0050,1","99999,9",,,,,,,"10251,1,99999,9",,,,,"MET045METAR ENHK 100320Z 10007KT CAVOK 07/05 Q1025;",
"01044099999","2008-09-10T03:50:00","4","70.486675","22.139744","6.4","HASVIK, NO","FM-15","ENHK ","V020","100,1,N,0036,1","99999,9,C,Y","009900,1,N,1","+0070,1","+0050,1","99999,9",,,,,,,"10251,1,99999,9",,,,,"MET045METAR ENHK 100350Z 10007KT CAVOK 07/05 Q1025;",
"01044099999","2008-09-10T04:20:00","4","70.486675","22.139744","6.4","HASVIK, NO","FM-15","ENHK ","V020","080,1,N,0026,1","99999,9,C,Y","009900,1,N,1","+0070,1","+0050,1","99999,9",,,,,,,"10251,1,99999,9",,,,,"MET045METAR ENHK 100420Z 08005KT CAVOK 07/05 Q1025;",
"01044099999","2008-09-10T04:50:00","4","70.486675","22.139744","6.4","HASVIK, NO","FM-15","ENHK ","V020","090,1,N,0036,1","99999,9,C,Y","009900,1,N,1","+0070,1","+0050,1","99999,9",,,,,,,"10251,1,99999,9",,,,,"MET045METAR ENHK 100450Z 09007KT CAVOK 07/05 Q1025;",
"01044099999","2008-09-10T05:20:00","4","70.486675","22.139744","6.4","HASVIK, NO","FM-15","ENHK ","V020","090,1,N,0041,1","99999,9,C,Y","009900,1,N,1","+0080,1","+0050,1","99999,9",,,,,,,"10251,1,99999,9",,,,,"MET045METAR ENHK 100520Z 09008KT CAVOK 08/05 Q1025;",
"01044099999","2008-09-10T05:50:00","4","70.486675","22.139744","6.4","HASVIK, NO","FM-15","ENHK ","V020","100,1,N,0051,1","99999,9,C,Y","009900,1,N,1","+0080,1","+0050,1","99999,9",,,,,,,"10251,1,99999,9",,,,,"MET045METAR ENHK 100550Z 10010KT CAVOK 08/05 Q1025;",
"01044099999","2008-09-10T06:20:00","4","70.486675","22.139744","6.4","HASVIK, NO","FM-15","ENHK ","V020","100,1,N,0051,1","99999,9,C,Y","009900,1,N,1","+0080,1","+0050,1","99999,9",,,,,,,"10251,1,99999,9",,,,,"MET045METAR ENHK 100620Z 10010KT CAVOK 08/05 Q1025;",
"01044099999","2008-09-10T06:50:00","4","70.486675","22.139744","6.4","HASVIK, NO","FM-15","ENHK ","V020","110,1,N,0067,1","99999,9,C,Y","009900,1,N,1","+0080,1","+0060,1","99999,9",,,,,,,"10251,1,99999,9",,,,,"MET045METAR ENHK 100650Z 11013KT CAVOK 08/06 Q1025;",
"01044099999","2008-09-10T07:20:00","4","70.486675","22.139744","6.4","HASVIK, NO","FM-15","ENHK ","V020","110,1,N,0077,1","99999,9,C,Y","009900,1,N,1","+0080,1","+0050,1","99999,9",,,,,,,"10251,1,99999,9",,,,,"MET045METAR ENHK 100720Z 11015KT CAVOK 08/05 Q1025;",
"01044099999","2008-09-10T08:20:00","4","70.486675","22.139744","6.4","HASVIK, NO","FM-15","ENHK ","V020","120,1,N,0067,1","99999,9,C,Y","009900,1,N,1","+0090,1","+0060,1","99999,9",,,,,,,"10251,1,99999,9",,,,,"MET045METAR ENHK 100820Z 12013KT CAVOK 09/06 Q1025;",
"01044099999","2008-09-10T11:50:00","4","70.486675","22.139744","6.4","HASVIK, NO","FM-15","ENHK ","V020","120,1,N,0051,1","99999,9,C,Y","009900,1,N,1","+0110,1","+0060,1","99999,9",,,,,,,"10240,1,99999,9",,,,,"MET045METAR ENHK 101150Z 12010KT CAVOK 11/06 Q1024;",
"01044099999","2008-09-10T12:20:00","4","70.486675","22.139744","6.4","HASVIK, NO","FM-15","ENHK ","V020","130,1,N,0036,1","99999,9,C,Y","009900,1,N,1","+0110,1","+0060,1","99999,9",,,,,,,"10240,1,99999,9",,,,,"MET045METAR ENHK 101220Z 13007KT CAVOK 11/06 Q1024;",
"01044099999","2008-09-10T13:20:00","4","70.486675","22.139744","6.4","HASVIK, NO","FM-15","ENHK ","V020","150,1,N,0026,1","99999,9,C,Y","009900,1,N,1","+0110,1","+0060,1","99999,9",,,,,,,"10240,1,99999,9",,,,,"MET045METAR ENHK 101320Z 15005KT CAVOK 11/06 Q1024;",
"01044099999","2008-09-10T14:50:00","4","70.486675","22.139744","6.4","HASVIK, NO","FM-15","ENHK ","V020","140,1,N,0031,1","99999,9,C,Y","009900,1,N,1","+0120,1","+0060,1","99999,9",,,,,,,"10230,1,99999,9",,,,,"MET045METAR ENHK 101450Z 14006KT CAVOK 12/06 Q1023;",
"01044099999","2008-09-11T03:20:00","4","70.486675","22.139744","6.4","HASVIK, NO","FM-15","ENHK ","V020","100,1,N,0051,1","99999,9,C,Y","009900,1,N,1","+0090,1","+0050,1","99999,9",,,,,,,"10230,1,99999,9",,,,,"MET045METAR ENHK 110320Z 10010KT CAVOK 09/05 Q1023;",
"01044099999","2008-09-11T03:50:00","4","70.486675","22.139744","6.4","HASVIK, NO","FM-15","ENHK ","V020","100,1,N,0051,1","99999,9,C,Y","009900,1,N,1","+0090,1","+0050,1","99999,9",,,,,,,"10230,1,99999,9",,,,,"MET045METAR ENHK 110350Z 10010KT CAVOK 09/05 Q1023;",
"01044099999","2008-09-11T04:20:00","4","70.486675","22.139744","6.4","HASVIK, NO","FM-15","ENHK ","V020","110,1,N,0062,1","99999,9,C,Y","009900,1,N,1","+0090,1","+0050,1","99999,9",,,,,,,"10230,1,99999,9",,,,,"MET045METAR ENHK 110420Z 11012KT CAVOK 09/05 Q1023;",
"01044099999","2008-09-11T04:50:00","4","70.486675","22.139744","6.4","HASVIK, NO","FM-15","ENHK ","V020","100,1,N,0072,1","99999,9,C,Y","009900,1,N,1","+0090,1","+0050,1","99999,9",,,,,,,"10240,1,99999,9",,,,,"MET045METAR ENHK 110450Z 10014KT CAVOK 09/05 Q1024;",
"01044099999","2008-09-11T05:20:00","4","70.486675","22.139744","6.4","HASVIK, NO","FM-15","ENHK ","V020","110,1,N,0057,1","99999,9,C,Y","009900,1,N,1","+0090,1","+0050,1","99999,9",,,,,,,"10240,1,99999,9",,,,,"MET045METAR ENHK 110520Z 11011KT CAVOK 09/05 Q1024;",
"01044099999","2008-09-11T05:50:00","4","70.486675","22.139744","6.4","HASVIK, NO","FM-15","ENHK ","V020","100,1,N,0062,1","99999,9,C,Y","009900,1,N,1","+0100,1","+0050,1","99999,9",,,,,,,"10240,1,99999,9",,,,,"MET045METAR ENHK 110550Z 10012KT CAVOK 10/05 Q1024;",
"01044099999","2008-09-11T06:20:00","4","70.486675","22.139744","6.4","HASVIK, NO","FM-15","ENHK ","V020","110,1,N,0067,1","99999,9,C,Y","009900,1,N,1","+0100,1","+0050,1","99999,9",,,,,,,"10240,1,99999,9",,,,,"MET045METAR ENHK 110620Z 11013KT CAVOK 10/05 Q1024;",
"01044099999","2008-09-11T06:50:00","4","70.486675","22.139744","6.4","HASVIK, NO","FM-15","ENHK ","V020","110,1,N,0067,1","99999,9,C,Y","009900,1,N,1","+0100,1","+0050,1","99999,9",,,,,,,"10240,1,99999,9",,,,,"MET045METAR ENHK 110650Z 11013KT CAVOK 10/05 Q1024;",
"01044099999","2008-09-11T11:20:00","4","70.486675","22.139744","6.4","HASVIK, NO","FM-15","ENHK ","V020","120,1,N,0046,1","99999,9,C,Y","009900,1,N,1","+0110,1","+0050,1","99999,9",,,,,,,"10251,1,99999,9",,,,,"MET045METAR ENHK 111120Z 12009KT CAVOK 11/05 Q1025;",
"01044099999","2008-09-11T11:50:00","4","70.486675","22.139744","6.4","HASVIK, NO","FM-15","ENHK ","V020","120,1,N,0041,1","99999,9,C,Y","009900,1,N,1","+0110,1","+0050,1","99999,9",,,,,,,"10251,1,99999,9",,,,,"MET045METAR ENHK 111150Z 12008KT CAVOK 11/05 Q1025;",
"01044099999","2008-09-11T12:20:00","4","70.486675","22.139744","6.4","HASVIK, NO","FM-15","ENHK ","V020","130,1,N,0036,1","99999,9,C,Y","009900,1,N,1","+0110,1","+0050,1","99999,9",,,,,,,"10261,1,99999,9",,,,,"MET045METAR ENHK 111220Z 13007KT CAVOK 11/05 Q1026;",
"01044099999","2008-09-11T12:50:00","4","70.486675","22.139744","6.4","HASVIK, NO","FM-15","ENHK ","V020","120,1,N,0031,1","99999,9,C,Y","009900,1,N,1","+0120,1","+0060,1","99999,9",,,,,,,"10261,1,99999,9",,,,,"MET045METAR ENHK 111250Z 12006KT CAVOK 12/06 Q1026;",
"01044099999","2008-09-11T13:20:00","4","70.486675","22.139744","6.4","HASVIK, NO","FM-15","ENHK ","V020","130,1,N,0031,1","99999,9,C,Y","009900,1,N,1","+0110,1","+0050,1","99999,9",,,,,,,"10261,1,99999,9",,,,,"MET045METAR ENHK 111320Z 13006KT CAVOK 11/05 Q1026;",
"01044099999","2008-09-11T13:50:00","4","70.486675","22.139744","6.4","HASVIK, NO","FM-15","ENHK ","V020","130,1,N,0021,1","99999,9,C,Y","009900,1,N,1","+0120,1","+0050,1","99999,9",,,,,,,"10261,1,99999,9",,,,,"MET045METAR ENHK 111350Z 13004KT CAVOK 12/05 Q1026;",
"01044099999","2008-09-12T03:20:00","4","70.486675","22.139744","6.4","HASVIK, NO","FM-15","ENHK ","V020","999,9,V,0010,1","99999,9,C,Y","009900,1,N,1","+0030,1","+0020,1","99999,9",,,,,,,"10281,1,99999,9",,,,,"MET045METAR ENHK 120320Z VRB02KT CAVOK 03/02 Q1028;",
"01044099999","2008-09-12T03:50:00","4","70.486675","22.139744","6.4","HASVIK, NO","FM-15","ENHK ","V020","130,1,N,0010,1","99999,9,C,Y","009900,1,N,1","+0040,1","+0030,1","99999,9",,,,,,,"10281,1,99999,9",,,,,"MET045METAR ENHK 120350Z 13002KT CAVOK 04/03 Q1028;",
"01044099999","2008-09-12T04:50:00","4","70.486675","22.139744","6.4","HASVIK, NO","FM-15","ENHK ","V020","120,1,N,0021,1","99999,9,C,Y","009900,1,N,1","+0050,1","+0040,1","99999,9",,,,,,,"10271,1,99999,9",,,,,"MET053METAR ENHK 120450Z 12004KT 080V150 CAVOK 05/04 Q1027;",
"01044099999","2008-09-12T12:20:00","4","70.486675","22.139744","6.4","HASVIK, NO","FM-15","ENHK ","V020","130,1,N,0021,1","99999,9,C,Y","009900,1,N,1","+0100,1","+0040,1","99999,9",,,,,,,"10291,1,99999,9",,,,,"MET045METAR ENHK 121220Z 13004KT CAVOK 10/04 Q1029;",
"01044099999","2008-09-12T12:50:00","4","70.486675","22.139744","6.4","HASVIK, NO","FM-15","ENHK ","V020","140,1,N,0015,1","99999,9,C,Y","009900,1,N,1","+0100,1","+0040,1","99999,9",,,,,,,"10291,1,99999,9",,,,,"MET045METAR ENHK 121250Z 14003KT CAVOK 10/04 Q1029;",
"01044099999","2008-09-12T13:20:00","4","70.486675","22.139744","6.4","HASVIK, NO","FM-15","ENHK ","V020","120,1,N,0015,1","99999,9,C,Y","009900,1,N,1","+0100,1","+0040,1","99999,9",,,,,,,"10291,1,99999,9",,,,,"MET045METAR ENHK 121320Z 12003KT CAVOK 10/04 Q1029;",
"01044099999","2008-09-12T14:20:00","4","70.486675","22.139744","6.4","HASVIK, NO","FM-15","ENHK ","V020","300,1,N,0031,1","99999,9,C,Y","009900,1,N,1","+0100,1","+0060,1","99999,9",,,,,,,"10291,1,99999,9",,,,,"MET045METAR ENHK 121420Z 30006KT CAVOK 10/06 Q1029;",
"01044099999","2008-09-12T14:50:00","4","70.486675","22.139744","6.4","HASVIK, NO","FM-15","ENHK ","V020","300,1,N,0031,1","99999,9,C,Y","009900,1,N,1","+0100,1","+0060,1","99999,9",,,,,,,"10291,1,99999,9",,,,,"MET045METAR ENHK 121450Z 30006KT CAVOK 10/06 Q1029;",
"01044099999","2008-09-14T11:50:00","4","70.486675","22.139744","6.4","HASVIK, NO","FM-15","ENHK ","V020","999,9,V,0010,1","99999,9,C,Y","009900,1,N,1","+0100,1","+0060,1","99999,9",,,,,,,"10329,1,99999,9",,,,,"MET045METAR ENHK 141150Z VRB02KT CAVOK 10/06 Q1033;",
"01044099999","2008-09-14T12:20:00","4","70.486675","22.139744","6.4","HASVIK, NO","FM-15","ENHK ","V020","290,1,N,0036,1","99999,9,C,Y","009900,1,N,1","+0090,1","+0060,1","99999,9",,,,,,,"10329,1,99999,9",,,,,"MET045METAR ENHK 141220Z 29007KT CAVOK 09/06 Q1033;",
"01044099999","2008-09-14T13:20:00","4","70.486675","22.139744","6.4","HASVIK, NO","FM-15","ENHK ","V020","290,1,N,0041,1","99999,9,C,Y","009900,1,N,1","+0100,1","+0070,1","99999,9",,,,,,,"10318,1,99999,9",,,,,"MET045METAR ENHK 141320Z 29008KT CAVOK 10/07 Q1032;",
"01044099999","2008-09-14T14:20:00","4","70.486675","22.139744","6.4","HASVIK, NO","FM-15","ENHK ","V020","310,1,N,0015,1","99999,9,C,Y","009900,1,N,1","+0100,1","+0060,1","99999,9",,,,,,,"10318,1,99999,9",,,,,"MET045METAR ENHK 141420Z 31003KT CAVOK 10/06 Q1032;",
"01044099999","2008-09-15T03:20:00","4","70.486675","22.139744","6.4","HASVIK, NO","FM-15","ENHK ","V020","999,9,V,0010,1","99999,9,C,Y","009900,1,N,1","+0060,1","+0040,1","99999,9",,,,,,,"10312,1,99999,9",,,,,"MET045METAR ENHK 150320Z VRB02KT CAVOK 06/04 Q1031;",
"01044099999","2008-09-15T03:50:00","4","70.486675","22.139744","6.4","HASVIK, NO","FM-15","ENHK ","V020","999,9,V,0005,1","99999,9,C,Y","009900,1,N,1","+0040,1","+0030,1","99999,9",,,,,,,"10312,1,99999,9",,,,,"MET045METAR ENHK 150350Z VRB01KT CAVOK 04/03 Q1031;",
"01044099999","2008-09-15T04:20:00","4","70.486675","22.139744","6.4","HASVIK, NO","FM-15","ENHK ","V020","999,9,V,0005,1","99999,9,C,Y","009900,1,N,1","+0040,1","+0030,1","99999,9",,,,,,,"10312,1,99999,9",,,,,"MET045METAR ENHK 150420Z VRB01KT CAVOK 04/03 Q1031;",
"01044099999","2008-09-15T04:50:00","4","70.486675","22.139744","6.4","HASVIK, NO","FM-15","ENHK ","V020","999,9,V,0005,1","99999,9,C,Y","009900,1,N,1","+0040,1","+0030,1","99999,9",,,,,,,"10312,1,99999,9",,,,,"MET045METAR ENHK 150450Z VRB01KT CAVOK 04/03 Q1031;",
"01044099999","2008-09-15T05:50:00","4","70.486675","22.139744","6.4","HASVIK, NO","FM-15","ENHK ","V020","999,9,V,0021,1","99999,9,C,Y","009900,1,N,1","+0080,1","+0060,1","99999,9",,,,,,,"10312,1,99999,9",,,,,"MET045METAR ENHK 150550Z VRB04KT CAVOK 08/06 Q1031;",
"01044099999","2008-09-15T06:50:00","4","70.486675","22.139744","6.4","HASVIK, NO","FM-15","ENHK ","V020","999,9,V,0005,1","99999,9,C,Y","009900,1,N,1","+0090,1","+0060,1","99999,9",,,,,,,"10312,1,99999,9",,,,,"MET045METAR ENHK 150650Z VRB01KT CAVOK 09/06 Q1031;",
"01044099999","2008-09-15T12:20:00","4","70.486675","22.139744","6.4","HASVIK, NO","FM-15","ENHK ","V020","110,1,N,0015,1","99999,9,C,Y","009900,1,N,1","+0110,1","+0060,1","99999,9",,,,,,,"10312,1,99999,9",,,,,"MET045METAR ENHK 151220Z 11003KT CAVOK 11/06 Q1031;",
"01044099999","2008-09-15T12:50:00","4","70.486675","22.139744","6.4","HASVIK, NO","FM-15","ENHK ","V020","110,1,N,0026,1","99999,9,C,Y","009900,1,N,1","+0100,1","+0060,1","99999,9",,,,,,,"10312,1,99999,9",,,,,"MET045METAR ENHK 151250Z 11005KT CAVOK 10/06 Q1031;",
"01044099999","2008-09-15T13:20:00","4","70.486675","22.139744","6.4","HASVIK, NO","FM-15","ENHK ","V020","120,1,N,0021,1","99999,9,C,Y","009900,1,N,1","+0100,1","+0070,1","99999,9",,,,,,,"10312,1,99999,9",,,,,"MET045METAR ENHK 151320Z 12004KT CAVOK 10/07 Q1031;",
"01044099999","2008-09-15T13:50:00","4","70.486675","22.139744","6.4","HASVIK, NO","FM-15","ENHK ","V020","120,1,N,0015,1","99999,9,C,Y","009900,1,N,1","+0100,1","+0070,1","99999,9",,,,,,,"10312,1,99999,9",,,,,"MET045METAR ENHK 151350Z 12003KT CAVOK 10/07 Q1031;",
"01044099999","2008-09-16T03:20:00","4","70.486675","22.139744","6.4","HASVIK, NO","FM-15","ENHK ","V020","140,1,N,0026,1","01140,1,C,N","011265,1,N,1","+0090,1","+0060,1","99999,9","02,5,+00990,1,99,9","07,5,+01140,1,99,9",,,"07,99,1,99,9,99,9,99999,9,99,9,99,9",,"10301,1,99999,9","80,1",,,,"MET064METAR ENHK 160320Z 14005KT 9999 -SHRA FEW033 BKN038 09/06 Q1030;",
"01044099999","2008-09-16T03:50:00","4","70.486675","22.139744","6.4","HASVIK, NO","FM-15","ENHK ","V020","140,1,N,0026,1","01200,1,C,N","011265,1,N,1","+0090,1","+0060,1","99999,9","02,5,+00990,1,99,9","07,5,+01200,1,99,9",,,"07,99,1,99,9,99,9,99999,9,99,9,99,9",,"10301,1,99999,9","16,1",,,,"MET068METAR ENHK 160350Z 14005KT 9999 VCSH FEW033 BKN040 09/06 Q1030 RERA;",
"01044099999","2008-09-16T04:20:00","4","70.486675","22.139744","6.4","HASVIK, NO","FM-15","ENHK ","V020","140,1,N,0026,1","01200,1,C,N","011265,1,N,1","+0090,1","+0060,1","99999,9","02,5,+01020,1,99,9","07,5,+01200,1,99,9",,,"07,99,1,99,9,99,9,99999,9,99,9,99,9",,"10301,1,99999,9",,,,,"MET058METAR ENHK 160420Z 14005KT 9999 FEW034 BKN040 09/06 Q1030;",
"01044099999","2008-09-16T04:50:00","4","70.486675","22.139744","6.4","HASVIK, NO","FM-15","ENHK ","V020","140,1,N,0026,1","02340,5,C,N","011265,1,N,1","+0090,1","+0060,1","99999,9","04,5,+01170,1,99,9","07,5,+02340,5,99,9",,,"07,99,1,99,9,99,9,99999,9,99,9,99,9",,"10301,1,99999,9",,,,,"MET058METAR ENHK 160450Z 14005KT 9999 SCT039 BKN078 09/06 Q1030;",
"01044099999","2008-09-16T05:50:00","4","70.486675","22.139744","6.4","HASVIK, NO","FM-15","ENHK ","V020","140,1,N,0026,1","02370,5,C,N","011265,1,N,1","+0090,1","+0070,1","99999,9","04,5,+01110,1,99,9","07,5,+02370,5,99,9",,,"07,99,1,99,9,99,9,99999,9,99,9,99,9",,"10301,1,99999,9",,,,,"MET058METAR ENHK 160550Z 14005KT 9999 SCT037 BKN079 09/07 Q1030;",
"01044099999","2008-09-16T06:50:00","4","70.486675","22.139744","6.4","HASVIK, NO","FM-15","ENHK ","V020","140,1,N,0026,1","02400,1,C,N","011265,1,N,1","+0100,1","+0070,1","99999,9","07,5,+02400,1,99,9",,,,"07,99,1,99,9,99,9,99999,9,99,9,99,9",,"10301,1,99999,9",,,,,"MET051METAR ENHK 160650Z 14005KT 9999 BKN080 10/07 Q1030;",
"01044099999","2008-09-16T08:20:00","4","70.486675","22.139744","6.4","HASVIK, NO","FM-15","ENHK ","V020","140,1,N,0026,1","02370,5,C,N","011265,1,N,1","+0110,1","+0060,1","99999,9","02,5,+01890,5,99,9","07,5,+02370,5,99,9",,,"07,99,1,99,9,99,9,99999,9,99,9,99,9",,"10301,1,99999,9",,,,,"MET058METAR ENHK 160820Z 14005KT 9999 FEW063 BKN079 11/06 Q1030;",
"01044099999","2008-09-16T10:50:00","4","70.486675","22.139744","6.4","HASVIK, NO","FM-15","ENHK ","V020","140,1,N,0021,1","22000,1,9,N","011265,1,N,1","+0120,1","+0070,1","99999,9",,,,,"00,99,1,99,9,99,9,99999,9,99,9,99,9",,"10291,1,99999,9",,,,,"MET048METAR ENHK 161050Z 14004KT 9999 NSC 12/07 Q1029;","Q01    003SCCGA1"
"01044099999","2008-09-16T11:50:00","4","70.486675","22.139744","6.4","HASVIK, NO","FM-15","ENHK ","V020","140,1,N,0026,1","22000,1,9,N","011265,1,N,1","+0120,1","+0060,1","99999,9",,,,,"00,99,1,99,9,99,9,99999,9,99,9,99,9",,"10291,1,99999,9",,,,,"MET048METAR ENHK 161150Z 14005KT 9999 NSC 12/06 Q1029;","Q01    003SCCGA1"
"01044099999","2008-09-16T12:50:00","4","70.486675","22.139744","6.4","HASVIK, NO","FM-15","ENHK ","V020","130,1,N,0031,1","99999,9,C,Y","009900,1,N,1","+0110,1","+0060,1","99999,9",,,,,,,"10291,1,99999,9",,,,,"MET045METAR ENHK 161250Z 13006KT CAVOK 11/06 Q1029;",
"01044099999","2008-09-16T13:50:00","4","70.486675","22.139744","6.4","HASVIK, NO","FM-15","ENHK ","V020","140,1,N,0026,1","99999,9,C,Y","009900,1,N,1","+0120,1","+0060,1","99999,9",,,,,,,"10281,1,99999,9",,,,,"MET045METAR ENHK 161350Z 14005KT CAVOK 12/06 Q1028;",
"01044099999","2008-09-17T03:20:00","4","70.486675","22.139744","6.4","HASVIK, NO","FM-15","ENHK ","V020","130,1,N,0015,1","99999,9,C,Y","009900,1,N,1","+0060,1","+0040,1","99999,9",,,,,,,"10251,1,99999,9",,,,,"MET045METAR ENHK 170320Z 13003KT CAVOK 06/04 Q1025;",
"01044099999","2008-09-17T03:50:00","4","70.486675","22.139744","6.4","HASVIK, NO","FM-15","ENHK ","V020","140,1,N,0015,1","99999,9,C,Y","009900,1,N,1","+0070,1","+0050,1","99999,9",,,,,,,"10251,1,99999,9",,,,,"MET045METAR ENHK 170350Z 14003KT CAVOK 07/05 Q1025;",
"01044099999","2008-09-17T04:20:00","4","70.486675","22.139744","6.4","HASVIK, NO","FM-15","ENHK ","V020","140,1,N,0021,1","99999,9,C,Y","009900,1,N,1","+0070,1","+0040,1","99999,9",,,,,,,"10251,1,99999,9",,,,,"MET045METAR ENHK 170420Z 14004KT CAVOK 07/04 Q1025;",
"01044099999","2008-09-17T04:50:00","4","70.486675","22.139744","6.4","HASVIK, NO","FM-15","ENHK ","V020","150,1,N,0026,1","99999,9,C,Y","009900,1,N,1","+0080,1","+0050,1","99999,9",,,,,,,"10251,1,99999,9",,,,,"MET045METAR ENHK 170450Z 15005KT CAVOK 08/05 Q1025;",
"01044099999","2008-09-17T05:50:00","4","70.486675","22.139744","6.4","HASVIK, NO","FM-15","ENHK ","V020","150,1,N,0021,1","99999,9,C,Y","009900,1,N,1","+0090,1","+0060,1","99999,9",,,,,,,"10251,1,99999,9",,,,,"MET045METAR ENHK 170550Z 15004KT CAVOK 09/06 Q1025;",
"01044099999","2008-09-17T12:50:00","4","70.486675","22.139744","6.4","HASVIK, NO","FM-15","ENHK ","V020","140,1,N,0026,1","01890,5,C,N","011265,1,N,1","+0110,1","+0060,1","99999,9","02,5,+01200,1,99,9","07,5,+01890,5,99,9",,,"07,99,1,99,9,99,9,99999,9,99,9,99,9",,"10251,1,99999,9",,,,,"MET058METAR ENHK 171250Z 14005KT 9999 FEW040 BKN063 11/06 Q1025;",
"01044099999","2008-09-17T14:20:00","4","70.486675","22.139744","6.4","HASVIK, NO","FM-15","ENHK ","V020","160,1,N,0015,1","01650,5,C,N","011265,1,N,1","+0100,1","+0050,1","99999,9","02,5,+01200,1,99,9","07,5,+01650,5,99,9",,,"07,99,1,99,9,99,9,99999,9,99,9,99,9",,"10251,1,99999,9","61,1",,,,"MET070METAR ENHK 171420Z 16003KT 020V220 9999 -RA FEW040 BKN055 10/05 Q1025;",
"01044099999","2008-09-18T03:20:00","4","70.486675","22.139744","6.4","HASVIK, NO","FM-15","ENHK ","V020","120,1,N,0051,1","01650,5,C,N","011265,1,N,1","+0090,1","+0060,1","99999,9","02,5,+01290,1,99,9","07,5,+01650,5,99,9",,,"07,99,1,99,9,99,9,99999,9,99,9,99,9",,"10240,1,99999,9",,,,,"MET058METAR ENHK 180320Z 12010KT 9999 FEW043 BKN055 09/06 Q1024;",
"01044099999","2008-09-18T03:50:00","4","70.486675","22.139744","6.4","HASVIK, NO","FM-15","ENHK ","V020","110,1,N,0046,1","01620,5,C,N","011265,1,N,1","+0090,1","+0050,1","99999,9","02,5,+01350,1,99,9","07,5,+01620,5,99,9",,,"07,99,1,99,9,99,9,99999,9,99,9,99,9",,"10240,1,99999,9",,,,,"MET058METAR ENHK 180350Z 11009KT 9999 FEW045 BKN054 09/05 Q1024;",
"01044099999","2008-09-18T04:20:00","4","70.486675","22.139744","6.4","HASVIK, NO","FM-15","ENHK ","V020","110,1,N,0051,1","01620,5,C,N","011265,1,N,1","+0080,1","+0040,1","99999,9","02,5,+01410,1,99,9","07,5,+01620,5,99,9",,,"07,99,1,99,9,99,9,99999,9,99,9,99,9",,"10230,1,99999,9",,,,,"MET058METAR ENHK 180420Z 11010KT 9999 FEW047 BKN054 08/04 Q1023;",
"01044099999","2008-09-18T04:50:00","4","70.486675","22.139744","6.4","HASVIK, NO","FM-15","ENHK ","V020","120,1,N,0036,1","01650,5,C,N","011265,1,N,1","+0090,1","+0050,1","99999,9","02,5,+01470,1,99,9","07,5,+01650,5,99,9",,,"07,99,1,99,9,99,9,99999,9,99,9,99,9",,"10230,1,99999,9",,,,,"MET058METAR ENHK 180450Z 12007KT 9999 FEW049 BKN055 09/05 Q1023;",
"01044099999","2008-09-18T05:20:00","4","70.486675","22.139744","6.4","HASVIK, NO","FM-15","ENHK ","V020","110,1,N,0051,1","99999,9,C,Y","009900,1,N,1","+0090,1","+0050,1","99999,9",,,,,,,"10230,1,99999,9",,,,,"MET045METAR ENHK 180520Z 11010KT CAVOK 09/05 Q1023;",
"01044099999","2008-09-18T09:20:00","4","70.486675","22.139744","6.4","HASVIK, NO","FM-15","ENHK ","V020","110,1,N,0093,1","99999,9,C,Y","009900,1,N,1","+0090,1","+0040,1","99999,9",,,,,,,"10220,1,99999,9",,,,,"MET045METAR ENHK 180920Z 11018KT CAVOK 09/04 Q1022;",
"01044099999","2008-09-18T09:50:00","4","70.486675","22.139744","6.4","HASVIK, NO","FM-15","ENHK ","V020","100,1,N,0067,1","99999,9,C,Y","009900,1,N,1","+0100,1","+0040,1","99999,9",,,,,,,"10220,1,99999,9",,,,,"MET045METAR ENHK 180950Z 10013KT CAVOK 10/04 Q1022;",
"01044099999","2008-09-18T11:50:00","4","70.486675","22.139744","6.4","HASVIK, NO","FM-15","ENHK ","V020","080,1,N,0067,1","99999,9,C,Y","009900,1,N,1","+0100,1","+0050,1","99999,9",,,,,,,"10210,1,99999,9",,,,,"MET045METAR ENHK 181150Z 08013KT CAVOK 10/05 Q1021;",
"01044099999","2008-09-18T12:50:00","4","70.486675","22.139744","6.4","HASVIK, NO","FM-15","ENHK ","V020","100,1,N,0046,1","99999,9,C,Y","009900,1,N,1","+0100,1","+0050,1","99999,9",,,,,,,"10210,1,99999,9",,,,,"MET045METAR ENHK 181250Z 10009KT CAVOK 10/05 Q1021;",
"01044099999","2008-09-19T03:20:00","4","70.486675","22.139744","6.4","HASVIK, NO","FM-15","ENHK ","V020","120,1,N,0062,1","99999,9,C,Y","009900,1,N,1","+0080,1","+0030,1","99999,9",,,,,,,"10159,1,99999,9",,,,,"MET045METAR ENHK 190320Z 12012KT CAVOK 08/03 Q1016;",
"01044099999","2008-09-19T03:50:00","4","70.486675","22.139744","6.4","HASVIK, NO","FM-15","ENHK ","V020","110,1,N,0072,1","99999,9,C,Y","009900,1,N,1","+0080,1","+0030,1","99999,9",,,,,,,"10159,1,99999,9",,,,,"MET045METAR ENHK 190350Z 11014KT CAVOK 08/03 Q1016;",
"01044099999","2008-09-19T04:20:00","4","70.486675","22.139744","6.4","HASVIK, NO","FM-15","ENHK ","V020","110,1,N,0062,1","99999,9,C,Y","009900,1,N,1","+0080,1","+0030,1","99999,9",,,,,,,"10159,1,99999,9",,,,,"MET045METAR ENHK 190420Z 11012KT CAVOK 08/03 Q1016;",
"01044099999","2008-09-19T04:50:00","4","70.486675","22.139744","6.4","HASVIK, NO","FM-15","ENHK ","V020","110,1,N,0082,1","99999,9,C,Y","009900,1,N,1","+0080,1","+0030,1","99999,9",,,,,,,"10159,1,99999,9",,,,,"MET045METAR ENHK 190450Z 11016KT CAVOK 08/03 Q1016;",
"01044099999","2008-09-19T12:50:00","4","70.486675","22.139744","6.4","HASVIK, NO","FM-15","ENHK ","V020","110,1,N,0057,1","02100,1,C,N","011265,1,N,1","+0090,1","+0040,1","99999,9","02,5,+01200,1,99,9","07,5,+02100,1,99,9",,,"07,99,1,99,9,99,9,99999,9,99,9,99,9",,"10149,1,99999,9",,,,,"MET058METAR ENHK 191250Z 11011KT 9999 FEW040 BKN070 09/04 Q1015;",
"01044099999","2008-09-19T13:50:00","4","70.486675","22.139744","6.4","HASVIK, NO","FM-15","ENHK ","V020","110,1,N,0062,1","01800,1,C,N","011265,1,N,1","+0090,1","+0040,1","99999,9","02,5,+01200,1,99,9","07,5,+01800,1,99,9",,,"07,99,1,99,9,99,9,99999,9,99,9,99,9",,"10149,1,99999,9",,,,,"MET058METAR ENHK 191350Z 11012KT 9999 FEW040 BKN060 09/04 Q1015;",
"01044099999","2008-09-21T11:50:00","4","70.486675","22.139744","6.4","HASVIK, NO","FM-15","ENHK ","V020","130,1,N,0021,1","01440,1,C,N","011265,1,N,1","+0120,1","+0060,1","99999,9","07,5,+01440,1,99,9",,,,"07,99,1,99,9,99,9,99999,9,99,9,99,9",,"10149,1,99999,9",,,,,"MET051METAR ENHK 211150Z 13004KT 9999 BKN048 12/06 Q1015;",
"01044099999","2008-09-21T12:20:00","4","70.486675","22.139744","6.4","HASVIK, NO","FM-15","ENHK ","V020","150,1,N,0015,1","01440,1,C,N","011265,1,N,1","+0130,1","+0070,1","99999,9","02,5,+01050,1,99,9","07,5,+01440,1,99,9",,,"07,99,1,99,9,99,9,99999,9,99,9,99,9",,"10149,1,99999,9","61,1",,,,"MET062METAR ENHK 211220Z 15003KT 9999 -RA FEW035 BKN048 13/07 Q1015;",
"01044099999","2008-09-21T12:50:00","4","70.486675","22.139744","6.4","HASVIK, NO","FM-15","ENHK ","V020","150,1,N,0036,1","01500,1,C,N","011265,1,N,1","+0130,1","+0060,1","99999,9","02,5,+01050,1,99,9","07,5,+01500,1,99,9",,,"07,99,1,99,9,99,9,99999,9,99,9,99,9",,"10149,1,99999,9",,,,,"MET066METAR ENHK 211250Z 15007KT 090V210 9999 FEW035 BKN050 13/06 Q1015;",
"01044099999","2008-09-21T13:20:00","4","70.486675","22.139744","6.4","HASVIK, NO","FM-15","ENHK ","V020","110,1,N,0031,1","01440,1,C,N","011265,1,N,1","+0140,1","+0060,1","99999,9","02,5,+01050,1,99,9","07,5,+01440,1,99,9",,,"07,99,1,99,9,99,9,99999,9,99,9,99,9",,"10149,1,99999,9",,,,,"MET058METAR ENHK 211320Z 11006KT 9999 FEW035 BKN048 14/06 Q1015;",
"01044099999","2008-09-21T13:50:00","4","70.486675","22.139744","6.4","HASVIK, NO","FM-15","ENHK ","V020","110,1,N,0026,1","99999,9,C,N","011265,1,N,1","+0140,1","+0070,1","99999,9","02,5,+01440,1,99,9","04,5,+02700,1,99,9",,,"04,99,1,99,9,99,9,99999,9,99,9,99,9",,"10139,1,99999,9",,,,,"MET066METAR ENHK 211350Z 11005KT 080V150 9999 FEW048 SCT090 14/07 Q1014;","P01 027003SCOCIG"
"01044099999","2008-09-22T02:50:00","4","70.486675","22.139744","6.4","HASVIK, NO","FM-15","ENHK ","V020","290,1,N,0123,1","00750,1,C,N","011265,1,N,1","+0090,1","+0070,1","99999,9","02,5,+00240,1,99,9","07,5,+00750,1,99,9",,,"07,99,1,99,9,99,9,99999,9,99,9,99,9",,"10119,1,99999,9","61,1",,,"0175,1","MET065METAR ENHK 220250Z 29024G34KT 9999 -RA FEW008 BKN025 09/07 Q1012;",
"01044099999","2008-09-22T03:20:00","4","70.486675","22.139744","6.4","HASVIK, NO","FM-15","ENHK ","V020","290,1,N,0077,1","01110,1,C,N","011265,1,N,1","+0090,1","+0070,1","99999,9","04,5,+00360,1,99,9","07,5,+01110,1,99,9",,,"07,99,1,99,9,99,9,99999,9,99,9,99,9",,"10129,1,99999,9","61,1",,,,"MET062METAR ENHK 220320Z 29015KT 9999 -RA SCT012 BKN037 09/07 Q1013;",
"01044099999","2008-09-22T03:50:00","4","70.486675","22.139744","6.4","HASVIK, NO","FM-15","ENHK ","V020","280,1,N,0072,1","00540,1,C,N","011265,1,N,1","+0090,1","+0070,1","99999,9","04,5,+00360,1,99,9","07,5,+00540,1,99,9",,,"07,99,1,99,9,99,9,99999,9,99,9,99,9",,"10139,1,99999,9","61,1",,,,"MET062METAR ENHK 220350Z 28014KT 9999 -RA SCT012 BKN018 09/07 Q1014;",
"01044099999","2008-09-22T04:50:00","4","70.486675","22.139744","6.4","HASVIK, NO","FM-15","ENHK ","V020","250,1,N,0067,1","00840,1,C,N","011265,1,N,1","+0090,1","+0060,1","99999,9","02,5,+00450,1,99,9","04,5,+00840,1,99,9","07,5,+01800,1,99,9",,"07,99,1,99,9,99,9,99999,9,99,9,99,9",,"10139,1,99999,9","61,1",,,,"MET069METAR ENHK 220450Z 25013KT 9999 -RA FEW015 SCT028 BKN060 09/06 Q1014;",
"01044099999","2008-09-22T05:20:00","4","70.486675","22.139744","6.4","HASVIK, NO","FM-15","ENHK ","V020","250,1,N,0051,1","01950,5,C,N","011265,1,N,1","+0100,1","+0050,1","99999,9","02,5,+00600,1,99,9","07,5,+01950,5,99,9",,,"07,99,1,99,9,99,9,99999,9,99,9,99,9",,"10139,1,99999,9",,,,,"MET058METAR ENHK 220520Z 25010KT 9999 FEW020 BKN065 10/05 Q1014;",
"01044099999","2008-09-22T12:20:00","4","70.486675","22.139744","6.4","HASVIK, NO","FM-15","ENHK ","V020","260,1,N,0057,1","01200,1,C,N","011265,1,N,1","+0110,1","+0040,1","99999,9","04,5,+00690,1,99,9","07,5,+01200,1,99,9",,,"07,99,1,99,9,99,9,99999,9,99,9,99,9",,"10159,1,99999,9","80,1",,,,"MET072METAR ENHK 221220Z 26011KT 220V290 9999 -SHRA SCT023 BKN040 11/04 Q1016;",
"01044099999","2008-09-22T12:50:00","4","70.486675","22.139744","6.4","HASVIK, NO","FM-15","ENHK ","V020","280,1,N,0067,1","01140,1,C,N","011265,1,N,1","+0100,1","+0060,1","99999,9","04,5,+00750,1,99,9","07,5,+01140,1,99,9",,,"07,99,1,99,9,99,9,99999,9,99,9,99,9",,"10159,1,99999,9","63,1",,,"0118,1","MET064METAR ENHK 221250Z 28013G23KT 9999 RA SCT025 BKN038 10/06 Q1016;",
"01044099999","2008-09-22T13:20:00","4","70.486675","22.139744","6.4","HASVIK, NO","FM-15","ENHK ","V020","280,1,N,0057,1","01290,1,C,N","011265,1,N,1","+0100,1","+0060,1","99999,9","04,5,+00750,1,99,9","07,5,+01290,1,99,9",,,"07,99,1,99,9,99,9,99999,9,99,9,99,9",,"10159,1,99999,9","61,1",,,,"MET062METAR ENHK 221320Z 28011KT 9999 -RA SCT025 BKN043 10/06 Q1016;",
"01044099999","2008-09-22T13:50:00","4","70.486675","22.139744","6.4","HASVIK, NO","FM-15","ENHK ","V020","260,1,N,0072,1","99999,9,C,N","011265,1,N,1","+0100,1","+0060,1","99999,9","02,5,+00750,1,99,9","04,5,+01200,1,99,9",,,"04,99,1,99,9,99,9,99999,9,99,9,99,9",,"10169,1,99999,9","16,1",,,,"MET063METAR ENHK 221350Z 26014KT 9999 VCSH FEW025 SCT040 10/06 Q1017;","P01 012003SCOCIG"
"01044099999","2008-09-22T14:20:00","4","70.486675","22.139744","6.4","HASVIK, NO","FM-15","ENHK ","V020","260,1,N,0031,1","99999,9,C,N","011265,1,N,1","+0100,1","+0060,1","99999,9","04,5,+00600,1,99,9","04,5,+01200,1,99,9",,,"04,99,1,99,9,99,9,99999,9,99,9,99,9",,"10159,1,99999,9",,,,,"MET066METAR ENHK 221420Z 26006KT 230V290 9999 SCT020 SCT040 10/06 Q1016;","P01 012003SCOCIG"
"01044099999","2008-09-23T03:20:00","4","70.486675","22.139744","6.4","HASVIK, NO","FM-15","ENHK ","V020","270,1,N,0082,1","01140,1,C,N","011265,1,N,1","+0110,1","+0060,1","99999,9","07,5,+01140,1,99,9",,,,"07,99,1,99,9,99,9,99999,9,99,9,99,9",,,"80,1",,,,"MET056METAR ENHK 230320Z 27016KT 9999 -SHRA BKN038 11/06 1011;",
"01044099999","2008-09-23T03:50:00","4","70.486675","22.139744","6.4","HASVIK, NO","FM-15","ENHK ","V020","270,1,N,0077,1","01050,1,C,N","011265,1,N,1","+0110,1","+0060,1","99999,9","07,5,+01050,1,99,9",,,,"07,99,1,99,9,99,9,99999,9,99,9,99,9",,"10108,1,99999,9",,,,,"MET051METAR ENHK 230350Z 27015KT 9999 BKN035 11/06 Q1011;",
"01044099999","2008-09-23T04:20:00","4","70.486675","22.139744","6.4","HASVIK, NO","FM-15","ENHK ","V020","270,1,N,0072,1","01290,1,C,N","011265,1,N,1","+0090,1","+0070,1","99999,9","02,5,+00480,1,99,9","07,5,+01290,1,99,9",,,"07,99,1,99,9,99,9,99999,9,99,9,99,9",,"10108,1,99999,9",,,,"0123,1","MET061METAR ENHK 230420Z 27014G24KT 9999 FEW016 BKN043 09/07 Q1011;",
"01044099999","2008-09-23T04:50:00","4","70.486675","22.139744","6.4","HASVIK, NO","FM-15","ENHK ","V020","280,1,N,0077,1","00780,1,C,N","011265,1,N,1","+0100,1","+0070,1","99999,9","02,5,+00360,1,99,9","04,5,+00780,1,99,9","07,5,+01050,1,99,9",,"07,99,1,99,9,99,9,99999,9,99,9,99,9",,"10108,1,99999,9","80,1",,,,"MET071METAR ENHK 230450Z 28015KT 9999 -SHRA FEW012 SCT026 BKN035 10/07 Q1011;",
"01044099999","2008-09-23T05:20:00","4","70.486675","22.139744","6.4","HASVIK, NO","FM-15","ENHK ","V020","280,1,N,0072,1","00720,1,C,N","011265,1,N,1","+0100,1","+0070,1","99999,9","02,5,+00420,1,99,9","07,5,+00720,1,99,9",,,"07,99,1,99,9,99,9,99999,9,99,9,99,9",,"10119,1,99999,9",,,,,"MET058METAR ENHK 230520Z 28014KT 9999 FEW014 BKN024 10/07 Q1012;",
"01044099999","2008-09-23T05:50:00","4","70.486675","22.139744","6.4","HASVIK, NO","FM-15","ENHK ","V020","270,1,N,0072,1","00750,1,C,N","011265,1,N,1","+0100,1","+0070,1","99999,9","04,5,+00450,1,99,9","07,5,+00750,1,99,9",,,"07,99,1,99,9,99,9,99999,9,99,9,99,9",,"10119,1,99999,9","80,1",,,,"MET064METAR ENHK 230550Z 27014KT 9999 -SHRA SCT015 BKN025 10/07 Q1012;",
"01044099999","2008-09-23T12:20:00","4","70.486675","22.139744","6.4","HASVIK, NO","FM-15","ENHK ","V020","270,1,N,0067,1","01350,1,C,N","011265,1,N,1","+0080,1","+0060,1","99999,9","04,5,+00450,1,99,9","07,5,+01350,1,99,9",,,"07,99,1,99,9,99,9,99999,9,99,9,99,9",,"10149,1,99999,9","61,1",,,,"MET062METAR ENHK 231220Z 27013KT 9999 -RA SCT015 BKN045 08/06 Q1015;",
"01044099999","2008-09-23T12:50:00","4","70.486675","22.139744","6.4","HASVIK, NO","FM-15","ENHK ","V020","270,1,N,0051,1","00600,1,C,N","011265,1,N,1","+0080,1","+0050,1","99999,9","02,5,+00450,1,99,9","04,5,+00600,1,99,9","07,5,+01050,1,99,9",,"07,99,1,99,9,99,9,99999,9,99,9,99,9",,"10149,1,99999,9","61,1",,,,"MET069METAR ENHK 231250Z 27010KT 9999 -RA FEW015 SCT020 BKN035 08/05 Q1015;",
"01044099999","2008-09-23T13:50:00","4","70.486675","22.139744","6.4","HASVIK, NO","FM-15","ENHK ","V020","260,1,N,0041,1","01050,1,C,N","011265,1,N,1","+0090,1","+0050,1","99999,9","02,5,+00600,1,99,9","04,5,+01050,1,99,9","07,5,+01950,5,99,9",,"07,99,1,99,9,99,9,99999,9,99,9,99,9",,"10149,1,99999,9",,,,,"MET065METAR ENHK 231350Z 26008KT 9999 FEW020 SCT035 BKN065 09/05 Q1015;",
"01044099999","2008-09-23T14:20:00","4","70.486675","22.139744","6.4","HASVIK, NO","FM-15","ENHK ","V020","280,1,N,0036,1","00900,1,C,N","011265,1,N,1","+0090,1","+0050,1","99999,9","02,5,+00600,1,99,9","04,5,+00900,1,99,9","07,5,+01800,1,99,9",,"07,99,1,99,9,99,9,99999,9,99,9,99,9",,"10139,1,99999,9",,,,,"MET065METAR ENHK 231420Z 28007KT 9999 FEW020 SCT030 BKN060 09/05 Q1014;",
"01044099999","2008-09-24T03:20:00","4","70.486675","22.139744","6.4","HASVIK, NO","FM-15","ENHK ","V020","310,1,N,0082,1","00810,1,C,N","011265,1,N,1","+0060,1","+0040,1","99999,9","04,5,+00540,1,99,9","07,5,+00810,1,99,9",,,"07,99,1,99,9,99,9,99999,9,99,9,99,9",,"10180,1,99999,9",,,,,"MET058METAR ENHK 240320Z 31016KT 9999 SCT018 BKN027 06/04 Q1018;",
"01044099999","2008-09-24T03:50:00","4","70.486675","22.139744","6.4","HASVIK, NO","FM-15","ENHK ","V020","310,1,N,0082,1","00750,1,C,N","011265,1,N,1","+0060,1","+0040,1","99999,9","02,5,+00450,1,99,9","04,5,+00750,1,99,9","07,5,+01800,1,99,9",,"07,99,1,99,9,99,9,99999,9,99,9,99,9",,"10180,1,99999,9",,,,,"MET070METAR ENHK 240350Z 31016KT 9999 FEW015 SCT025 BKN060 06/04 Q1018 RERA;",
"01044099999","2008-09-24T04:50:00","4","70.486675","22.139744","6.4","HASVIK, NO","FM-15","ENHK ","V020","300,1,N,0103,1","00750,1,C,N","011265,1,N,1","+0070,1","+0020,1","99999,9","02,5,+00450,1,99,9","04,5,+00750,1,99,9","07,5,+01470,1,99,9",,"07,99,1,99,9,99,9,99999,9,99,9,99,9",,"10180,1,99999,9",,,,,"MET065METAR ENHK 240450Z 30020KT 9999 FEW015 SCT025 BKN049 07/02 Q1018;",
"01044099999","2008-09-24T05:50:00","4","70.486675","22.139744","6.4","HASVIK, NO","FM-15","ENHK ","V020","310,1,N,0093,1","00840,1,C,N","011265,1,N,1","+0070,1","+0030,1","99999,9","07,5,+00840,1,99,9",,,,"07,99,1,99,9,99,9,99999,9,99,9,99,9",,"10180,1,99999,9","80,1",,,,"MET057METAR ENHK 240550Z 31018KT 9999 -SHRA BKN028 07/03 Q1018;",
"01044099999","2008-09-24T06:50:00","4","70.486675","22.139744","6.4","HASVIK, NO","FM-15","ENHK ","V020","300,1,N,0103,1","01800,1,C,N","011265,1,N,1","+0070,1","+0030,1","99999,9","04,5,+00600,1,99,9","07,5,+01800,1,99,9",,,"07,99,1,99,9,99,9,99999,9,99,9,99,9",,"10190,1,99999,9","16,1",,,,"MET063METAR ENHK 240650Z 30020KT 9999 VCSH SCT020 BKN060 07/03 Q1019;",
"01044099999","2008-09-24T07:20:00","4","70.486675","22.139744","6.4","HASVIK, NO","FM-15","ENHK ","V020","300,1,N,0103,1","00900,1,C,N","011265,1,N,1","+0070,1","+0020,1","99999,9","02,5,+00600,1,99,9","07,5,+00900,1,99,9",,,"07,99,1,99,9,99,9,99999,9,99,9,99,9",,"10200,1,99999,9","80,1",,,,"MET064METAR ENHK 240720Z 30020KT 9999 -SHRA FEW020 BKN030 07/02 Q1020;",
"01044099999","2008-09-24T08:20:00","4","70.486675","22.139744","6.4","HASVIK, NO","FM-15","ENHK ","V020","320,1,N,0098,1","00660,1,C,N","011265,1,N,1","+0060,1","+0030,1","99999,9","07,5,+00660,1,99,9","07,5,+01350,1,99,9",,,"07,99,1,99,9,99,9,99999,9,99,9,99,9",,"10210,1,99999,9",,,,,"MET058METAR ENHK 240820Z 32019KT 9999 BKN022 BKN045 06/03 Q1021;",
"01044099999","2008-09-24T10:50:00","4","70.486675","22.139744","6.4","HASVIK, NO","FM-15","ENHK ","V020","310,1,N,0093,1","00750,1,C,N","011265,1,N,1","+0070,1","+0030,1","99999,9","07,5,+00750,1,99,9",,,,"07,99,1,99,9,99,9,99999,9,99,9,99,9",,"10220,1,99999,9",,,,,"MET051METAR ENHK 241050Z 31018KT 9999 BKN025 07/03 Q1022;",
"01044099999","2008-09-24T11:50:00","4","70.486675","22.139744","6.4","HASVIK, NO","FM-15","ENHK ","V020","310,1,N,0077,1","00720,1,C,N","011265,1,N,1","+0070,1","+0020,1","99999,9","07,5,+00720,1,99,9",,,,"07,99,1,99,9,99,9,99999,9,99,9,99,9",,"10240,1,99999,9","16,1",,,,"MET056METAR ENHK 241150Z 31015KT 9999 VCSH BKN024 07/02 Q1024;",
"01044099999","2008-09-24T12:50:00","4","70.486675","22.139744","6.4","HASVIK, NO","FM-15","ENHK ","V020","320,1,N,0051,1","22000,1,9,N","011265,1,N,1","+0060,1","+0030,1","99999,9","04,5,+00690,1,99,9",,,,"04,99,1,99,9,99,9,99999,9,99,9,99,9",,"10251,1,99999,9","16,1",,,,"MET056METAR ENHK 241250Z 32010KT 9999 VCSH SCT023 06/03 Q1025;",
"01044099999","2008-09-24T13:20:00","4","70.486675","22.139744","6.4","HASVIK, NO","FM-15","ENHK ","V020","310,1,N,0082,1","22000,1,9,N","011265,1,N,1","+0060,1","+0030,1","99999,9","04,5,+00690,1,99,9",,,,"04,99,1,99,9,99,9,99999,9,99,9,99,9",,"10251,1,99999,9",,,,,"MET051METAR ENHK 241320Z 31016KT 9999 SCT023 06/03 Q1025;",
"01044099999","2008-09-24T14:20:00","4","70.486675","22.139744","6.4","HASVIK, NO","FM-15","ENHK ","V020","310,1,N,0067,1","22000,1,9,N","011265,1,N,1","+0060,1","+0030,1","99999,9","04,5,+00720,1,99,9",,,,"04,99,1,99,9,99,9,99999,9,99,9,99,9",,"10251,1,99999,9",,,,,"MET051METAR ENHK 241420Z 31013KT 9999 SCT024 06/03 Q1025;",
"01044099999","2008-09-25T03:20:00","4","70.486675","22.139744","6.4","HASVIK, NO","FM-15","ENHK ","V020","340,1,N,0031,1","01500,1,C,N","011265,1,N,1","+0040,1","+0010,1","99999,9","04,5,+00900,1,99,9","07,5,+01500,1,99,9",,,"07,99,1,99,9,99,9,99999,9,99,9,99,9",,"10329,1,99999,9",,,,,"MET066METAR ENHK 250320Z 34006KT 300V030 9999 SCT030 BKN050 04/01 Q1033;",
"01044099999","2008-09-25T03:50:00","4","70.486675","22.139744","6.4","HASVIK, NO","FM-15","ENHK ","V020","360,1,N,0026,1","99999,9,C,N","011265,1,N,1","+0040,1","+0000,1","99999,9","04,5,+00900,1,99,9","04,5,+01500,1,99,9",,,"04,99,1,99,9,99,9,99999,9,99,9,99,9",,"10329,1,99999,9",,,,,"MET059METAR ENHK 250350Z 36005KT 9999 SCT030 SCT050 04/M00 Q1033;","P01 015003SCOCIG"
"01044099999","2008-09-25T04:20:00","4","70.486675","22.139744","6.4","HASVIK, NO","FM-15","ENHK ","V020","350,1,N,0021,1","99999,9,C,N","011265,1,N,1","+0040,1","+0000,1","99999,9","04,5,+00750,1,99,9","04,5,+01500,1,99,9",,,"04,99,1,99,9,99,9,99999,9,99,9,99,9",,,,,,,"MET066METAR ENHK 250420Z 35004KT 320V030 9999 SCT025 SCT050 04/00 W1033;","P01 015003SCOCIG"
"01044099999","2008-09-25T05:20:00","4","70.486675","22.139744","6.4","HASVIK, NO","FM-15","ENHK ","V020","999,9,V,0010,1","99999,9,C,N","011265,1,N,1","+0040,1","+0010,1","99999,9","04,5,+00750,1,99,9","04,5,+01680,5,99,9",,,"04,99,1,99,9,99,9,99999,9,99,9,99,9",,"10339,1,99999,9",,,,,"MET058METAR ENHK 250520Z VRB02KT 9999 SCT025 SCT056 04/01 Q1034;","P01 016803SCOCIG"
"01044099999","2008-09-25T05:50:00","4","70.486675","22.139744","6.4","HASVIK, NO","FM-15","ENHK ","V020","999,9,V,0010,1","99999,9,C,N","011265,1,N,1","+0040,1","+0000,1","99999,9","02,5,+00840,1,99,9","04,5,+01500,1,99,9",,,"04,99,1,99,9,99,9,99999,9,99,9,99,9",,"10339,1,99999,9",,,,,"MET058METAR ENHK 250550Z VRB02KT 9999 FEW028 SCT050 04/00 Q1034;","P01 015003SCOCIG"
"01044099999","2008-09-25T06:20:00","4","70.486675","22.139744","6.4","HASVIK, NO","FM-15","ENHK ","V020","270,1,N,0015,1","01740,5,C,N","011265,1,N,1","+0050,1","+0010,1","99999,9","04,5,+00840,1,99,9","07,5,+01740,5,99,9",,,"07,99,1,99,9,99,9,99999,9,99,9,99,9",,"10339,1,99999,9",,,,,"MET066METAR ENHK 250620Z 27003KT 240V310 9999 SCT028 BKN058 05/01 Q1034;",
"01044099999","2008-09-25T07:20:00","4","70.486675","22.139744","6.4","HASVIK, NO","FM-15","ENHK ","V020","010,1,N,0021,1","01740,5,C,N","011265,1,N,1","+0050,1","+0010,1","99999,9","04,5,+00840,1,99,9","07,5,+01740,5,99,9",,,"07,99,1,99,9,99,9,99999,9,99,9,99,9",,"10339,1,99999,9",,,,,"MET066METAR ENHK 250720Z 01004KT 320V070 9999 SCT028 BKN058 05/01 Q1034;",
"01044099999","2008-09-25T08:50:00","4","70.486675","22.139744","6.4","HASVIK, NO","FM-15","ENHK ","V020","360,1,N,0031,5","22000,1,9,N","011265,1,N,1","+0050,1","+0010,1","99999,9","02,5,+00750,1,99,9",,,,"02,99,1,99,9,99,9,99999,9,99,9,99,9",,"10339,1,99999,9",,,,,"MET057METAR ENHK 250850Z 36006 320V030 9999 FEW025 05/01 Q1034;",
"01044099999","2008-09-25T09:50:00","4","70.486675","22.139744","6.4","HASVIK, NO","FM-15","ENHK ","V020","320,1,N,0041,1","99999,9,C,N","011265,1,N,1","+0060,1","+0010,1","99999,9","02,5,+00900,1,99,9","04,5,+01590,5,99,9",,,"04,99,1,99,9,99,9,99999,9,99,9,99,9",,"10339,1,99999,9",,,,,"MET066METAR ENHK 250950Z 32008KT 290V360 9999 FEW030 SCT053 06/01 Q1034;","P01 015903SCOCIG"
"01044099999","2008-09-25T10:20:00","4","70.486675","22.139744","6.4","HASVIK, NO","FM-15","ENHK ","V020","310,1,N,0031,1","99999,9,C,N","011265,1,N,1","+0060,1","+0010,1","99999,9","04,5,+00750,1,99,9","04,5,+01500,1,99,9",,,"04,99,1,99,9,99,9,99999,9,99,9,99,9",,"10339,1,99999,9",,,,,"MET058METAR ENHK 251020Z 31006KT 9999 SCT025 SCT050 06/01 Q1034;","P01 015003SCOCIG"
"01044099999","2008-09-25T11:50:00","4","70.486675","22.139744","6.4","HASVIK, NO","FM-15","ENHK ","V020","310,1,N,0026,1","22000,1,9,N","011265,1,N,1","+0060,1","-0010,1","99999,9","04,5,+00900,1,99,9",,,,"04,99,1,99,9,99,9,99999,9,99,9,99,9",,"10329,1,99999,9",,,,,"MET060METAR ENHK 251150Z 31005KT 260V030 9999 SCT030 06/M01 Q1033;",
"01044099999","2008-09-25T12:20:00","4","70.486675","22.139744","6.4","HASVIK, NO","FM-15","ENHK ","V020","300,1,N,0021,1","22000,1,9,N","011265,1,N,1","+0060,1","-0010,1","99999,9","04,5,+00900,1,99,9",,,,"04,99,1,99,9,99,9,99999,9,99,9,99,9",,"10329,1,99999,9",,,,,"MET060METAR ENHK 251220Z 30004KT 260V330 9999 SCT030 06/M01 Q1033;",
"01044099999","2008-09-25T12:50:00","4","70.486675","22.139744","6.4","HASVIK, NO","FM-15","ENHK ","V020","999,9,V,0015,1","22000,1,9,N","011265,1,N,1","+0060,1","+0010,1","99999,9","02,5,+00900,1,99,9",,,,"02,99,1,99,9,99,9,99999,9,99,9,99,9",,"10329,1,99999,9",,,,,"MET051METAR ENHK 251250Z VRB03KT 9999 FEW030 06/01 Q1033;",
"01044099999","2008-09-25T13:20:00","4","70.486675","22.139744","6.4","HASVIK, NO","FM-15","ENHK ","V020","220,1,N,0026,1","22000,1,9,N","011265,1,N,1","+0060,1","+0010,1","99999,9","02,5,+00900,1,99,9",,,,"02,99,1,99,9,99,9,99999,9,99,9,99,9",,"10329,1,99999,9",,,,,"MET051METAR ENHK 251320Z 22005KT 9999 FEW030 06/01 Q1033;",
"01044099999","2008-09-25T13:50:00","4","70.486675","22.139744","6.4","HASVIK, NO","FM-15","ENHK ","V020","160,1,N,0026,1","22000,1,9,N","011265,1,N,1","+0050,1","+0010,1","99999,9","02,5,+01050,1,99,9",,,,"02,99,1,99,9,99,9,99999,9,99,9,99,9",,"10329,1,99999,9",,,,,"MET051METAR ENHK 251350Z 16005KT 9999 FEW035 05/01 Q1033;",
"01044099999","2008-09-25T14:50:00","4","70.486675","22.139744","6.4","HASVIK, NO","FM-15","ENHK ","V020","160,1,N,0021,1","22000,1,9,N","011265,1,N,1","+0040,1","+0010,1","99999,9","02,5,+01050,1,99,9",,,,"02,99,1,99,9,99,9,99999,9,99,9,99,9",,"10318,1,99999,9",,,,,"MET051METAR ENHK 251450Z 16004KT 9999 FEW035 04/01 Q1032;",
"01044099999","2008-09-26T03:20:00","4","70.486675","22.139744","6.4","HASVIK, NO","FM-15","ENHK ","V020","100,1,N,0072,1","01200,1,C,N","011265,1,N,1","+0060,1","+0040,1","99999,9","07,5,+01200,1,99,9",,,,"07,99,1,99,9,99,9,99999,9,99,9,99,9",,"10159,1,99999,9",,,,,"MET051METAR ENHK 260320Z 10014KT 9999 BKN040 06/04 Q1016;",
"01044099999","2008-09-26T03:50:00","4","70.486675","22.139744","6.4","HASVIK, NO","FM-15","ENHK ","V020","100,1,N,0077,1","01800,1,C,N","011265,1,N,1","+0060,1","+0040,1","99999,9","04,5,+01200,1,99,9","07,5,+01800,1,99,9",,,"07,99,1,99,9,99,9,99999,9,99,9,99,9",,"10149,1,99999,9",,,,,"MET058METAR ENHK 260350Z 10015KT 9999 SCT040 BKN060 06/04 Q1015;",
"01044099999","2008-09-26T04:20:00","4","70.486675","22.139744","6.4","HASVIK, NO","FM-15","ENHK ","V020","100,1,N,0077,1","01590,5,C,N","011265,1,N,1","+0060,1","+0040,1","99999,9","02,5,+01200,1,99,9","07,5,+01590,5,99,9",,,"07,99,1,99,9,99,9,99999,9,99,9,99,9",,"10139,1,99999,9",,,,,"MET058METAR ENHK 260420Z 10015KT 9999 FEW040 BKN053 06/04 Q1014;",
"01044099999","2008-09-26T05:50:00","4","70.486675","22.139744","6.4","HASVIK, NO","FM-15","ENHK ","V020","100,1,N,0082,1","01350,1,C,N","011265,1,N,1","+0060,1","+0040,1","99999,9","02,5,+00900,1,99,9","04,5,+01350,1,99,9","07,5,+02250,5,99,9",,"07,99,1,99,9,99,9,99999,9,99,9,99,9",,"10129,1,99999,9","80,1",,,,"MET071METAR ENHK 260550Z 10016KT 9999 -SHRA FEW030 SCT045 BKN075 06/04 Q1013;",
"01044099999","2008-09-26T06:20:00","4","70.486675","22.139744","6.4","HASVIK, NO","FM-15","ENHK ","V020","100,1,N,0082,1","01350,1,C,N","011265,1,N,1","+0060,1","+0040,1","99999,9","02,5,+00900,1,99,9","04,5,+01350,1,99,9","07,5,+02100,1,99,9",,"07,99,1,99,9,99,9,99999,9,99,9,99,9",,"10119,1,99999,9","61,1",,,,"MET069METAR ENHK 260620Z 10016KT 9999 -RA FEW030 SCT045 BKN070 06/04 Q1012;",
"01044099999","2008-09-26T06:50:00","4","70.486675","22.139744","6.4","HASVIK, NO","FM-15","ENHK ","V020","100,1,N,0072,1","01200,1,C,N","011265,1,N,1","+0060,1","+0030,1","99999,9","02,5,+00750,1,99,9","04,5,+01200,1,99,9","07,5,+02100,1,99,9",,"07,99,1,99,9,99,9,99999,9,99,9,99,9",,"10119,1,99999,9","61,1",,,,"MET069METAR ENHK 260650Z 10014KT 9999 -RA FEW025 SCT040 BKN070 06/03 Q1012;",
"01044099999","2008-09-26T07:50:00","4","70.486675","22.139744","6.4","HASVIK, NO","FM-15","ENHK ","V020","110,1,N,0057,1","00900,1,C,N","011265,1,N,1","+0070,1","+0050,1","99999,9","02,5,+00480,1,99,9","04,5,+00900,1,99,9","07,5,+01500,1,99,9",,"07,99,1,99,9,99,9,99999,9,99,9,99,9",,"10119,1,99999,9","61,1",,,,"MET069METAR ENHK 260750Z 11011KT 9999 -RA FEW016 SCT030 BKN050 07/05 Q1012;",
"01044099999","2008-09-26T09:20:00","4","70.486675","22.139744","6.4","HASVIK, NO","FM-15","ENHK ","V020","110,1,N,0051,1","00750,1,C,N","011265,1,N,1","+0070,1","+0050,1","99999,9","02,5,+00480,1,99,9","04,5,+00750,1,99,9","07,5,+01500,1,99,9",,"07,99,1,99,9,99,9,99999,9,99,9,99,9",,"10108,1,99999,9","61,1",,,,"MET069METAR ENHK 260920Z 11010KT 9999 -RA FEW016 SCT025 BKN050 07/05 Q1011;",
"01044099999","2008-09-26T11:50:00","4","70.486675","22.139744","6.4","HASVIK, NO","FM-15","ENHK ","V020","110,1,N,0036,1","00840,1,C,N","011265,1,N,1","+0070,1","+0050,1","99999,9","02,5,+00480,1,99,9","04,5,+00840,1,99,9","07,5,+01470,1,99,9",,"07,99,1,99,9,99,9,99999,9,99,9,99,9",,"10108,1,99999,9","80,1",,,,"MET071METAR ENHK 261150Z 11007KT 9999 -SHRA FEW016 SCT028 BKN049 07/05 Q1011;",
"01044099999","2008-09-26T12:20:00","4","70.486675","22.139744","6.4","HASVIK, NO","FM-15","ENHK ","V020","120,1,N,0031,1","00840,1,C,N","011265,1,N,1","+0070,1","+0050,1","99999,9","02,5,+00480,1,99,9","04,5,+00840,1,99,9","07,5,+01410,1,99,9",,"07,99,1,99,9,99,9,99999,9,99,9,99,9",,"10119,1,99999,9","80,1",,,,"MET071METAR ENHK 261220Z 12006KT 9999 -SHRA FEW016 SCT028 BKN047 07/05 Q1012;",
"01044099999","2008-09-26T12:50:00","4","70.486675","22.139744","6.4","HASVIK, NO","FM-15","ENHK ","V020","130,1,N,0036,1","01110,1,C,N","011265,1,N,1","+0070,1","+0050,1","99999,9","02,5,+00360,1,99,9","07,5,+01110,1,99,9",,,"07,99,1,99,9,99,9,99999,9,99,9,99,9",,"10119,1,99999,9","61,1",,,,"MET062METAR ENHK 261250Z 13007KT 9999 -RA FEW012 BKN037 07/05 Q1012;",
"01044099999","2008-09-26T13:20:00","4","70.486675","22.139744","6.4","HASVIK, NO","FM-15","ENHK ","V020","120,1,N,0031,1","01020,1,C,N","011265,1,N,1","+0070,1","+0060,1","99999,9","02,5,+00330,1,99,9","07,5,+01020,1,99,9",,,"07,99,1,99,9,99,9,99999,9,99,9,99,9",,"10119,1,99999,9","61,1",,,,"MET062METAR ENHK 261320Z 12006KT 9999 -RA FEW011 BKN034 07/06 Q1012;",
"01044099999","2008-09-26T13:50:00","4","70.486675","22.139744","6.4","HASVIK, NO","FM-15","ENHK ","V020","999,9,V,0010,1","00900,1,C,N","007000,1,N,1","+0070,1","+0060,1","99999,9","04,5,+00330,1,99,9","07,5,+00900,1,99,9",,,"07,99,1,99,9,99,9,99999,9,99,9,99,9",,"10119,1,99999,9","61,1",,,,"MET062METAR ENHK 261350Z VRB02KT 7000 -RA SCT011 BKN030 07/06 Q1012;",
"01044099999","2008-09-28T11:50:00","4","70.486675","22.139744","6.4","HASVIK, NO","FM-15","ENHK ","V020","120,1,N,0021,1","00750,1,C,N","011265,1,N,1","+0080,1","+0060,1","99999,9","02,5,+00420,1,99,9","04,5,+00750,1,99,9","07,5,+00900,1,99,9",,"07,99,1,99,9,99,9,99999,9,99,9,99,9",,"09780,1,99999,9","80,1",,,,"MET071METAR ENHK 281150Z 12004KT 9999 -SHRA FEW014 SCT025 BKN030 08/06 Q0978;",
"01044099999","2008-09-28T12:20:00","4","70.486675","22.139744","6.4","HASVIK, NO","FM-15","ENHK ","V020","120,1,N,0015,1","00780,1,C,N","011265,1,N,1","+0070,1","+0060,1","99999,9","02,5,+00450,1,99,9","04,5,+00780,1,99,9","07,5,+00960,1,99,9",,"07,99,1,99,9,99,9,99999,9,99,9,99,9",,"09780,1,99999,9","80,1",,,,"MET071METAR ENHK 281220Z 12003KT 9999 -SHRA FEW015 SCT026 BKN032 07/06 Q0978;",
"01044099999","2008-09-28T12:50:00","4","70.486675","22.139744","6.4","HASVIK, NO","FM-15","ENHK ","V020","999,9,V,0005,1","00750,1,C,N","011265,1,N,1","+0070,1","+0060,1","99999,9","02,5,+00450,1,99,9","04,5,+00750,1,99,9","07,5,+00930,1,99,9",,"07,99,1,99,9,99,9,99999,9,99,9,99,9",,"09780,1,99999,9","61,1",,,,"MET069METAR ENHK 281250Z VRB01KT 9999 -RA FEW015 SCT025 BKN031 07/06 Q0978;",
"01044099999","2008-09-28T13:20:00","4","70.486675","22.139744","6.4","HASVIK, NO","FM-15","ENHK ","V020","340,1,N,0021,1","00900,1,C,N","011265,1,N,1","+0070,1","+0060,1","99999,9","02,5,+00450,1,99,9","07,5,+00900,1,99,9",,,"07,99,1,99,9,99,9,99999,9,99,9,99,9",,"09790,1,99999,9","80,1",,,,"MET064METAR ENHK 281320Z 34004KT 9999 -SHRA FEW015 BKN030 07/06 Q0979;",
"01044099999","2008-09-29T03:20:00","4","70.486675","22.139744","6.4","HASVIK, NO","FM-15","ENHK ","V020","330,1,N,0093,1","00750,1,C,N","011265,1,N,1","+0060,1","+0040,1","99999,9","02,5,+00450,1,99,9","07,5,+00750,1,99,9",,,"07,99,1,99,9,99,9,99999,9,99,9,99,9",,"09861,1,99999,9","81,1",,,,"MET063METAR ENHK 290320Z 33018KT 9999 SHRA FEW015 BKN025 06/04 Q0986;",
"01044099999","2008-09-29T03:50:00","4","70.486675","22.139744","6.4","HASVIK, NO","FM-15","ENHK ","V020","340,1,N,0072,1","00600,1,C,N","011265,1,N,1","+0060,1","+0040,1","99999,9","02,5,+00450,1,99,9","07,5,+00600,1,99,9",,,"07,99,1,99,9,99,9,99999,9,99,9,99,9",,"09861,1,99999,9","63,1",,,,"MET061METAR ENHK 290350Z 34014KT 9999 RA FEW015 BKN020 06/04 Q0986;",
"01044099999","2008-09-29T04:20:00","4","70.486675","22.139744","6.4","HASVIK, NO","FM-15","ENHK ","V020","330,1,N,0087,1","00450,1,C,N","006000,1,N,1","+0070,1","+0050,1","99999,9","02,5,+00300,1,99,9","04,5,+00450,1,99,9","07,5,+00600,1,99,9",,"07,99,1,99,9,99,9,99999,9,99,9,99,9",,"09861,1,99999,9","53,1","63,1",,,"MET070METAR ENHK 290420Z 33017KT 6000 RADZ FEW010 SCT015 BKN020 07/05 Q0986;",
"01044099999","2008-09-29T04:50:00","4","70.486675","22.139744","6.4","HASVIK, NO","FM-15","ENHK ","V020","350,1,N,0072,1","00450,1,C,N","011265,1,N,1","+0070,1","+0040,1","99999,9","02,5,+00300,1,99,9","04,5,+00450,1,99,9","07,5,+00750,1,99,9",,"07,99,1,99,9,99,9,99999,9,99,9,99,9",,"09861,1,99999,9",,,,"0123,1","MET076METAR ENHK 290450Z 35014G24KT 300V050 9999 FEW010 SCT015 BKN025 07/04 Q0986;",
"01044099999","2008-09-29T05:50:00","4","70.486675","22.139744","6.4","HASVIK, NO","FM-15","ENHK ","V020","010,1,N,0036,1","00750,1,C,N","011265,1,N,1","+0070,1","+0040,1","99999,9","02,5,+00450,1,99,9","07,5,+00750,1,99,9",,,"07,99,1,99,9,99,9,99999,9,99,9,99,9",,"09871,1,99999,9",,,,,"MET066METAR ENHK 290550Z 01007KT 300V070 9999 FEW015 BKN025 07/04 Q0987;",
"01044099999","2008-09-29T06:50:00","4","70.486675","22.139744","6.4","HASVIK, NO","FM-15","ENHK ","V020","030,1,N,0041,1","00750,1,C,N","011265,1,N,1","+0060,1","+0020,1","99999,9","02,5,+00450,1,99,9","07,5,+00750,1,99,9",,,"07,99,1,99,9,99,9,99999,9,99,9,99,9",,"09892,1,99999,9",,,,,"MET066METAR ENHK 290650Z 03008KT 320V090 9999 FEW015 BKN025 06/02 Q0989;",
"01044099999","2008-09-29T11:50:00","4","70.486675","22.139744","6.4","HASVIK, NO","FM-15","ENHK ","V020","340,1,N,0036,1","99999,9,C,N","011265,1,N,1","+0060,1","+0030,1","99999,9","02,5,+00510,1,99,9","04,5,+00720,1,99,9",,,"04,99,1,99,9,99,9,99999,9,99,9,99,9",,"09919,1,99999,9",,,,,"MET058METAR ENHK 291150Z 34007KT 9999 FEW017 SCT024 06/03 Q0992;","P01 007203SCOCIG"
"01044099999","2008-09-29T12:20:00","4","70.486675","22.139744","6.4","HASVIK, NO","FM-15","ENHK ","V020","350,1,N,0062,1","00750,1,C,N","011265,1,N,1","+0060,1","+0030,1","99999,9","02,5,+00480,1,99,9","07,5,+00750,1,99,9",,,"07,99,1,99,9,99,9,99999,9,99,9,99,9",,"09929,1,99999,9","80,1",,,,"MET064METAR ENHK 291220Z 35012KT 9999 -SHRA FEW016 BKN025 06/03 Q0993;",
"01044099999","2008-09-29T12:50:00","4","70.486675","22.139744","6.4","HASVIK, NO","FM-15","ENHK ","V020","010,1,N,0046,1","99999,9,C,N","011265,1,N,1","+0060,1","+0030,1","99999,9","02,5,+00510,1,99,9","04,5,+00750,1,99,9",,,"04,99,1,99,9,99,9,99999,9,99,9,99,9",,"09929,1,99999,9","16,1",,,,"MET076METAR ENHK 291250Z 01009KT 300V090 9999 VCSH FEW017 SCT025 06/03 Q0993 RERA;","P01 007503SCOCIG"
"01044099999","2008-09-29T13:20:00","4","70.486675","22.139744","6.4","HASVIK, NO","FM-15","ENHK ","V020","340,1,N,0067,1","99999,9,C,N","011265,1,N,1","+0060,1","+0020,1","99999,9","02,5,+00480,1,99,9","04,5,+00720,1,99,9",,,"04,99,1,99,9,99,9,99999,9,99,9,99,9",,"09929,1,99999,9","80,1",,,,"MET064METAR ENHK 291320Z 34013KT 9999 -SHRA FEW016 SCT024 06/02 Q0993;","P01 007203SCOCIG"
"01044099999","2008-09-29T13:50:00","4","70.486675","22.139744","6.4","HASVIK, NO","FM-15","ENHK ","V020","340,1,N,0077,1","99999,9,C,N","011265,1,N,1","+0060,1","+0030,1","99999,9","02,5,+00480,1,99,9","04,5,+00720,1,99,9",,,"04,99,1,99,9,99,9,99999,9,99,9,99,9",,"09929,1,99999,9","80,1",,,,"MET064METAR ENHK 291350Z 34015KT 9999 -SHRA FEW016 SCT024 06/03 Q0993;","P01 007203SCOCIG"
"01044099999","2008-09-29T14:20:00","4","70.486675","22.139744","6.4","HASVIK, NO","FM-15","ENHK ","V020","350,1,N,0041,1","99999,9,C,N","011265,1,N,1","+0050,1","+0020,1","99999,9","02,5,+00510,1,99,9","04,5,+00750,1,99,9",,,"04,99,1,99,9,99,9,99999,9,99,9,99,9",,"09939,1,99999,9","80,1",,,,"MET064METAR ENHK 291420Z 35008KT 9999 -SHRA FEW017 SCT025 05/02 Q0994;","P01 007503SCOCIG"
"01044099999","2008-09-30T03:20:00","4","70.486675","22.139744","6.4","HASVIK, NO","FM-15","ENHK ","V020","030,1,N,0031,1","22000,1,9,N","011265,1,N,1","+0040,1","+0000,1","99999,9","04,5,+00720,1,99,9",,,,"04,99,1,99,9,99,9,99999,9,99,9,99,9",,"09980,1,99999,9","16,1",,,,"MET064METAR ENHK 300320Z 03006KT 320V060 9999 VCSH SCT024 04/00 Q0998;",
"01044099999","2008-09-30T03:50:00","4","70.486675","22.139744","6.4","HASVIK, NO","FM-15","ENHK ","V020","080,1,N,0026,1","22000,1,9,N","011265,1,N,1","+0040,1","+0010,1","99999,9","04,5,+00750,1,99,9",,,,"04,99,1,99,9,99,9,99999,9,99,9,99,9",,"09980,1,99999,9","16,1",,,,"MET056METAR ENHK 300350Z 08005KT 9999 VCSH SCT025 04/01 Q0998;",
"01044099999","2008-09-30T04:20:00","4","70.486675","22.139744","6.4","HASVIK, NO","FM-15","ENHK ","V020","999,9,V,0005,1","99999,9,C,N","011265,1,N,1","+0020,1","+0000,1","99999,9","02,5,+00720,1,99,9","04,5,+01080,1,99,9",,,"04,99,1,99,9,99,9,99999,9,99,9,99,9",,"09980,1,99999,9","80,1",,,,"MET065METAR ENHK 300420Z VRB01KT 9999 -SHRA FEW024 SCT036 02/M00 Q0998;","P01 010803SCOCIG"
"01044099999","2008-09-30T04:50:00","4","70.486675","22.139744","6.4","HASVIK, NO","FM-15","ENHK ","V020","320,1,N,0021,1","99999,9,C,N","011265,1,N,1","+0020,1","+0000,1","99999,9","02,5,+00780,1,99,9","04,5,+01080,1,99,9",,,"04,99,1,99,9,99,9,99999,9,99,9,99,9",,"09980,1,99999,9",,,,,"MET058METAR ENHK 300450Z 32004KT 9999 FEW026 SCT036 02/00 Q0998;","P01 010803SCOCIG"
"01044099999","2008-09-30T12:50:00","4","70.486675","22.139744","6.4","HASVIK, NO","FM-15","ENHK ","V020","100,1,N,0031,1","99999,9,C,N","011265,1,N,1","+0040,1","+0020,1","99999,9","02,5,+00600,1,99,9","04,5,+01050,1,99,9",,,"04,99,1,99,9,99,9,99999,9,99,9,99,9",,"10000,1,99999,9",,,,,"MET058METAR ENHK 301250Z 10006KT 9999 FEW020 SCT035 04/02 Q1000;","P01 010503SCOCIG"
"01044099999","2008-09-30T13:20:00","4","70.486675","22.139744","6.4","HASVIK, NO","FM-15","ENHK ","V020","999,9,V,0015,1","99999,9,C,N","011265,1,N,1","+0040,1","+0010,1","99999,9","02,5,+00600,1,99,9","04,5,+01050,1,99,9",,,"04,99,1,99,9,99,9,99999,9,99,9,99,9",,"10000,1,99999,9",,,,,"MET058METAR ENHK 301320Z VRB03KT 9999 FEW020 SCT035 04/01 Q1000;","P01 010503SCOCIG"
"01044099999","2008-09-30T13:50:00","4","70.486675","22.139744","6.4","HASVIK, NO","FM-15","ENHK ","V020","999,9,V,0005,1","22000,1,9,N","011265,1,N,1","+0040,1","+0010,1","99999,9","04,5,+01050,1,99,9",,,,"04,99,1,99,9,99,9,99999,9,99,9,99,9",,"10000,1,99999,9",,,,,"MET051METAR ENHK 301350Z VRB01KT 9999 SCT035 04/01 Q1000;",
"01044099999","2008-09-30T14:50:00","4","70.486675","22.139744","6.4","HASVIK, NO","FM-15","ENHK ","V020","999,9,V,0005,1","22000,1,9,N","011265,1,N,1","+0030,1","+0000,1","99999,9","04,5,+01050,1,99,9",,,,"04,99,1,99,9,99,9,99999,9,99,9,99,9",,"10000,1,99999,9",,,,,"MET051METAR ENHK 301450Z VRB01KT 9999 SCT035 03/00 Q1000;",
"01044099999","2008-10-01T03:20:00","4","70.486675","22.139744","6.4","HASVIK, NO","FM-15","ENHK ","V020","110,1,N,0051,1","22000,1,9,N","011265,1,N,1","+0040,1","+0000,1","99999,9","02,5,+00780,1,99,9",,,,"02,99,1,99,9,99,9,99999,9,99,9,99,9",,"10010,1,99999,9",,,,,"MET051METAR ENHK 010320Z 11010KT 9999 FEW026 04/00 Q1001;",
"01044099999","2008-10-01T03:50:00","4","70.486675","22.139744","6.4","HASVIK, NO","FM-15","ENHK ","V020","100,1,N,0062,1","22000,1,9,N","011265,1,N,1","+0040,1","+0010,1","99999,9","02,5,+00750,1,99,9",,,,"02,99,1,99,9,99,9,99999,9,99,9,99,9",,"10010,1,99999,9",,,,,"MET051METAR ENHK 010350Z 10012KT 9999 FEW025 04/01 Q1001;",
"01044099999","2008-10-01T04:20:00","4","70.486675","22.139744","6.4","HASVIK, NO","FM-15","ENHK ","V020","100,1,N,0057,1","22000,1,9,N","011265,1,N,1","+0030,1","+0010,1","99999,9","02,5,+00750,1,99,9",,,,"02,99,1,99,9,99,9,99999,9,99,9,99,9",,"10010,1,99999,9",,,,,"MET051METAR ENHK 010420Z 10011KT 9999 FEW025 03/01 Q1001;",
"01044099999","2008-10-01T04:50:00","4","70.486675","22.139744","6.4","HASVIK, NO","FM-15","ENHK ","V020","100,1,N,0051,1","22000,1,9,N","011265,1,N,1","+0030,1","+0000,1","99999,9","02,5,+00780,1,99,9",,,,"02,99,1,99,9,99,9,99999,9,99,9,99,9",,"10010,1,99999,9",,,,,"MET051METAR ENHK 010450Z 10010KT 9999 FEW026 03/00 Q1001;",
"01044099999","2008-10-01T05:50:00","4","70.486675","22.139744","6.4","HASVIK, NO","FM-15","ENHK ","V020","100,1,N,0067,1","22000,1,9,N","011265,1,N,1","+0040,1","+0010,1","99999,9","02,5,+00750,1,99,9",,,,"02,99,1,99,9,99,9,99999,9,99,9,99,9",,"10010,1,99999,9",,,,,"MET051METAR ENHK 010550Z 10013KT 9999 FEW025 04/01 Q1001;",
"01044099999","2008-10-01T11:50:00","4","70.486675","22.139744","6.4","HASVIK, NO","FM-15","ENHK ","V020","110,1,N,0062,1","99999,9,C,Y","009900,1,N,1","+0060,1","+0000,1","99999,9",,,,,,,"10020,1,99999,9",,,,,"MET046METAR ENHK 011150Z 11012KT CAVOK 06/M00 Q1002;",
"01044099999","2008-10-01T12:20:00","4","70.486675","22.139744","6.4","HASVIK, NO","FM-15","ENHK ","V020","110,1,N,0062,1","99999,9,C,Y","009900,1,N,1","+0050,1","-0010,1","99999,9",,,,,,,"10020,1,99999,9",,,,,"MET046METAR ENHK 011220Z 11012KT CAVOK 05/M01 Q1002;",
"01044099999","2008-10-01T12:50:00","4","70.486675","22.139744","6.4","HASVIK, NO","FM-15","ENHK ","V020","100,1,N,0062,1","99999,9,C,Y","009900,1,N,1","+0050,1","-0010,1","99999,9",,,,,,,"10020,1,99999,9",,,,,"MET046METAR ENHK 011250Z 10012KT CAVOK 05/M01 Q1002;",
"01044099999","2008-10-01T13:20:00","4","70.486675","22.139744","6.4","HASVIK, NO","FM-15","ENHK ","V020","100,1,N,0051,1","99999,9,C,Y","009900,1,N,1","+0050,1","+0000,1","99999,9",,,,,,,"10020,1,99999,9",,,,,"MET046METAR ENHK 011320Z 10010KT CAVOK 05/M00 Q1002;",
"01044099999","2008-10-01T13:50:00","4","70.486675","22.139744","6.4","HASVIK, NO","FM-15","ENHK ","V020","100,1,N,0051,1","99999,9,C,Y","009900,1,N,1","+0050,1","+0000,1","99999,9",,,,,,,"10020,1,99999,9",,,,,"MET046METAR ENHK 011350Z 10010KT CAVOK 05/M00 Q1002;",
"01044099999","2008-10-01T14:20:00","4","70.486675","22.139744","6.4","HASVIK, NO","FM-15","ENHK ","V020","100,1,N,0067,1","99999,9,C,Y","009900,1,N,1","+0050,1","+0000,1","99999,9",,,,,,,"10020,1,99999,9",,,,,"MET045METAR ENHK 011420Z 10013KT CAVOK 05/00 Q1002;",
"01044099999","2008-10-02T03:20:00","4","70.486675","22.139744","6.4","HASVIK, NO","FM-15","ENHK ","V020","080,1,N,0036,1","99999,9,9,Y","011265,1,N,1","+0040,1","+0000,1","99999,9",,,,,,,"10020,1,99999,9",,,,,"MET051METAR ENHK 020320Z 08007KT 9999 CAVOK 04/M00 Q1002;",
"01044099999","2008-10-02T03:50:00","4","70.486675","22.139744","6.4","HASVIK, NO","FM-15","ENHK ","V020","090,1,N,0036,1","99999,9,C,Y","009900,1,N,1","+0040,1","+0000,1","99999,9",,,,,,,"10020,1,99999,9",,,,,"MET046METAR ENHK 020350Z 09007KT CAVOK 04/M00 Q1002;",
"01044099999","2008-10-02T04:20:00","4","70.486675","22.139744","6.4","HASVIK, NO","FM-15","ENHK ","V020","080,1,N,0046,1","99999,9,C,Y","009900,1,N,1","+0040,1","+0000,1","99999,9",,,,,,,"10020,1,99999,9",,,,,"MET045METAR ENHK 020420Z 08009KT CAVOK 04/00 Q1002;",
"01044099999","2008-10-02T04:50:00","4","70.486675","22.139744","6.4","HASVIK, NO","FM-15","ENHK ","V020","080,1,N,0051,1","99999,9,C,Y","009900,1,N,1","+0040,1","+0000,1","99999,9",,,,,,,"10020,1,99999,9",,,,,"MET046METAR ENHK 020450Z 08010KT CAVOK 04/M00 Q1002;",
"01044099999","2008-10-02T05:20:00","4","70.486675","22.139744","6.4","HASVIK, NO","FM-15","ENHK ","V020","080,1,N,0046,1","99999,9,C,Y","009900,1,N,1","+0040,1","+0000,1","99999,9",,,,,,,"10020,1,99999,9",,,,,"MET046METAR ENHK 020520Z 08009KT CAVOK 04/M00 Q1002;",
"01044099999","2008-10-02T06:20:00","4","70.486675","22.139744","6.4","HASVIK, NO","FM-15","ENHK ","V020","060,1,N,0041,1","99999,9,C,Y","009900,1,N,1","+0040,1","+0000,1","99999,9",,,,,,,"10031,1,99999,9",,,,,"MET046METAR ENHK 020620Z 06008KT CAVOK 04/M00 Q1003;",
"01044099999","2008-10-02T12:20:00","4","70.486675","22.139744","6.4","HASVIK, NO","FM-15","ENHK ","V020","100,1,N,0046,1","99999,9,C,Y","009900,1,N,1","+0060,1","+0000,1","99999,9",,,,,,,"10031,1,99999,9",,,,,"MET046METAR ENHK 021220Z 10009KT CAVOK 06/M00 Q1003;",
"01044099999","2008-10-03T03:20:00","4","70.486675","22.139744","6.4","HASVIK, NO","FM-15","ENHK ","V020","280,1,N,0015,1","00810,1,C,N","011265,1,N,1","+0030,1","+0020,1","99999,9","02,5,+00450,1,99,9","07,5,+00810,1,99,9",,,"07,99,1,99,9,99,9,99999,9,99,9,99,9",,"10031,1,99999,9","80,1",,,,"MET064METAR ENHK 030320Z 28003KT 9999 -SHRA FEW015 BKN027 03/02 Q1003;",
"01044099999","2008-10-03T03:50:00","4","70.486675","22.139744","6.4","HASVIK, NO","FM-15","ENHK ","V020","280,1,N,0015,1","00780,1,C,N","011265,1,N,1","+0030,1","+0010,1","99999,9","02,5,+00450,1,99,9","07,5,+00780,1,99,9",,,"07,99,1,99,9,99,9,99999,9,99,9,99,9",,"10031,1,99999,9","80,1",,,,"MET064METAR ENHK 030350Z 28003KT 9999 -SHRA FEW015 BKN026 03/01 Q1003;",
"01044099999","2008-10-03T04:20:00","4","70.486675","22.139744","6.4","HASVIK, NO","FM-15","ENHK ","V020","999,9,V,0010,1","00810,1,C,N","011265,1,N,1","+0020,1","+0000,1","99999,9","02,5,+00450,1,99,9","07,5,+00810,1,99,9",,,"07,99,1,99,9,99,9,99999,9,99,9,99,9",,"10031,1,99999,9","80,1",,,,"MET064METAR ENHK 030420Z VRB02KT 9999 -SHRA FEW015 BKN027 02/00 Q1003;",
"01044099999","2008-10-03T04:50:00","4","70.486675","22.139744","6.4","HASVIK, NO","FM-15","ENHK ","V020","999,9,V,0010,1","01230,1,C,N","011265,1,N,1","+0020,1","+0010,1","99999,9","04,5,+00840,1,99,9","07,5,+01230,1,99,9",,,"07,99,1,99,9,99,9,99999,9,99,9,99,9",,"10031,1,99999,9","80,1",,,,"MET064METAR ENHK 030450Z VRB02KT 9999 -SHRA SCT028 BKN041 02/01 Q1003;",
"01044099999","2008-10-03T05:20:00","4","70.486675","22.139744","6.4","HASVIK, NO","FM-15","ENHK ","V020","999,9,V,0010,1","01290,1,C,N","011265,1,N,1","+0020,1","+0010,1","99999,9","04,5,+00840,1,99,9","07,5,+01290,1,99,9",,,"07,99,1,99,9,99,9,99999,9,99,9,99,9",,"10031,1,99999,9",,,,,"MET063METAR ENHK 030520Z VRB02KT 9999 SCT028 BKN043 02/01 Q1003 RERA;",
"01044099999","2008-10-03T12:20:00","4","70.486675","22.139744","6.4","HASVIK, NO","FM-15","ENHK ","V020","300,1,N,0087,1","22000,1,9,N","011265,1,N,1","+0050,1","+0010,1","99999,9","04,5,+00750,1,99,9",,,,"04,99,1,99,9,99,9,99999,9,99,9,99,9",,"10041,1,99999,9",,,,,"MET051METAR ENHK 031220Z 30017KT 9999 SCT025 05/01 Q1004;",
"01044099999","2008-10-03T12:50:00","4","70.486675","22.139744","6.4","HASVIK, NO","FM-15","ENHK ","V020","300,1,N,0077,1","22000,1,9,N","011265,1,N,1","+0040,1","+0010,1","99999,9","04,5,+00900,1,99,9",,,,"04,99,1,99,9,99,9,99999,9,99,9,99,9",,"10041,1,99999,9",,,,,"MET051METAR ENHK 031250Z 30015KT 9999 SCT030 04/01 Q1004;",
"01044099999","2008-10-03T13:20:00","4","70.486675","22.139744","6.4","HASVIK, NO","FM-15","ENHK ","V020","280,1,N,0062,1","22000,1,9,N","011265,1,N,1","+0050,1","+0010,1","99999,9","04,5,+00900,1,99,9",,,,"04,99,1,99,9,99,9,99999,9,99,9,99,9",,"10041,1,99999,9",,,,,"MET051METAR ENHK 031320Z 28012KT 9999 SCT030 05/01 Q1004;",
"01044099999","2008-10-03T14:50:00","4","70.486675","22.139744","6.4","HASVIK, NO","FM-15","ENHK ","V020","999,9,N,0062,1","01050,1,C,N","011265,1,N,1","+0050,1","+0010,1","99999,9","02,5,+00750,1,99,9","07,5,+01050,1,99,9",,,"07,99,1,99,9,99,9,99999,9,99,9,99,9",,"10041,1,99999,9","16,1",,,,"MET063METAR ENHK 031450Z 27112KT 9999 VCSH FEW025 BKN035 05/01 Q1004;",
"01044099999","2008-10-05T11:50:00","4","70.486675","22.139744","6.4","HASVIK, NO","FM-15","ENHK ","V020","110,1,N,0098,1","99999,9,C,N","011265,1,N,1","+0060,1","+0020,1","99999,9","02,5,+01050,1,99,9","04,5,+03000,1,99,9",,,"04,99,1,99,9,99,9,99999,9,99,9,99,9",,"10000,1,99999,9",,,,,"MET058METAR ENHK 051150Z 11019KT 9999 FEW035 SCT100 06/02 Q1000;","P01 030003SCOCIG"
"01044099999","2008-10-05T12:20:00","4","70.486675","22.139744","6.4","HASVIK, NO","FM-15","ENHK ","V020","110,1,N,0103,1","99999,9,C,N","011265,1,N,1","+0060,1","+0020,1","99999,9","02,5,+01050,1,99,9","04,5,+03000,1,99,9",,,"04,99,1,99,9,99,9,99999,9,99,9,99,9",,"09990,1,99999,9",,,,,"MET058METAR ENHK 051220Z 11020KT 9999 FEW035 SCT100 06/02 Q0999;","P01 030003SCOCIG"
"01044099999","2008-10-05T12:50:00","4","70.486675","22.139744","6.4","HASVIK, NO","FM-15","ENHK ","V020","120,1,N,0103,1","99999,9,C,Y","009900,1,N,1","+0060,1","+0030,1","99999,9",,,,,,,"09990,1,99999,9",,,,,"MET045METAR ENHK 051250Z 12020KT CAVOK 06/03 Q0999;",
"01044099999","2008-10-05T13:20:00","4","70.486675","22.139744","6.4","HASVIK, NO","FM-15","ENHK ","V020","120,1,N,0093,1","99999,9,C,Y","009900,1,N,1","+0070,1","+0020,1","99999,9",,,,,,,"09990,1,99999,9",,,,,"MET045METAR ENHK 051320Z 12018KT CAVOK 07/02 Q0999;",
"01044099999","2008-10-05T13:50:00","4","70.486675","22.139744","6.4","HASVIK, NO","FM-15","ENHK ","V020","130,1,N,0087,1","99999,9,C,Y","009900,1,N,1","+0070,1","+0020,1","99999,9",,,,,,,"09990,1,99999,9",,,,,"MET045METAR ENHK 051350Z 13017KT CAVOK 07/02 Q0999;",
"01044099999","2008-10-05T14:20:00","4","70.486675","22.139744","6.4","HASVIK, NO","FM-15","ENHK ","V020","120,1,N,0098,1","99999,9,C,Y","009900,1,N,1","+0070,1","+0010,1","99999,9",,,,,,,"09990,1,99999,9",,,,,"MET045METAR ENHK 051420Z 12019KT CAVOK 07/01 Q0999;",
"01044099999","2008-10-06T03:20:00","4","70.486675","22.139744","6.4","HASVIK, NO","FM-15","ENHK ","V020","110,1,N,0123,1","01080,1,C,N","011265,1,N,1","+0060,1","+0030,1","99999,9","04,5,+00690,1,99,9","07,5,+01080,1,99,9",,,"07,99,1,99,9,99,9,99999,9,99,9,99,9",,"09929,1,99999,9","80,1",,,,"MET064METAR ENHK 060320Z 11024KT 9999 -SHRA SCT023 BKN036 06/03 Q0993;",
"01044099999","2008-10-06T03:50:00","4","70.486675","22.139744","6.4","HASVIK, NO","FM-15","ENHK ","V020","100,1,N,0103,1","00690,1,C,N","011265,1,N,1","+0060,1","+0030,1","99999,9","02,5,+00540,1,99,9","04,5,+00690,1,99,9","07,5,+01080,1,99,9",,"07,99,1,99,9,99,9,99999,9,99,9,99,9",,"09929,1,99999,9","80,1",,,,"MET071METAR ENHK 060350Z 10020KT 9999 -SHRA FEW018 SCT023 BKN036 06/03 Q0993;",
"01044099999","2008-10-06T04:20:00","4","70.486675","22.139744","6.4","HASVIK, NO","FM-15","ENHK ","V020","110,1,N,0123,1","00690,1,C,N","011265,1,N,1","+0060,1","+0040,1","99999,9","02,5,+00540,1,99,9","07,5,+00690,1,99,9",,,"07,99,1,99,9,99,9,99999,9,99,9,99,9",,"09929,1,99999,9","80,1",,,,"MET064METAR ENHK 060420Z 11024KT 9999 -SHRA FEW018 BKN023 06/04 Q0993;",
"01044099999","2008-10-06T04:50:00","4","70.486675","22.139744","6.4","HASVIK, NO","FM-15","ENHK ","V020","110,1,N,0113,1","00690,1,C,N","011265,1,N,1","+0060,1","+0030,1","99999,9","02,5,+00510,1,99,9","07,5,+00690,1,99,9",,,"07,99,1,99,9,99,9,99999,9,99,9,99,9",,"09919,1,99999,9","80,1",,,,"MET064METAR ENHK 060450Z 11022KT 9999 -SHRA FEW017 BKN023 06/03 Q0992;",
"01044099999","2008-10-06T11:50:00","4","70.486675","22.139744","6.4","HASVIK, NO","FM-15","ENHK ","V020","110,1,N,0082,1","01470,1,C,N","011265,1,N,1","+0060,1","+0030,1","99999,9","04,5,+00870,1,99,9","07,5,+01470,1,99,9",,,"07,99,1,99,9,99,9,99999,9,99,9,99,9",,"09892,1,99999,9","16,1",,,,"MET063METAR ENHK 061150Z 11016KT 9999 VCSH SCT029 BKN049 06/03 Q0989;",
"01044099999","2008-10-06T12:20:00","4","70.486675","22.139744","6.4","HASVIK, NO","FM-15","ENHK ","V020","110,1,N,0082,1","01440,1,C,N","011265,1,N,1","+0070,1","+0030,1","99999,9","04,5,+00960,1,99,9","07,5,+01440,1,99,9",,,"07,99,1,99,9,99,9,99999,9,99,9,99,9",,"09882,1,99999,9","16,1",,,,"MET063METAR ENHK 061220Z 11016KT 9999 VCSH SCT032 BKN048 07/03 Q0988;",
"01044099999","2008-10-06T12:50:00","4","70.486675","22.139744","6.4","HASVIK, NO","FM-15","ENHK ","V020","110,1,N,0093,1","01470,1,C,N","011265,1,N,1","+0070,1","+0040,1","99999,9","02,5,+00960,1,99,9","07,5,+01470,1,99,9",,,"07,99,1,99,9,99,9,99999,9,99,9,99,9",,"09882,1,99999,9",,,,,"MET058METAR ENHK 061250Z 11018KT 9999 FEW032 BKN049 07/04 Q0988;",
"01044099999","2008-10-06T13:20:00","4","70.486675","22.139744","6.4","HASVIK, NO","FM-15","ENHK ","V020","110,1,N,0087,1","99999,9,C,N","011265,1,N,1","+0070,1","+0040,1","99999,9","02,5,+00900,1,99,9","04,5,+01470,1,99,9",,,"04,99,1,99,9,99,9,99999,9,99,9,99,9",,"09882,1,99999,9",,,,,"MET058METAR ENHK 061320Z 11017KT 9999 FEW030 SCT049 07/04 Q0988;","P01 014703SCOCIG"
"01044099999","2008-10-06T13:50:00","4","70.486675","22.139744","6.4","HASVIK, NO","FM-15","ENHK ","V020","110,1,N,0082,1","99999,9,C,N","011265,1,N,1","+0070,1","+0040,1","99999,9","02,5,+00870,1,99,9","04,5,+01440,1,99,9",,,"04,99,1,99,9,99,9,99999,9,99,9,99,9",,"09882,1,99999,9",,,,,"MET058METAR ENHK 061350Z 11016KT 9999 FEW029 SCT048 07/04 Q0988;","P01 014403SCOCIG"
"01044099999","2008-10-07T02:50:00","4","70.486675","22.139744","6.4","HASVIK, NO","FM-15","ENHK ","V020","350,1,N,0036,1","01050,1,C,N","011265,1,N,1","+0060,1","+0030,1","99999,9","07,5,+01050,5,99,9","07,1,+01050,1,99,9",,,"07,99,1,99,9,99,9,99999,9,99,9,99,9",,"09949,1,99999,9",,,,,"MET057METAR ENHK 070250Z 35007KT 9999 FEW23 BKN035 06/03 Q0995;",
"01044099999","2008-10-07T03:50:00","4","70.486675","22.139744","6.4","HASVIK, NO","FM-15","ENHK ","V020","999,9,V,0015,1","00450,1,C,N","011265,1,N,1","+0060,1","+0040,1","99999,9","02,5,+00360,1,99,9","04,5,+00450,1,99,9","07,5,+01050,1,99,9",,"07,99,1,99,9,99,9,99999,9,99,9,99,9",,"09949,1,99999,9","51,1",,,,"MET069METAR ENHK 070350Z VRB03KT 9999 -DZ FEW012 SCT015 BKN035 06/04 Q0995;",
"01044099999","2008-10-07T04:50:00","4","70.486675","22.139744","6.4","HASVIK, NO","FM-15","ENHK ","V020","050,1,N,0057,1","00900,1,C,N","011265,1,N,1","+0060,1","+0030,1","99999,9","04,5,+00480,1,99,9","07,5,+00900,1,99,9",,,"07,99,1,99,9,99,9,99999,9,99,9,99,9",,"09959,1,99999,9","16,1",,,,"MET071METAR ENHK 070450Z 05011KT 360V090 9999 VCSH SCT016 BKN030 06/03 Q0996;",
"01044099999","2008-10-07T05:50:00","4","70.486675","22.139744","6.4","HASVIK, NO","FM-15","ENHK ","V020","050,1,N,0057,1","00450,1,C,N","011265,1,N,1","+0060,1","+0030,1","99999,9","02,5,+00360,1,99,9","07,5,+00450,1,99,9",,,"07,99,1,99,9,99,9,99999,9,99,9,99,9",,"09970,1,99999,9","61,1",,,"0113,1","MET073METAR ENHK 070550Z 05011G22KT 340V080 9999 -RA FEW012 BKN015 06/03 Q0997;",
"01044099999","2008-10-07T07:20:00","4","70.486675","22.139744","6.4","HASVIK, NO","FM-15","ENHK ","V020","040,1,N,0072,1","01500,1,C,N","011265,1,N,1","+0060,1","+0030,1","99999,9","04,5,+00450,1,99,9","07,5,+01500,1,99,9",,,"07,99,1,99,9,99,9,99999,9,99,9,99,9",,"09980,1,99999,9","63,1",,,"0144,1","MET072METAR ENHK 070720Z 04014G28KT 340V070 9999 RA SCT015 BKN050 06/03 Q0998;",
"01044099999","2008-10-07T08:20:00","4","70.486675","22.139744","6.4","HASVIK, NO","FM-15","ENHK ","V020","050,1,N,0077,1","01500,1,C,N","011265,1,N,1","+0060,1","+0030,1","99999,9","04,5,+00480,1,99,9","07,5,+01500,1,99,9",,,"07,99,1,99,9,99,9,99999,9,99,9,99,9",,"09990,1,99999,9","63,1",,,"0129,1","MET072METAR ENHK 070820Z 05015G25KT 010V070 9999 RA SCT016 BKN050 06/03 Q0999;",
"01044099999","2008-10-07T09:20:00","4","70.486675","22.139744","6.4","HASVIK, NO","FM-15","ENHK ","V020","040,1,N,0077,1","01050,1,C,N","011265,1,N,1","+0060,1","+0030,1","99999,9","04,5,+00360,1,99,9","07,5,+01050,1,99,9",,,"07,99,1,99,9,99,9,99999,9,99,9,99,9",,"10010,1,99999,9","63,1",,,"0129,1","MET072METAR ENHK 070920Z 04015G25KT 360V070 9999 RA SCT012 BKN035 06/03 Q1001;",
"01044099999","2008-10-07T10:20:00","4","70.486675","22.139744","6.4","HASVIK, NO","FM-15","ENHK ","V020","040,1,N,0067,1","00750,1,C,N","011265,1,N,1","+0060,1","+0020,1","99999,9","02,5,+00480,1,99,9","04,5,+00750,1,99,9","07,5,+01800,1,99,9",,"07,99,1,99,9,99,9,99999,9,99,9,99,9",,"10020,1,99999,9","61,1",,,"0123,1","MET080METAR ENHK 071020Z 04013G24KT 360V080 9999 -RA FEW016 SCT025 BKN060 06/02 Q1002;",
"01044099999","2008-10-07T12:50:00","4","70.486675","22.139744","6.4","HASVIK, NO","FM-15","ENHK ","V020","340,1,N,0057,1","00600,1,C,N","011265,1,N,1","+0050,1","+0020,1","99999,9","04,5,+00480,1,99,9","07,5,+00600,1,99,9",,,"07,99,1,99,9,99,9,99999,9,99,9,99,9",,"10061,1,99999,9","80,1",,,"0108,1","MET075METAR ENHK 071250Z 34011G21KT 250V090 9999 -SHRA SCT016 BKN020 05/02 Q1006;",
"01044099999","2008-10-07T13:20:00","4","70.486675","22.139744","6.4","HASVIK, NO","FM-15","ENHK ","V020","030,1,N,0046,1","99999,9,C,N","011265,1,N,1","+0060,1","+0020,1","99999,9","02,5,+00480,1,99,9","04,5,+00600,1,99,9",,,"04,99,1,99,9,99,9,99999,9,99,9,99,9",,"10061,1,99999,9","16,1",,,,"MET076METAR ENHK 071320Z 03009KT 310V100 9999 VCSH FEW016 SCT020 06/02 Q1006 RERA;","P01 006003SCOCIG"
"01044099999","2008-10-07T13:50:00","4","70.486675","22.139744","6.4","HASVIK, NO","FM-15","ENHK ","V020","020,1,N,0062,1","00600,1,C,N","011265,1,N,1","+0050,1","+0020,1","99999,9","02,5,+00480,1,99,9","07,5,+00600,1,99,9",,,"07,99,1,99,9,99,9,99999,9,99,9,99,9",,"10071,1,99999,9","80,1",,,,"MET072METAR ENHK 071350Z 02012KT 310V080 9999 -SHRA FEW016 BKN020 05/02 Q1007;",
"01044099999","2008-10-08T03:20:00","4","70.486675","22.139744","6.4","HASVIK, NO","FM-15","ENHK ","V020","999,9,V,0010,1","00750,1,C,N","011265,1,N,1","+0030,1","+0010,1","99999,9","02,5,+00450,1,99,9","07,5,+00750,1,99,9",,,"07,99,1,99,9,99,9,99999,9,99,9,99,9",,"10169,1,99999,9","51,1",,,,"MET062METAR ENHK 080320Z VRB02KT 9999 -DZ FEW015 BKN025 03/01 Q1017;",
"01044099999","2008-10-08T03:50:00","4","70.486675","22.139744","6.4","HASVIK, NO","FM-15","ENHK ","V020","120,1,N,0021,1","99999,9,C,N","011265,1,N,1","+0030,1","+0010,1","99999,9","02,5,+00450,1,99,9","04,5,+00900,1,99,9",,,"04,99,1,99,9,99,9,99999,9,99,9,99,9",,"10169,1,99999,9",,,,,"MET058METAR ENHK 080350Z 12004KT 9999 FEW015 SCT030 03/01 Q1017;","P01 009003SCOCIG"
"01044099999","2008-10-08T04:20:00","4","70.486675","22.139744","6.4","HASVIK, NO","FM-15","ENHK ","V020","350,1,N,0026,1","99999,9,C,N","011265,1,N,1","+0030,1","+0010,1","99999,9","02,5,+00450,1,99,9","04,5,+00900,1,99,9",,,"04,99,1,99,9,99,9,99999,9,99,9,99,9",,"10180,1,99999,9",,,,,"MET058METAR ENHK 080420Z 35005KT 9999 FEW015 SCT030 03/01 Q1018;","P01 009003SCOCIG"
"01044099999","2008-10-08T04:50:00","4","70.486675","22.139744","6.4","HASVIK, NO","FM-15","ENHK ","V020","030,1,N,0026,1","00900,1,C,N","011265,1,N,1","+0040,1","+0010,1","99999,9","02,5,+00450,1,99,9","07,5,+00900,1,99,9",,,"07,99,1,99,9,99,9,99999,9,99,9,99,9",,"10180,1,99999,9","81,1",,,,"MET063METAR ENHK 080450Z 03005KT 9999 SHRA FEW015 BKN030 04/01 Q1018;",
"01044099999","2008-10-08T05:20:00","4","70.486675","22.139744","6.4","HASVIK, NO","FM-15","ENHK ","V020","999,9,V,0010,1","99999,9,C,N","011265,1,N,1","+0030,1","+0000,1","99999,9","02,5,+00450,1,99,9","04,5,+00900,1,99,9",,,"04,99,1,99,9,99,9,99999,9,99,9,99,9",,"10180,1,99999,9",,,,,"MET058METAR ENHK 080520Z VRB02KT 9999 FEW015 SCT030 03/00 Q1018;","P01 009003SCOCIG"
"01044099999","2008-10-08T06:20:00","4","70.486675","22.139744","6.4","HASVIK, NO","FM-15","ENHK ","V020","070,1,N,0021,1","99999,9,C,N","011265,1,N,1","+0040,1","+0010,1","99999,9","02,5,+00450,1,99,9","04,5,+00900,1,99,9",,,"04,99,1,99,9,99,9,99999,9,99,9,99,9",,"10190,1,99999,9",,,,,"MET058METAR ENHK 080620Z 07004KT 9999 FEW015 SCT030 04/01 Q1019;","P01 009003SCOCIG"
"01044099999","2008-10-08T07:20:00","4","70.486675","22.139744","6.4","HASVIK, NO","FM-15","ENHK ","V020","080,1,N,0021,1","99999,9,C,N","011265,1,N,1","+0030,1","+0010,1","99999,9","02,5,+00450,1,99,9","04,5,+00750,1,99,9",,,"04,99,1,99,9,99,9,99999,9,99,9,99,9",,"10190,1,99999,9",,,,,"MET058METAR ENHK 080720Z 08004KT 9999 FEW015 SCT025 03/01 Q1019;","P01 007503SCOCIG"
"01044099999","2008-10-08T07:50:00","4","70.486675","22.139744","6.4","HASVIK, NO","FM-15","ENHK ","V020","999,9,C,0000,1","99999,9,C,N","011265,1,N,1","+0030,1","+0020,1","99999,9","02,5,+00600,1,99,9","04,5,+01500,1,99,9",,,"04,99,1,99,9,99,9,99999,9,99,9,99,9",,"10190,1,99999,9",,,,,"MET058METAR ENHK 080750Z 00000KT 9999 FEW020 SCT050 03/02 Q1019;","P01 015003SCOCIG"
"01044099999","2008-10-08T08:50:00","4","70.486675","22.139744","6.4","HASVIK, NO","FM-15","ENHK ","V020","999,9,V,0005,1","99999,9,C,N","011265,1,N,1","+0050,1","+0010,1","99999,9","02,5,+00600,1,99,9","04,5,+01590,5,99,9",,,"04,99,1,99,9,99,9,99999,9,99,9,99,9",,"10200,1,99999,9",,,,,"MET058METAR ENHK 080850Z VRB01KT 9999 FEW020 SCT053 05/01 Q1020;","P01 015903SCOCIG"
"01044099999","2008-10-08T10:20:00","4","70.486675","22.139744","6.4","HASVIK, NO","FM-15","ENHK ","V020","999,9,C,0000,1","22000,1,9,N","011265,1,N,1","+0060,1","+0010,1","99999,9","02,5,+00750,1,99,9",,,,"02,99,1,99,9,99,9,99999,9,99,9,99,9",,"10200,1,99999,9",,,,,"MET051METAR ENHK 081020Z 00000KT 9999 FEW025 06/01 Q1020;",
"01044099999","2008-10-08T10:50:00","4","70.486675","22.139744","6.4","HASVIK, NO","FM-15","ENHK ","V020","999,9,V,0005,1","22000,1,9,N","011265,1,N,1","+0060,1","+0000,1","99999,9","02,5,+00750,1,99,9",,,,"02,99,1,99,9,99,9,99999,9,99,9,99,9",,"10200,1,99999,9",,,,,"MET052METAR ENHK 081050Z VRB01KT 9999 FEW025 06/M00 Q1020;",
"01044099999","2008-10-08T11:50:00","4","70.486675","22.139744","6.4","HASVIK, NO","FM-15","ENHK ","V020","120,1,N,0036,1","99999,9,C,N","011265,1,N,1","+0050,1","+0010,1","99999,9","02,5,+00750,1,99,9","04,5,+01050,1,99,9",,,"04,99,1,99,9,99,9,99999,9,99,9,99,9",,"10200,1,99999,9",,,,,"MET058METAR ENHK 081150Z 12007KT 9999 FEW025 SCT035 05/01 Q1020;","P01 010503SCOCIG"
"01044099999","2008-10-08T12:20:00","4","70.486675","22.139744","6.4","HASVIK, NO","FM-15","ENHK ","V020","130,1,N,0031,1","99999,9,C,N","011265,1,N,1","+0050,1","+0010,1","99999,9","02,5,+00750,1,99,9","04,5,+01020,1,99,9",,,"04,99,1,99,9,99,9,99999,9,99,9,99,9",,"10200,1,99999,9","16,1",,,,"MET063METAR ENHK 081220Z 13006KT 9999 VCSH FEW025 SCT034 05/01 Q1020;","P01 010203SCOCIG"
"01044099999","2008-10-08T12:50:00","4","70.486675","22.139744","6.4","HASVIK, NO","FM-15","ENHK ","V020","140,1,N,0036,1","22000,1,9,N","011265,1,N,1","+0050,1","+0010,1","99999,9","02,5,+00750,1,99,9",,,,"02,99,1,99,9,99,9,99999,9,99,9,99,9",,"10200,1,99999,9","16,1",,,,"MET056METAR ENHK 081250Z 14007KT 9999 VCSH FEW025 05/01 Q1020;",
"01044099999","2008-10-08T13:20:00","4","70.486675","22.139744","6.4","HASVIK, NO","FM-15","ENHK ","V020","150,1,N,0031,1","22000,1,9,N","011265,1,N,1","+0040,1","+0000,1","99999,9","02,5,+00750,1,99,9",,,,"02,99,1,99,9,99,9,99999,9,99,9,99,9",,"10200,1,99999,9",,,,,"MET051METAR ENHK 081320Z 15006KT 9999 FEW025 04/00 Q1020;",
"01044099999","2008-10-08T13:50:00","4","70.486675","22.139744","6.4","HASVIK, NO","FM-15","ENHK ","V020","130,1,N,0031,1","22000,1,9,N","011265,1,N,1","+0040,1","+0010,1","99999,9","02,5,+01020,1,99,9",,,,"02,99,1,99,9,99,9,99999,9,99,9,99,9",,"10200,1,99999,9",,,,,"MET051METAR ENHK 081350Z 13006KT 9999 FEW034 04/01 Q1020;",
"01044099999","2008-10-09T03:20:00","4","70.486675","22.139744","6.4","HASVIK, NO","FM-15","ENHK ","V020","100,1,N,0057,1","99999,9,C,Y","009900,1,N,1","+0050,1","-0010,1","99999,9",,,,,,,"10119,1,99999,9",,,,,"MET046METAR ENHK 090320Z 10011KT CAVOK 05/M01 Q1012;",
"01044099999","2008-10-09T03:50:00","4","70.486675","22.139744","6.4","HASVIK, NO","FM-15","ENHK ","V020","100,1,N,0062,1","99999,9,C,Y","009900,1,N,1","+0040,1","-0010,1","99999,9",,,,,,,"10108,1,99999,9",,,,,"MET046METAR ENHK 090350Z 10012KT CAVOK 04/M01 Q1011;",
"01044099999","2008-10-09T04:20:00","4","70.486675","22.139744","6.4","HASVIK, NO","FM-15","ENHK ","V020","100,1,N,0062,1","99999,9,C,Y","009900,1,N,1","+0040,1","+0000,1","99999,9",,,,,,,"10108,1,99999,9",,,,,"MET046METAR ENHK 090420Z 10012KT CAVOK 04/M00 Q1011;",
"01044099999","2008-10-09T04:50:00","4","70.486675","22.139744","6.4","HASVIK, NO","FM-15","ENHK ","V020","100,1,N,0072,1","99999,9,C,Y","009900,1,N,1","+0050,1","+0000,1","99999,9",,,,,,,"10108,1,99999,9",,,,,"MET045METAR ENHK 090450Z 10014KT CAVOK 05/00 Q1011;",
"01044099999","2008-10-09T05:20:00","4","70.486675","22.139744","6.4","HASVIK, NO","FM-15","ENHK ","V020","100,1,N,0062,1","99999,9,C,Y","009900,1,N,1","+0050,1","+0000,1","99999,9",,,,,,,"10102,1,99999,9",,,,,"MET045METAR ENHK 090520Z 10012KT CAVOK 05/00 Q1010;",
"01044099999","2008-10-09T12:50:00","4","70.486675","22.139744","6.4","HASVIK, NO","FM-15","ENHK ","V020","100,1,N,0041,1","01350,1,C,N","011265,1,N,1","+0060,1","+0020,1","99999,9","02,5,+00900,1,99,9","07,5,+01350,1,99,9",,,"07,99,1,99,9,99,9,99999,9,99,9,99,9",,"10091,1,99999,9",,,,,"MET058METAR ENHK 091250Z 10008KT 9999 FEW030 BKN045 06/02 Q1009;",
"01044099999","2008-10-09T14:20:00","4","70.486675","22.139744","6.4","HASVIK, NO","FM-15","ENHK ","V020","090,1,N,0031,1","01080,1,C,N","011265,1,N,1","+0060,1","+0010,1","99999,9","02,5,+00750,1,99,9","07,5,+01080,1,99,9",,,"07,99,1,99,9,99,9,99999,9,99,9,99,9",,"10091,1,99999,9","61,1",,,,"MET062METAR ENHK 091420Z 09006KT 9999 -RA FEW025 BKN036 06/01 Q1009;",
"01044099999","2008-10-10T03:20:00","4","70.486675","22.139744","6.4","HASVIK, NO","FM-15","ENHK ","V020","999,9,V,0015,1","01200,1,C,N","011265,1,N,1","+0070,1","+0040,1","99999,9","04,5,+01050,1,99,9","07,5,+01200,1,99,9",,,"07,99,1,99,9,99,9,99999,9,99,9,99,9",,"10061,1,99999,9","16,1",,,,"MET063METAR ENHK 100320Z VRB03KT 9999 VCSH SCT035 BKN040 07/04 Q1006;",
"01044099999","2008-10-10T03:50:00","4","70.486675","22.139744","6.4","HASVIK, NO","FM-15","ENHK ","V020","999,9,V,0010,1","01170,1,C,N","011265,1,N,1","+0060,1","+0040,1","99999,9","04,5,+01050,1,99,9","07,5,+01170,1,99,9",,,"07,99,1,99,9,99,9,99999,9,99,9,99,9",,"10061,1,99999,9",,,,,"MET058METAR ENHK 100350Z VRB02KT 9999 SCT035 BKN039 06/04 Q1006;",
"01044099999","2008-10-10T04:20:00","4","70.486675","22.139744","6.4","HASVIK, NO","FM-15","ENHK ","V020","080,1,N,0026,1","01110,1,C,N","011265,1,N,1","+0070,1","+0040,1","99999,9","07,5,+01110,1,99,9",,,,"07,99,1,99,9,99,9,99999,9,99,9,99,9",,"10061,1,99999,9","80,1",,,,"MET057METAR ENHK 100420Z 08005KT 9999 -SHRA BKN037 07/04 Q1006;",
"01044099999","2008-10-10T04:50:00","4","70.486675","22.139744","6.4","HASVIK, NO","FM-15","ENHK ","V020","140,1,N,0031,1","01110,1,C,N","011265,1,N,1","+0080,1","+0040,1","99999,9","07,5,+01110,1,99,9",,,,"07,99,1,99,9,99,9,99999,9,99,9,99,9",,"10051,1,99999,9","80,1",,,,"MET057METAR ENHK 100450Z 14006KT 9999 -SHRA BKN037 08/04 Q1005;",
"01044099999","2008-10-10T05:20:00","4","70.486675","22.139744","6.4","HASVIK, NO","FM-15","ENHK ","V020","140,1,N,0031,1","01170,1,C,N","011265,1,N,1","+0070,1","+0040,1","99999,9","07,5,+01170,1,99,9",,,,"07,99,1,99,9,99,9,99999,9,99,9,99,9",,"10051,1,99999,9",,,,,"MET056METAR ENHK 100520Z 14006KT 9999 BKN039 07/04 Q1005 RERA;",
"01044099999","2008-10-10T05:50:00","4","70.486675","22.139744","6.4","HASVIK, NO","FM-15","ENHK ","V020","140,1,N,0031,1","01140,1,C,N","011265,1,N,1","+0080,1","+0040,1","99999,9","07,5,+01140,1,99,9",,,,"07,99,1,99,9,99,9,99999,9,99,9,99,9",,"10051,1,99999,9","80,1",,,,"MET057METAR ENHK 100550Z 14006KT 9999 -SHRA BKN038 08/04 Q1005;",
"01044099999","2008-10-10T06:20:00","4","70.486675","22.139744","6.4","HASVIK, NO","FM-15","ENHK ","V020","150,1,N,0031,1","01140,1,C,N","011265,1,N,1","+0080,1","+0040,1","99999,9","07,5,+01140,1,99,9",,,,"07,99,1,99,9,99,9,99999,9,99,9,99,9",,"10051,1,99999,9","80,1",,,,"MET057METAR ENHK 100620Z 15006KT 9999 -SHRA BKN038 08/04 Q1005;",
"01044099999","2008-10-10T06:50:00","4","70.486675","22.139744","6.4","HASVIK, NO","FM-15","ENHK ","V020","150,1,N,0036,1","01110,1,C,N","011265,1,N,1","+0080,1","+0040,1","99999,9","07,5,+01110,1,99,9",,,,"07,99,1,99,9,99,9,99999,9,99,9,99,9",,"10051,1,99999,9","80,1",,,,"MET057METAR ENHK 100650Z 15007KT 9999 -SHRA BKN037 08/04 Q1005;",
"01044099999","2008-10-10T07:20:00","4","70.486675","22.139744","6.4","HASVIK, NO","FM-15","ENHK ","V020","160,1,N,0021,1","01110,1,C,N","011265,1,N,1","+0080,1","+0040,1","99999,9","04,5,+00930,1,99,9","07,5,+01110,1,99,9",,,"07,99,1,99,9,99,9,99999,9,99,9,99,9",,"10051,1,99999,9",,,,,"MET071METAR ENHK 100720Z 16004KT 100V210 9999 SCT031 BKN037 08/04 Q1005 RERA;",
"01044099999","2008-10-10T10:50:00","4","70.486675","22.139744","6.4","HASVIK, NO","FM-15","ENHK ","V020","150,1,N,0021,1","00870,1,C,N","011265,1,N,1","+0080,1","+0050,1","99999,9","07,5,+00870,1,99,9",,,,"07,99,1,99,9,99,9,99999,9,99,9,99,9",,"10041,1,99999,9","16,1",,,,"MET062METAR ENHK 101050Z 15004KT 9999 VCSH BKN029 08/05 Q1004 -RERA;",
"01044099999","2008-10-10T12:20:00","4","70.486675","22.139744","6.4","HASVIK, NO","FM-15","ENHK ","V020","110,1,N,0041,1","00960,1,C,N","011265,1,N,1","+0080,1","+0050,1","99999,9","02,5,+00750,1,99,9","07,5,+00960,1,99,9",,,"07,99,1,99,9,99,9,99999,9,99,9,99,9",,"10041,1,99999,9","61,1",,,,"MET062METAR ENHK 101220Z 11008KT 9999 -RA FEW025 BKN032 08/05 Q1004;",
"01044099999","2008-10-12T11:50:00","4","70.486675","22.139744","6.4","HASVIK, NO","FM-15","ENHK ","V020","130,1,N,0026,1","01320,1,C,N","011265,1,N,1","+0080,1","+0050,1","99999,9","02,5,+01020,1,99,9","07,5,+01320,1,99,9",,,"07,99,1,99,9,99,9,99999,9,99,9,99,9",,"09909,1,99999,9",,,,,"MET058METAR ENHK 121150Z 13005KT 9999 FEW034 BKN044 08/05 Q0991;",
"01044099999","2008-10-12T12:20:00","4","70.486675","22.139744","6.4","HASVIK, NO","FM-15","ENHK ","V020","130,1,N,0026,1","01320,1,C,N","011265,1,N,1","+0080,1","+0050,1","99999,9","07,5,+01320,1,99,9",,,,"07,99,1,99,9,99,9,99999,9,99,9,99,9",,"09909,1,99999,9",,,,,"MET051METAR ENHK 121220Z 13005KT 9999 BKN044 08/05 Q0991;",
"01044099999","2008-10-12T12:50:00","4","70.486675","22.139744","6.4","HASVIK, NO","FM-15","ENHK ","V020","120,1,N,0026,1","01320,1,C,N","011265,1,N,1","+0080,1","+0050,1","99999,9","07,5,+01320,1,99,9",,,,"07,99,1,99,9,99,9,99999,9,99,9,99,9",,"09909,1,99999,9",,,,,"MET051METAR ENHK 121250Z 12005KT 9999 BKN044 08/05 Q0991;",
"01044099999","2008-10-12T13:20:00","4","70.486675","22.139744","6.4","HASVIK, NO","FM-15","ENHK ","V020","160,1,N,0015,1","01320,1,C,N","011265,1,N,1","+0070,1","+0050,1","99999,9","07,5,+01320,1,99,9",,,,"07,99,1,99,9,99,9,99999,9,99,9,99,9",,"09919,1,99999,9",,,,,"MET059METAR ENHK 121320Z 16003KT 120V190 9999 BKN044 07/05 Q0992;",
"01044099999","2008-10-13T03:20:00","4","70.486675","22.139744","6.4","HASVIK, NO","FM-15","ENHK ","V020","999,9,C,0000,1","00720,1,C,N","011265,1,N,1","+0050,1","+0040,1","99999,9","02,5,+00450,1,99,9","04,5,+00720,1,99,9","07,5,+00900,1,99,9",,"07,99,1,99,9,99,9,99999,9,99,9,99,9",,"09970,1,99999,9","61,1",,,,"MET069METAR ENHK 130320Z 00000KT 9999 -RA FEW015 SCT024 BKN030 05/04 Q0997;",
"01044099999","2008-10-13T03:50:00","4","70.486675","22.139744","6.4","HASVIK, NO","FM-15","ENHK ","V020","999,9,V,0005,1","00750,1,C,N","011265,1,N,1","+0050,1","+0040,1","99999,9","02,5,+00450,1,99,9","07,5,+00750,1,99,9",,,"07,99,1,99,9,99,9,99999,9,99,9,99,9",,"09970,1,99999,9","61,1",,,,"MET062METAR ENHK 130350Z VRB01KT 9999 -RA FEW015 BKN025 05/04 Q0997;",
"01044099999","2008-10-13T04:50:00","4","70.486675","22.139744","6.4","HASVIK, NO","FM-15","ENHK ","V020","300,1,N,0015,1","01800,1,C,N","011265,1,N,1","+0050,1","+0030,1","99999,9","02,5,+00900,1,99,9","07,5,+01800,1,99,9",,,"07,99,1,99,9,99,9,99999,9,99,9,99,9",,"09970,1,99999,9","16,1",,,,"MET076METAR ENHK 130450Z 30003KT 190V010 9999 VCSH FEW030 BKN060 05/03 Q0997 RERA;",
"01044099999","2008-10-13T11:50:00","4","70.486675","22.139744","6.4","HASVIK, NO","FM-15","ENHK ","V020","120,1,N,0093,1","02250,5,C,N","011265,1,N,1","+0060,1","+0030,1","99999,9","02,5,+00750,1,99,9","07,5,+02250,5,99,9",,,"07,99,1,99,9,99,9,99999,9,99,9,99,9",,"09990,1,99999,9",,,,,"MET058METAR ENHK 131150Z 12018KT 9999 FEW025 BKN075 06/03 Q0999;",
"01044099999","2008-10-13T12:50:00","4","70.486675","22.139744","6.4","HASVIK, NO","FM-15","ENHK ","V020","120,1,N,0093,1","02250,5,C,N","011265,1,N,1","+0060,1","+0020,1","99999,9","02,5,+00750,1,99,9","07,5,+02250,5,99,9",,,"07,99,1,99,9,99,9,99999,9,99,9,99,9",,"09990,1,99999,9",,,,,"MET058METAR ENHK 131250Z 12018KT 9999 FEW025 BKN075 06/02 Q0999;",
"01044099999","2008-10-13T13:50:00","4","70.486675","22.139744","6.4","HASVIK, NO","FM-15","ENHK ","V020","110,1,N,0098,1","99999,9,C,N","011265,1,N,1","+0050,1","+0020,1","99999,9","02,5,+00750,1,99,9","04,5,+02250,5,99,9",,,"04,99,1,99,9,99,9,99999,9,99,9,99,9",,"09990,1,99999,9",,,,,"MET058METAR ENHK 131350Z 11019KT 9999 FEW025 SCT075 05/02 Q0999;","P01 022503SCOCIG"
"01044099999","2008-10-14T03:20:00","4","70.486675","22.139744","6.4","HASVIK, NO","FM-15","ENHK ","V020","130,1,N,0093,1","02100,1,C,N","011265,1,N,1","+0050,1","+0010,1","99999,9","04,5,+00960,1,99,9","07,5,+02100,1,99,9",,,"07,99,1,99,9,99,9,99999,9,99,9,99,9",,"09949,1,99999,9",,,,,"MET058METAR ENHK 140320Z 13018KT 9999 SCT032 BKN070 05/01 Q0995;",
"01044099999","2008-10-14T03:50:00","4","70.486675","22.139744","6.4","HASVIK, NO","FM-15","ENHK ","V020","130,1,N,0098,1","02100,1,C,N","011265,1,N,1","+0050,1","+0010,1","99999,9","04,5,+01050,1,99,9","07,5,+02100,1,99,9",,,"07,99,1,99,9,99,9,99999,9,99,9,99,9",,"09939,1,99999,9",,,,,"MET058METAR ENHK 140350Z 13019KT 9999 SCT035 BKN070 05/01 Q0994;",
"01044099999","2008-10-14T04:20:00","4","70.486675","22.139744","6.4","HASVIK, NO","FM-15","ENHK ","V020","110,1,N,0087,1","01080,1,C,N","011265,1,N,1","+0060,1","+0010,1","99999,9","02,5,+00750,1,99,9","04,5,+01080,1,99,9","07,5,+02100,1,99,9",,"07,99,1,99,9,99,9,99999,9,99,9,99,9",,"09939,1,99999,9","61,1",,,,"MET069METAR ENHK 140420Z 11017KT 9999 -RA FEW025 SCT036 BKN070 06/01 Q0994;",
"01044099999","2008-10-14T04:50:00","4","70.486675","22.139744","6.4","HASVIK, NO","FM-15","ENHK ","V020","110,1,N,0098,1","00900,1,C,N","011265,1,N,1","+0050,1","+0010,1","99999,9","02,5,+00600,1,99,9","04,5,+00900,1,99,9","07,5,+01110,1,99,9",,"07,99,1,99,9,99,9,99999,9,99,9,99,9",,"09939,1,99999,9",,,,,"MET065METAR ENHK 140450Z 11019KT 9999 FEW020 SCT030 BKN037 05/01 Q0994;",
"01044099999","2008-10-14T12:20:00","4","70.486675","22.139744","6.4","HASVIK, NO","FM-15","ENHK ","V020","120,1,N,0093,1","02250,5,C,N","011265,1,N,1","+0060,1","+0030,1","99999,9","02,5,+01020,1,99,9","07,5,+02250,5,99,9",,,"07,99,1,99,9,99,9,99999,9,99,9,99,9",,"09929,1,99999,9",,,,,"MET058METAR ENHK 141220Z 12018KT 9999 FEW034 BKN075 06/03 Q0993;",
"01044099999","2008-10-14T12:50:00","4","70.486675","22.139744","6.4","HASVIK, NO","FM-15","ENHK ","V020","120,1,N,0093,1","02220,5,C,N","011265,1,N,1","+0060,1","+0020,1","99999,9","02,5,+01020,1,99,9","07,5,+02220,5,99,9",,,"07,99,1,99,9,99,9,99999,9,99,9,99,9",,"09929,1,99999,9","80,1",,,,"MET064METAR ENHK 141250Z 12018KT 9999 -SHRA FEW034 BKN074 06/02 Q0993;",
"01044099999","2008-10-14T13:20:00","4","70.486675","22.139744","6.4","HASVIK, NO","FM-15","ENHK ","V020","130,1,N,0098,1","02220,5,C,N","011265,1,N,1","+0060,1","+0010,1","99999,9","02,5,+01020,1,99,9","07,5,+02220,5,99,9",,,"07,99,1,99,9,99,9,99999,9,99,9,99,9",,"09929,1,99999,9","16,1",,,,"MET063METAR ENHK 141320Z 13019KT 9999 VCSH FEW034 BKN074 06/01 Q0993;",
"01044099999","2008-10-14T14:20:00","4","70.486675","22.139744","6.4","HASVIK, NO","FM-15","ENHK ","V020","130,1,N,0082,1","02190,5,C,N","011265,1,N,1","+0060,1","+0020,1","99999,9","02,5,+00990,1,99,9","07,5,+02190,5,99,9",,,"07,99,1,99,9,99,9,99999,9,99,9,99,9",,"09929,1,99999,9",,,,,"MET058METAR ENHK 141420Z 13016KT 9999 FEW033 BKN073 06/02 Q0993;",
"01044099999","2008-10-14T14:50:00","4","70.486675","22.139744","6.4","HASVIK, NO","FM-15","ENHK ","V020","140,1,N,0082,1","02190,5,C,N","011265,1,N,1","+0060,1","+0010,1","99999,9","02,5,+01020,1,99,9","07,5,+02190,5,99,9",,,"07,99,1,99,9,99,9,99999,9,99,9,99,9",,"09929,1,99999,9",,,,,"MET058METAR ENHK 141450Z 14016KT 9999 FEW034 BKN073 06/01 Q0993;",
"01044099999","2008-10-15T03:20:00","4","70.486675","22.139744","6.4","HASVIK, NO","FM-15","ENHK ","V020","090,1,N,0031,1","01650,5,C,N","011265,1,N,1","+0050,1","+0020,1","99999,9","04,5,+01050,1,99,9","07,5,+01650,5,99,9",,,"07,99,1,99,9,99,9,99999,9,99,9,99,9",,"09949,1,99999,9",,,,,"MET058METAR ENHK 150320Z 09006KT 9999 SCT035 BKN055 05/02 Q0995;",
"01044099999","2008-10-15T03:50:00","4","70.486675","22.139744","6.4","HASVIK, NO","FM-15","ENHK ","V020","100,1,N,0031,1","01650,5,C,N","011265,1,N,1","+0050,1","+0020,1","99999,9","04,5,+01050,1,99,9","07,5,+01650,5,99,9",,,"07,99,1,99,9,99,9,99999,9,99,9,99,9",,"09949,1,99999,9","61,1",,,,"MET062METAR ENHK 150350Z 10006KT 9999 -RA SCT035 BKN055 05/02 Q0995;",
"01044099999","2008-10-15T04:20:00","4","70.486675","22.139744","6.4","HASVIK, NO","FM-15","ENHK ","V020","090,1,N,0031,1","01650,5,C,N","011265,1,N,1","+0050,1","+0020,1","99999,9","04,5,+01050,1,99,9","07,5,+01650,5,99,9",,,"07,99,1,99,9,99,9,99999,9,99,9,99,9",,"09949,1,99999,9",,,,,"MET058METAR ENHK 150420Z 09006KT 9999 SCT035 BKN055 05/02 Q0995;",
"01044099999","2008-10-15T04:50:00","4","70.486675","22.139744","6.4","HASVIK, NO","FM-15","ENHK ","V020","090,1,N,0026,1","01650,5,C,N","011265,1,N,1","+0050,1","+0020,1","99999,9","04,5,+01050,1,99,9","07,5,+01650,5,99,9",,,"07,99,1,99,9,99,9,99999,9,99,9,99,9",,"09949,1,99999,9",,,,,"MET058METAR ENHK 150450Z 09005KT 9999 SCT035 BKN055 05/02 Q0995;",
"01044099999","2008-10-15T06:50:00","4","70.486675","22.139744","6.4","HASVIK, NO","FM-15","ENHK ","V020","999,9,V,0015,1","00900,1,C,N","011265,1,N,1","+0050,1","+0030,1","99999,9","02,5,+00750,1,99,9","07,5,+00900,1,99,9",,,"07,99,1,99,9,99,9,99999,9,99,9,99,9",,"09959,1,99999,9",,,,,"MET058METAR ENHK 150650Z VRB03KT 9999 FEW025 BKN030 05/03 Q0996;",
"01044099999","2008-10-15T10:50:00","4","70.486675","22.139744","6.4","HASVIK, NO","FM-15","ENHK ","V020","250,1,N,0062,1","00750,1,C,N","011265,1,N,1","+0060,1","+0040,1","99999,9","02,5,+00450,1,99,9","04,5,+00750,1,99,9","07,5,+01110,1,99,9",,"07,99,1,99,9,99,9,99999,9,99,9,99,9",,"09980,1,99999,9","61,1",,,,"MET070METAR ENHK 151050Z 250012KT 9999 -RA FEW015 SCT025 BKN037 06/04 Q0998;",
"01044099999","2008-10-15T12:50:00","4","70.486675","22.139744","6.4","HASVIK, NO","FM-15","ENHK ","V020","270,1,N,0051,1","00600,1,C,N","011265,1,N,1","+0060,1","+0030,1","99999,9","02,5,+00300,1,99,9","04,5,+00600,1,99,9","07,5,+00900,1,99,9",,"07,99,1,99,9,99,9,99999,9,99,9,99,9",,"09990,1,99999,9","61,1",,,,"MET069METAR ENHK 151250Z 27010KT 9999 -RA FEW010 SCT020 BKN030 06/03 Q0999;",
"01044099999","2008-10-15T13:50:00","4","70.486675","22.139744","6.4","HASVIK, NO","FM-15","ENHK ","V020","260,1,N,0057,1","00600,1,C,N","011265,1,N,1","+0060,1","+0030,1","99999,9","02,5,+00450,1,99,9","04,5,+00600,1,99,9","07,5,+00900,1,99,9",,"07,99,1,99,9,99,9,99999,9,99,9,99,9",,"09990,1,99999,9","16,1",,,,"MET076METAR ENHK 151350Z 26011KT 9999 VCSH FEW015 SCT020 BKN030 06/03 Q0999 -RERA;",
"01044099999","2008-10-16T03:20:00","4","70.486675","22.139744","6.4","HASVIK, NO","FM-15","ENHK ","V020","090,1,N,0031,1","22000,1,9,N","011265,1,N,1","+0030,1","+0020,1","99999,9","02,5,+00750,1,99,9",,,,"02,99,1,99,9,99,9,99999,9,99,9,99,9",,"10000,1,99999,9",,,,,"MET057METAR ENHK 160320Z 09006KT 9999 FEW025 03/02 Q1000 -RERA;",
"01044099999","2008-10-16T03:50:00","4","70.486675","22.139744","6.4","HASVIK, NO","FM-15","ENHK ","V020","090,1,N,0021,1","22000,1,9,N","011265,1,N,1","+0030,1","+0020,1","99999,9","02,5,+00750,1,99,9",,,,"02,99,1,99,9,99,9,99999,9,99,9,99,9",,"10000,1,99999,9",,,,,"MET051METAR ENHK 160350Z 09004KT 9999 FEW025 03/02 Q1000;",
"01044099999","2008-10-16T04:20:00","4","70.486675","22.139744","6.4","HASVIK, NO","FM-15","ENHK ","V020","100,1,N,0036,1","22000,1,9,N","011265,1,N,1","+0030,1","+0020,1","99999,9","02,5,+00750,1,99,9",,,,"02,99,1,99,9,99,9,99999,9,99,9,99,9",,"10000,1,99999,9",,,,,"MET051METAR ENHK 160420Z 10007KT 9999 FEW025 03/02 Q1000;",
"01044099999","2008-10-16T04:50:00","4","70.486675","22.139744","6.4","HASVIK, NO","FM-15","ENHK ","V020","090,1,N,0041,1","22000,1,9,N","011265,1,N,1","+0030,1","+0020,1","99999,9","02,5,+00600,1,99,9",,,,"02,99,1,99,9,99,9,99999,9,99,9,99,9",,"10000,1,99999,9",,,,,"MET051METAR ENHK 160450Z 09008KT 9999 FEW020 03/02 Q1000;",
"01044099999","2008-10-16T05:20:00","4","70.486675","22.139744","6.4","HASVIK, NO","FM-15","ENHK ","V020","100,1,N,0062,1","22000,1,9,N","011265,1,N,1","+0040,1","+0020,1","99999,9","02,5,+00600,1,99,9",,,,"02,99,1,99,9,99,9,99999,9,99,9,99,9",,"10000,1,99999,9",,,,,"MET051METAR ENHK 160520Z 10012KT 9999 FEW020 04/02 Q1000;",
"01044099999","2008-10-16T05:50:00","4","70.486675","22.139744","6.4","HASVIK, NO","FM-15","ENHK ","V020","100,1,N,0077,1","22000,1,9,N","011265,1,N,1","+0040,1","+0020,1","99999,9","02,5,+00600,1,99,9",,,,"02,99,1,99,9,99,9,99999,9,99,9,99,9",,"10000,1,99999,9",,,,,"MET051METAR ENHK 160550Z 10015KT 9999 FEW020 04/02 Q1000;",
"01044099999","2008-10-16T06:50:00","4","70.486675","22.139744","6.4","HASVIK, NO","FM-15","ENHK ","V020","110,1,N,0093,1","22000,1,9,N","011265,1,N,1","+0040,1","+0020,1","99999,9","02,5,+00600,1,99,9",,,,"02,99,1,99,9,99,9,99999,9,99,9,99,9",,"10000,1,99999,9",,,,,"MET051METAR ENHK 160650Z 11018KT 9999 FEW020 04/02 Q1000;",
"01044099999","2008-10-16T12:20:00","4","70.486675","22.139744","6.4","HASVIK, NO","FM-15","ENHK ","V020","100,1,N,0041,1","99999,9,C,Y","009900,1,N,1","+0060,1","+0010,1","99999,9",,,,,,,"09980,1,99999,9",,,,,"MET045METAR ENHK 161220Z 10008KT CAVOK 06/01 Q0998;",
"01044099999","2008-10-16T12:50:00","4","70.486675","22.139744","6.4","HASVIK, NO","FM-15","ENHK ","V020","100,1,N,0051,1","99999,9,C,Y","009900,1,N,1","+0050,1","+0010,1","99999,9",,,,,,,"09980,1,99999,9",,,,,"MET045METAR ENHK 161250Z 10010KT CAVOK 05/01 Q0998;",
"01044099999","2008-10-16T13:20:00","4","70.486675","22.139744","6.4","HASVIK, NO","FM-15","ENHK ","V020","100,1,N,0051,1","99999,9,C,Y","009900,1,N,1","+0050,1","+0010,1","99999,9",,,,,,,"09980,1,99999,9",,,,,"MET045METAR ENHK 161320Z 10010KT CAVOK 05/01 Q0998;",
"01044099999","2008-10-16T14:20:00","4","70.486675","22.139744","6.4","HASVIK, NO","FM-15","ENHK ","V020","100,1,N,0057,1","99999,9,C,Y","009900,1,N,1","+0050,1","+0010,1","99999,9",,,,,,,"09980,1,99999,9",,,,,"MET045METAR ENHK 161420Z 10011KT CAVOK 05/01 Q0998;",
"01044099999","2008-10-16T14:50:00","4","70.486675","22.139744","6.4","HASVIK, NO","FM-15","ENHK ","V020","100,1,N,0051,1","99999,9,C,Y","009900,1,N,1","+0050,1","+0010,1","99999,9",,,,,,,"09980,1,99999,9",,,,,"MET045METAR ENHK 161450Z 10010KT CAVOK 05/01 Q0998;",
"01044099999","2008-10-17T03:20:00","4","70.486675","22.139744","6.4","HASVIK, NO","FM-15","ENHK ","V020","100,1,N,0046,1","99999,9,C,Y","009900,1,N,1","+0030,1","+0000,1","99999,9",,,,,,,"09980,1,99999,9",,,,,"MET045METAR ENHK 170320Z 10009KT CAVOK 03/00 Q0998;",
"01044099999","2008-10-17T03:50:00","4","70.486675","22.139744","6.4","HASVIK, NO","FM-15","ENHK ","V020","090,1,N,0046,1","99999,9,C,Y","009900,1,N,1","+0030,1","+0000,1","99999,9",,,,,,,"09980,1,99999,9",,,,,"MET045METAR ENHK 170350Z 09009KT CAVOK 03/00 Q0998;",
"01044099999","2008-10-17T04:20:00","4","70.486675","22.139744","6.4","HASVIK, NO","FM-15","ENHK ","V020","090,1,N,0057,1","99999,9,C,Y","009900,1,N,1","+0030,1","+0010,1","99999,9",,,,,,,"09980,1,99999,9",,,,,"MET045METAR ENHK 170420Z 09011KT CAVOK 03/01 Q0998;",
"01044099999","2008-10-17T04:50:00","4","70.486675","22.139744","6.4","HASVIK, NO","FM-15","ENHK ","V020","100,1,N,0057,1","99999,9,C,Y","009900,1,N,1","+0030,1","+0000,1","99999,9",,,,,,,"09980,1,99999,9",,,,,"MET045METAR ENHK 170450Z 10011KT CAVOK 03/00 Q0998;",
"01044099999","2008-10-17T05:50:00","4","70.486675","22.139744","6.4","HASVIK, NO","FM-15","ENHK ","V020","100,1,N,0051,1","99999,9,C,Y","009900,1,N,1","+0040,1","+0000,1","99999,9",,,,,,,"09980,1,99999,9",,,,,"MET045METAR ENHK 170550Z 10010KT CAVOK 04/00 Q0998;",
"01044099999","2008-10-17T06:50:00","4","70.486675","22.139744","6.4","HASVIK, NO","FM-15","ENHK ","V020","100,1,N,0057,1","99999,9,C,Y","009900,1,N,1","+0040,1","+0000,1","99999,9",,,,,,,"09980,1,99999,9",,,,,"MET045METAR ENHK 170650Z 10011KT CAVOK 04/00 Q0998;",
"01044099999","2008-10-17T07:50:00","4","70.486675","22.139744","6.4","HASVIK, NO","FM-15","ENHK ","V020","100,1,N,0051,1","99999,9,C,Y","009900,1,N,1","+0040,1","+0000,1","99999,9",,,,,,,"09980,1,99999,9",,,,,"MET045METAR ENHK 170750Z 10010KT CAVOK 04/00 Q0998;",
"01044099999","2008-10-17T08:50:00","4","70.486675","22.139744","6.4","HASVIK, NO","FM-15","ENHK ","V020","110,1,N,0057,1","99999,9,C,Y","009900,1,N,1","+0050,1","+0010,1","99999,9",,,,,,,"09980,1,99999,9",,,,,"MET045METAR ENHK 170850Z 11011KT CAVOK 05/01 Q0998;",
"01044099999","2008-10-17T10:50:00","4","70.486675","22.139744","6.4","HASVIK, NO","FM-15","ENHK ","V020","120,1,N,0057,1","99999,9,C,Y","009900,1,N,1","+0050,1","+0000,1","99999,9",,,,,,,"09990,1,99999,9",,,,,"MET045METAR ENHK 171050Z 12011KT CAVOK 05/00 Q0999;",
"01044099999","2008-10-17T11:20:00","4","70.486675","22.139744","6.4","HASVIK, NO","FM-15","ENHK ","V020","120,1,N,0062,1","99999,9,C,Y","009900,1,N,1","+0050,1","+0010,1","99999,9",,,,,,,"09980,1,99999,9",,,,,"MET045METAR ENHK 171120Z 12012KT CAVOK 05/01 Q0998;",
"01044099999","2008-10-17T11:50:00","4","70.486675","22.139744","6.4","HASVIK, NO","FM-15","ENHK ","V020","110,1,N,0062,1","99999,9,C,Y","009900,1,N,1","+0050,1","+0010,1","99999,9",,,,,,,"09990,1,99999,9",,,,,"MET045METAR ENHK 171150Z 11012KT CAVOK 05/01 Q0999;",
"01044099999","2008-10-17T12:20:00","4","70.486675","22.139744","6.4","HASVIK, NO","FM-15","ENHK ","V020","110,1,N,0057,1","99999,9,C,Y","009900,1,N,1","+0050,1","+0010,1","99999,9",,,,,,,"09990,1,99999,9",,,,,"MET045METAR ENHK 171220Z 11011KT CAVOK 05/01 Q0999;",
"01044099999","2008-10-17T12:50:00","4","70.486675","22.139744","6.4","HASVIK, NO","FM-15","ENHK ","V020","110,1,N,0051,1","99999,9,C,Y","009900,1,N,1","+0050,1","+0000,1","99999,9",,,,,,,"09990,1,99999,9",,,,,"MET045METAR ENHK 171250Z 11010KT CAVOK 05/00 Q0999;",
"01044099999","2008-10-17T13:20:00","4","70.486675","22.139744","6.4","HASVIK, NO","FM-15","ENHK ","V020","120,1,N,0051,1","99999,9,C,Y","009900,1,N,1","+0050,1","+0010,1","99999,9",,,,,,,"09990,1,99999,9",,,,,"MET045METAR ENHK 171320Z 12010KT CAVOK 05/01 Q0999;",
"01044099999","2008-10-17T13:50:00","4","70.486675","22.139744","6.4","HASVIK, NO","FM-15","ENHK ","V020","110,1,N,0051,1","99999,9,C,Y","009900,1,N,1","+0050,1","+0000,1","99999,9",,,,,,,"09990,1,99999,9",,,,,"MET045METAR ENHK 171350Z 11010KT CAVOK 05/00 Q0999;",
"01044099999","2008-10-17T14:20:00","4","70.486675","22.139744","6.4","HASVIK, NO","FM-15","ENHK ","V020","100,1,N,0051,1","99999,9,C,Y","009900,1,N,1","+0040,1","+0000,1","99999,9",,,,,,,"09990,1,99999,9",,,,,"MET045METAR ENHK 171420Z 10010KT CAVOK 04/00 Q0999;",
"01044099999","2008-10-19T11:50:00","4","70.486675","22.139744","6.4","HASVIK, NO","FM-15","ENHK ","V020","270,1,N,0051,1","00660,1,C,N","011265,1,N,1","+0040,1","+0020,1","99999,9","02,5,+00450,1,99,9","07,5,+00660,1,99,9",,,"07,99,1,99,9,99,9,99999,9,99,9,99,9",,"09909,1,99999,9","80,1",,,,"MET064METAR ENHK 191150Z 27010KT 9999 -SHRA FEW015 BKN022 04/02 Q0991;",
"01044099999","2008-10-19T12:20:00","4","70.486675","22.139744","6.4","HASVIK, NO","FM-15","ENHK ","V020","270,1,N,0051,1","00690,1,C,N","011265,1,N,1","+0040,1","+0030,1","99999,9","02,5,+00420,1,99,9","07,5,+00690,1,99,9",,,"07,99,1,99,9,99,9,99999,9,99,9,99,9",,"09909,1,99999,9","80,1",,,,"MET064METAR ENHK 191220Z 27010KT 9999 -SHRA FEW014 BKN023 04/03 Q0991;",
"01044099999","2008-10-19T12:50:00","4","70.486675","22.139744","6.4","HASVIK, NO","FM-15","ENHK ","V020","260,1,N,0036,1","00660,1,C,N","011265,1,N,1","+0040,1","+0020,1","99999,9","02,5,+00480,1,99,9","07,5,+00660,1,99,9",,,"07,99,1,99,9,99,9,99999,9,99,9,99,9",,"09909,1,99999,9","16,1",,,,"MET068METAR ENHK 191250Z 26007KT 9999 VCSH FEW016 BKN022 04/02 Q0991 RERA;",
"01044099999","2008-10-19T13:20:00","4","70.486675","22.139744","6.4","HASVIK, NO","FM-15","ENHK ","V020","260,1,N,0041,1","00690,1,C,N","011265,1,N,1","+0050,1","+0020,1","99999,9","02,5,+00480,1,99,9","07,5,+00690,1,99,9",,,"07,99,1,99,9,99,9,99999,9,99,9,99,9",,"09909,1,99999,9",,,,,"MET058METAR ENHK 191320Z 26008KT 9999 FEW016 BKN023 05/02 Q0991;",
"01044099999","2008-10-20T03:50:00","4","70.486675","22.139744","6.4","HASVIK, NO","FM-15","ENHK ","V020","250,1,N,0036,1","02550,5,C,N","011265,1,N,1","+0070,1","+0010,1","99999,9","02,5,+01020,1,99,9","07,5,+02550,5,99,9",,,"07,99,1,99,9,99,9,99999,9,99,9,99,9",,"09919,1,99999,9",,,,,"MET058METAR ENHK 200350Z 25007KT 9999 FEW034 BKN085 07/01 Q0992;",
"01044099999","2008-10-20T04:50:00","4","70.486675","22.139744","6.4","HASVIK, NO","FM-15","ENHK ","V020","240,1,N,0026,1","01800,1,C,N","011265,1,N,1","+0070,1","+0010,1","99999,9","02,5,+00900,1,99,9","04,5,+01800,1,99,9","07,5,+03000,1,99,9",,"07,99,1,99,9,99,9,99999,9,99,9,99,9",,"09919,1,99999,9",,,,,"MET065METAR ENHK 200450Z 24005KT 9999 FEW030 SCT060 BKN100 07/01 Q0992;",
"01044099999","2008-10-20T08:20:00","4","70.486675","22.139744","6.4","HASVIK, NO","FM-15","ENHK ","V020","150,1,N,0051,1","02400,1,C,N","011265,1,N,1","+0070,1","+0010,1","99999,9","02,5,+01320,1,99,9","07,5,+02400,1,99,9",,,"07,99,1,99,9,99,9,99999,9,99,9,99,9",,"09909,1,99999,9",,,,,"MET058METAR ENHK 200820Z 15010KT 9999 FEW044 BKN080 07/01 Q0991;",
"01044099999","2008-10-20T11:20:00","4","70.486675","22.139744","6.4","HASVIK, NO","FM-15","ENHK ","V020","100,1,N,0051,1","99999,9,C,Y","009900,1,N,1","+0070,1","+0020,1","99999,9",,,,,,,"09882,1,99999,9",,,,,"MET045METAR ENHK 201120Z 10010KT CAVOK 07/02 Q0988;",
"01044099999","2008-10-20T11:50:00","4","70.486675","22.139744","6.4","HASVIK, NO","FM-15","ENHK ","V020","100,1,N,0062,1","99999,9,C,Y","009900,1,N,1","+0070,1","+0010,1","99999,9",,,,,,,"09882,1,99999,9",,,,,"MET045METAR ENHK 201150Z 10012KT CAVOK 07/01 Q0988;",
"01044099999","2008-10-20T12:20:00","4","70.486675","22.139744","6.4","HASVIK, NO","FM-15","ENHK ","V020","100,1,N,0077,1","99999,9,C,Y","009900,1,N,1","+0060,1","+0010,1","99999,9",,,,,,,"09871,1,99999,9",,,,,"MET045METAR ENHK 201220Z 10015KT CAVOK 06/01 Q0987;",
"01044099999","2008-10-20T12:50:00","4","70.486675","22.139744","6.4","HASVIK, NO","FM-15","ENHK ","V020","100,1,N,0072,1","99999,9,C,Y","009900,1,N,1","+0060,1","+0010,1","99999,9",,,,,,,"09871,1,99999,9",,,,,"MET045METAR ENHK 201250Z 10014KT CAVOK 06/01 Q0987;",
"01044099999","2008-10-20T13:20:00","4","70.486675","22.139744","6.4","HASVIK, NO","FM-15","ENHK ","V020","090,1,N,0077,1","99999,9,C,Y","009900,1,N,1","+0060,1","+0000,1","99999,9",,,,,,,"09871,1,99999,9",,,,,"MET046METAR ENHK 201320Z 09015KT CAVOK 06/M00 Q0987;",
"01044099999","2008-10-21T03:20:00","4","70.486675","22.139744","6.4","HASVIK, NO","FM-15","ENHK ","V020","150,1,N,0062,1","99999,9,C,Y","009900,1,N,1","+0080,1","+0030,1","99999,9",,,,,,,"09699,1,99999,9",,,,,"MET045METAR ENHK 210320Z 15012KT CAVOK 08/03 Q0970;",
"01044099999","2008-10-21T03:50:00","4","70.486675","22.139744","6.4","HASVIK, NO","FM-15","ENHK ","V020","140,1,N,0062,1","99999,9,C,Y","009900,1,N,1","+0080,1","+0030,1","99999,9",,,,,,,"09699,1,99999,9",,,,,"MET045METAR ENHK 210350Z 14012KT CAVOK 08/03 Q0970;",
"01044099999","2008-10-21T04:20:00","4","70.486675","22.139744","6.4","HASVIK, NO","FM-15","ENHK ","V020","140,1,N,0051,1","02160,5,C,N","011265,1,N,1","+0080,1","+0040,1","99999,9","02,5,+00900,1,99,9","07,5,+02160,5,99,9",,,"07,99,1,99,9,99,9,99999,9,99,9,99,9",,"09699,1,99999,9","61,1",,,,"MET062METAR ENHK 210420Z 14010KT 9999 -RA FEW030 BKN072 08/04 Q0970;",
"01044099999","2008-10-21T04:50:00","4","70.486675","22.139744","6.4","HASVIK, NO","FM-15","ENHK ","V020","100,1,N,0036,1","01860,5,C,N","011265,1,N,1","+0070,1","+0030,1","99999,9","02,5,+01110,1,99,9","07,5,+01860,5,99,9",,,"07,99,1,99,9,99,9,99999,9,99,9,99,9",,"09688,1,99999,9",,,,,"MET072METAR ENHK 210450Z 10007KT 070V150 9999 FEW037 BKN062 07/03 Q0969 -RERA;",
"01044099999","2008-10-21T05:20:00","4","70.486675","22.139744","6.4","HASVIK, NO","FM-15","ENHK ","V020","080,1,N,0036,1","01260,1,C,N","011265,1,N,1","+0070,1","+0030,1","99999,9","02,5,+00750,1,99,9","04,5,+01260,1,99,9","07,5,+01860,5,99,9",,"07,99,1,99,9,99,9,99999,9,99,9,99,9",,"09688,1,99999,9",,,,,"MET065METAR ENHK 210520Z 08007KT 9999 FEW025 SCT042 BKN062 07/03 Q0969;",
"01044099999","2008-10-21T12:50:00","4","70.486675","22.139744","6.4","HASVIK, NO","FM-15","ENHK ","V020","270,1,N,0067,1","01320,1,C,N","011265,1,N,1","+0090,1","+0050,1","99999,9","02,5,+00690,1,99,9","07,5,+01320,1,99,9",,,"07,99,1,99,9,99,9,99999,9,99,9,99,9",,"09729,1,99999,9","80,1",,,,"MET064METAR ENHK 211250Z 27013KT 9999 -SHRA FEW023 BKN044 09/05 Q0973;",
"01044099999","2008-10-21T16:50:00","4","70.486675","22.139744","6.4","HASVIK, NO","FM-15","ENHK ","V020","280,1,N,0041,1","01290,1,C,N","011265,1,N,1","+0100,1","+0050,1","99999,9","02,5,+00780,1,99,9","07,5,+01290,1,99,9",,,"07,99,1,99,9,99,9,99999,9,99,9,99,9",,"09749,1,99999,9","16,1",,,,"MET063METAR ENHK 211650Z 28008KT 9999 VCSH FEW026 BKN043 10/05 Q0975;",
"01044099999","2008-10-21T17:20:00","4","70.486675","22.139744","6.4","HASVIK, NO","FM-15","ENHK ","V020","270,1,N,0057,1","01290,1,C,N","011265,1,N,1","+0100,1","+0040,1","99999,9","02,5,+00780,1,99,9","07,5,+01290,1,99,9",,,"07,99,1,99,9,99,9,99999,9,99,9,99,9",,"09749,1,99999,9",,,,,"MET058METAR ENHK 211720Z 27011KT 9999 FEW026 BKN043 10/04 Q0975;",
"01044099999","2008-10-22T03:20:00","4","70.486675","22.139744","6.4","HASVIK, NO","FM-15","ENHK ","V020","260,1,N,0082,1","01500,1,C,N","011265,1,N,1","+0080,1","+0030,1","99999,9","02,5,+00900,1,99,9","07,5,+01500,1,99,9",,,"07,99,1,99,9,99,9,99999,9,99,9,99,9",,"09800,1,99999,9",,,,,"MET058METAR ENHK 220320Z 26016KT 9999 FEW030 BKN050 08/03 Q0980;",
"01044099999","2008-10-22T03:50:00","4","70.486675","22.139744","6.4","HASVIK, NO","FM-15","ENHK ","V020","260,1,N,0072,1","99999,9,C,N","011265,1,N,1","+0070,1","+0030,1","99999,9","02,5,+00900,1,99,9","04,5,+01500,1,99,9",,,"04,99,1,99,9,99,9,99999,9,99,9,99,9",,"09800,1,99999,9",,,,,"MET058METAR ENHK 220350Z 26014KT 9999 FEW030 SCT050 07/03 Q0980;","P01 015003SCOCIG"
"01044099999","2008-10-22T04:50:00","4","70.486675","22.139744","6.4","HASVIK, NO","FM-15","ENHK ","V020","260,1,N,0072,1","99999,9,C,N","011265,1,N,1","+0080,1","+0030,1","99999,9","02,5,+00750,1,99,9","04,5,+01350,1,99,9",,,"04,99,1,99,9,99,9,99999,9,99,9,99,9",,"09800,1,99999,9",,,,,"MET064METAR ENHK 220450Z 26014KT 9999 FEW025 SCT045 08/03 Q0980 -RERA;","P01 013503SCOCIG"
"01044099999","2008-10-22T12:50:00","4","70.486675","22.139744","6.4","HASVIK, NO","FM-15","ENHK ","V020","210,1,N,0015,1","99999,9,C,Y","009900,1,N,1","+0070,1","+0030,1","99999,9",,,,,,,"09831,1,99999,9",,,,,"MET045METAR ENHK 221250Z 21003KT CAVOK 07/03 Q0983;",
"01044099999","2008-10-22T13:20:00","4","70.486675","22.139744","6.4","HASVIK, NO","FM-15","ENHK ","V020","190,1,N,0021,1","99999,9,C,Y","009900,1,N,1","+0060,1","+0030,1","99999,9",,,,,,,"09831,1,99999,9",,,,,"MET045METAR ENHK 221320Z 19004KT CAVOK 06/03 Q0983;",
"01044099999","2008-10-23T03:20:00","4","70.486675","22.139744","6.4","HASVIK, NO","FM-15","ENHK ","V020","110,1,N,0046,1","01770,5,C,N","011265,1,N,1","+0050,1","+0020,1","99999,9","04,5,+01170,1,99,9","07,5,+01770,5,99,9",,,"07,99,1,99,9,99,9,99999,9,99,9,99,9",,"09871,1,99999,9","16,1",,,,"MET063METAR ENHK 230320Z 11009KT 9999 VCSH SCT039 BKN059 05/02 Q0987;",
"01044099999","2008-10-23T03:50:00","4","70.486675","22.139744","6.4","HASVIK, NO","FM-15","ENHK ","V020","120,1,N,0041,1","99999,9,C,N","011265,1,N,1","+0050,1","+0020,1","99999,9","02,5,+01200,1,99,9","04,5,+01770,5,99,9",,,"04,99,1,99,9,99,9,99999,9,99,9,99,9",,"09871,1,99999,9","80,1",,,,"MET064METAR ENHK 230350Z 12008KT 9999 -SHRA FEW040 SCT059 05/02 Q0987;","P01 017703SCOCIG"
"01044099999","2008-10-23T04:20:00","4","70.486675","22.139744","6.4","HASVIK, NO","FM-15","ENHK ","V020","120,1,N,0031,1","99999,9,C,N","011265,1,N,1","+0050,1","+0020,1","99999,9","02,5,+01170,1,99,9","04,5,+01770,5,99,9",,,"04,99,1,99,9,99,9,99999,9,99,9,99,9",,"09871,1,99999,9","80,1",,,,"MET065METAR ENHK 230420Z 12006KKT 9999 -SHRA FEW039 SCT059 05/02 Q0987;","P01 017703SCOCIG"
"01044099999","2008-10-23T04:50:00","4","70.486675","22.139744","6.4","HASVIK, NO","FM-15","ENHK ","V020","120,1,N,0026,1","99999,9,C,N","011265,1,N,1","+0050,1","+0020,1","99999,9","02,5,+01170,1,99,9","04,5,+01800,1,99,9",,,"04,99,1,99,9,99,9,99999,9,99,9,99,9",,"09882,1,99999,9",,,,,"MET063METAR ENHK 230450Z 12005KT 9999 FEW039 SCT060 05/02 Q0988 RERA;","P01 018003SCOCIG"
"01044099999","2008-10-23T05:20:00","4","70.486675","22.139744","6.4","HASVIK, NO","FM-15","ENHK ","V020","100,1,N,0041,1","99999,9,C,N","011265,1,N,1","+0060,1","+0020,1","99999,9","02,5,+01140,1,99,9","04,5,+01800,1,99,9",,,"04,99,1,99,9,99,9,99999,9,99,9,99,9",,,,,,,"MET057METAR ENHK 230520Z 10008KT 9999 FEW038 SCT060 06/02 Q988;","P01 018003SCOCIG"
"01044099999","2008-10-23T05:50:00","4","70.486675","22.139744","6.4","HASVIK, NO","FM-15","ENHK ","V020","120,1,N,0041,1","99999,9,C,N","011265,1,N,1","+0060,1","+0020,1","99999,9","02,5,+01140,1,99,9","04,5,+01830,5,99,9",,,"04,99,1,99,9,99,9,99999,9,99,9,99,9",,"09882,1,99999,9","16,1",,,,"MET063METAR ENHK 230550Z 12008KT 9999 VCSH FEW038 SCT061 06/02 Q0988;","P01 018303SCOCIG"
"01044099999","2008-10-23T06:20:00","4","70.486675","22.139744","6.4","HASVIK, NO","FM-15","ENHK ","V020","100,1,N,0041,1","99999,9,C,N","011265,1,N,1","+0060,1","+0020,1","99999,9","02,5,+01170,1,99,9","04,5,+01770,5,99,9",,,"04,99,1,99,9,99,9,99999,9,99,9,99,9",,"09882,1,99999,9",,,,,"MET058METAR ENHK 230620Z 10008KT 9999 FEW039 SCT059 06/02 Q0988;","P01 017703SCOCIG"
"01044099999","2008-10-23T06:50:00","4","70.486675","22.139744","6.4","HASVIK, NO","FM-15","ENHK ","V020","100,1,N,0041,1","99999,9,C,N","011265,1,N,1","+0060,1","+0020,1","99999,9","02,5,+01110,1,99,9","04,5,+01710,5,99,9",,,"04,99,1,99,9,99,9,99999,9,99,9,99,9",,"09882,1,99999,9",,,,,"MET058METAR ENHK 230650Z 10008KT 9999 FEW037 SCT057 06/02 Q0988;","P01 017103SCOCIG"
"01044099999","2008-10-23T12:50:00","4","70.486675","22.139744","6.4","HASVIK, NO","FM-15","ENHK ","V020","120,1,N,0021,1","00870,1,C,N","011265,1,N,1","+0060,1","+9999,9","99999,9","02,5,+00510,1,99,9","07,5,+00870,1,99,9",,,"07,99,1,99,9,99,9,99999,9,99,9,99,9",,,"61,1",,,,"MET071METAR ENHK 231250Z 12004KT 090V150 9999 -RA FEW017 BKN029 06/-- Q09993;","Q01+099903APOA  "
"01044099999","2008-10-23T13:50:00","4","70.486675","22.139744","6.4","HASVIK, NO","FM-15","ENHK ","V020","100,1,N,0026,1","00900,1,C,N","011265,1,N,1","+0050,1","+9999,9","99999,9","04,5,+00600,1,99,9","07,5,+00900,1,99,9",,,"07,99,1,99,9,99,9,99999,9,99,9,99,9",,"09939,1,99999,9","61,1",,,,"MET062METAR ENHK 231350Z 10005KT 9999 -RA SCT020 BKN030 05/-- Q0994;",
"01044099999","2008-10-23T14:50:00","4","70.486675","22.139744","6.4","HASVIK, NO","FM-15","ENHK ","V020","100,1,N,0041,1","00600,1,C,N","011265,1,N,1","+0050,1","+9999,9","99999,9","02,5,+00450,1,99,9","04,5,+00600,1,99,9","07,5,+00900,1,99,9",,"07,99,1,99,9,99,9,99999,9,99,9,99,9",,"09949,1,99999,9","61,1",,,,"MET069METAR ENHK 231450Z 10008KT 9999 -RA FEW015 SCT020 BKN030 05/-- Q0995;",
"01044099999","2008-10-24T03:20:00","4","70.486675","22.139744","6.4","HASVIK, NO","FM-15","ENHK ","V020","110,1,N,0103,1","99999,9,C,Y","009900,1,N,1","+0060,1","+9999,9","99999,9",,,,,,,"09970,1,99999,9",,,,,"MET045METAR ENHK 240320Z 11020KT CAVOK 06/// Q0997;",
"01044099999","2008-10-24T03:50:00","4","70.486675","22.139744","6.4","HASVIK, NO","FM-15","ENHK ","V020","110,1,N,0082,1","99999,9,C,Y","009900,1,N,1","+0070,1","+9999,9","99999,9",,,,,,,"09959,1,99999,9",,,,,"MET045METAR ENHK 240350Z 11016KT CAVOK 07/// Q0996;",
"01044099999","2008-10-24T04:20:00","4","70.486675","22.139744","6.4","HASVIK, NO","FM-15","ENHK ","V020","120,1,N,0093,1","99999,9,C,Y","009900,1,N,1","+0080,1","+9999,9","99999,9",,,,,,,"09959,1,99999,9",,,,,"MET045METAR ENHK 240420Z 12018KT CAVOK 08/// Q0996;",
"01044099999","2008-10-24T04:50:00","4","70.486675","22.139744","6.4","HASVIK, NO","FM-15","ENHK ","V020","120,1,N,0093,1","99999,9,C,Y","009900,1,N,1","+0070,1","+9999,9","99999,9",,,,,,,"09959,1,99999,9",,,,,"MET045METAR ENHK 240450Z 12018KT CAVOK 07/// Q0996;",
"01044099999","2008-10-24T12:50:00","4","70.486675","22.139744","6.4","HASVIK, NO","FM-15","ENHK ","V020","160,1,N,0051,1","02550,5,C,N","011265,1,N,1","+0080,1","+9999,9","99999,9","02,5,+00900,1,99,9","07,5,+02550,5,99,9",,,"07,99,1,99,9,99,9,99999,9,99,9,99,9",,"09929,1,99999,9",,,,,"MET058METAR ENHK 241250Z 16010KT 9999 FEW030 BKN085 08/-- Q0993;",
"01044099999","2008-10-24T13:20:00","4","70.486675","22.139744","6.4","HASVIK, NO","FM-15","ENHK ","V020","170,1,N,0046,1","01050,1,C,N","011265,1,N,1","+0080,1","+9999,9","99999,9","02,5,+00750,1,99,9","04,5,+01050,1,99,9","07,5,+02100,1,99,9",,"07,99,1,99,9,99,9,99999,9,99,9,99,9",,"09939,1,99999,9","61,1",,,,"MET077METAR ENHK 241320Z 17009KT 130V200 9999 -RA FEW025 SCT035 BKN070 08/-- Q0994;",
"01044099999","2008-10-24T13:50:00","4","70.486675","22.139744","6.4","HASVIK, NO","FM-15","ENHK ","V020","200,1,N,0036,1","01050,1,C,N","011265,1,N,1","+0080,1","+9999,9","99999,9","02,5,+00750,1,99,9","04,5,+01050,1,99,9","07,5,+01800,1,99,9",,"07,99,1,99,9,99,9,99999,9,99,9,99,9",,"09939,1,99999,9","51,1","61,1",,,"MET079METAR ENHK 241350Z 20007KT 150V270 9999 -RADZ FEW025 SCT035 BKN060 08/-- Q0994;",
"01044099999","2008-10-24T14:50:00","4","70.486675","22.139744","6.4","HASVIK, NO","FM-15","ENHK ","V020","160,1,N,0031,1","01050,1,C,N","011265,1,N,1","+0070,1","+9999,9","99999,9","02,5,+00750,1,99,9","07,5,+01050,1,99,9",,,"07,99,1,99,9,99,9,99999,9,99,9,99,9",,"09939,1,99999,9","51,1","61,1",,,"MET072METAR ENHK 241450Z 16006KT 120V200 9999 -RADZ FEW025 BKN035 07/-- Q0994;",
"01044099999","2008-10-26T12:50:00","4","70.486675","22.139744","6.4","HASVIK, NO","FM-15","ENHK ","V020","130,1,N,0072,1","01350,1,C,N","011265,1,N,1","+0060,1","+9999,9","99999,9","02,5,+00900,1,99,9","04,5,+01350,1,99,9","07,5,+02250,5,99,9",,"07,99,1,99,9,99,9,99999,9,99,9,99,9",,"09749,1,99999,9",,,,,"MET065METAR ENHK 261250Z 13014KT 9999 FEW030 SCT045 BKN075 06/-- Q0975;",
"01044099999","2008-10-26T13:20:00","4","70.486675","22.139744","6.4","HASVIK, NO","FM-15","ENHK ","V020","110,1,N,0077,1","01950,5,C,N","011265,1,N,1","+0060,1","+9999,9","99999,9","02,5,+00900,1,99,9","07,5,+01950,5,99,9",,,"07,99,1,99,9,99,9,99999,9,99,9,99,9",,"09749,1,99999,9",,,,,"MET058METAR ENHK 261320Z 11015KT 9999 FEW030 BKN065 06/-- Q0975;",
"01044099999","2008-10-26T13:50:00","4","70.486675","22.139744","6.4","HASVIK, NO","FM-15","ENHK ","V020","100,1,N,0057,1","00900,1,C,N","011265,1,N,1","+0060,1","+9999,9","99999,9","02,5,+00600,1,99,9","04,5,+00900,1,99,9","07,5,+01500,1,99,9",,"07,99,1,99,9,99,9,99999,9,99,9,99,9",,"09749,1,99999,9",,,,,"MET065METAR ENHK 261350Z 10011KT 9999 FEW020 SCT030 BKN050 06/-- Q0975;",
"01044099999","2008-10-26T14:20:00","4","70.486675","22.139744","6.4","HASVIK, NO","FM-15","ENHK ","V020","090,1,N,0041,1","00900,1,C,N","011265,1,N,1","+0060,1","+9999,9","99999,9","02,5,+00600,1,99,9","04,5,+00900,1,99,9","07,5,+01500,1,99,9",,"07,99,1,99,9,99,9,99999,9,99,9,99,9",,"09749,1,99999,9","61,1",,,,"MET069METAR ENHK 261420Z 09008KT 9999 -RA FEW020 SCT030 BKN050 06/-- Q0975;",
"01044099999","2008-10-26T14:50:00","4","70.486675","22.139744","6.4","HASVIK, NO","FM-15","ENHK ","V020","090,1,N,0031,1","00900,1,C,N","011265,1,N,1","+0050,1","+9999,9","99999,9","02,5,+00600,1,99,9","04,5,+00900,1,99,9","07,5,+01500,1,99,9",,"07,99,1,99,9,99,9,99999,9,99,9,99,9",,"09749,1,99999,9","51,1","61,1",,,"MET071METAR ENHK 261450Z 09006KT 9999 -RADZ FEW020 SCT030 BKN050 05/-- Q0975;",
"01044099999","2008-10-26T15:20:00","4","70.486675","22.139744","6.4","HASVIK, NO","FM-15","ENHK ","V020","080,1,N,0026,1","00900,1,C,N","011265,1,N,1","+0050,1","+9999,9","99999,9","02,5,+00600,1,99,9","04,5,+00900,1,99,9","07,5,+01500,1,99,9",,"07,99,1,99,9,99,9,99999,9,99,9,99,9",,"09749,1,99999,9","61,1",,,,"MET069METAR ENHK 261520Z 08005KT 9999 -RA FEW020 SCT030 BKN050 05/-- Q0975;",
"01044099999","2008-10-27T06:20:00","4","70.486675","22.139744","6.4","HASVIK, NO","FM-15","ENHK ","V020","110,1,N,0041,1","99999,9,C,Y","009900,1,N,1","+0060,1","+9999,9","99999,9",,,,,,,"09841,1,99999,9",,,,,"MET045METAR ENHK 270620Z 11008KT CAVOK 06/// Q0984;",
"01044099999","2008-10-27T13:50:00","4","70.486675","22.139744","6.4","HASVIK, NO","FM-15","ENHK ","V020","120,1,N,0129,1","99999,9,C,Y","009900,1,N,1","+0050,1","+9999,9","99999,9",,,,,,,"09831,1,99999,9",,,,,"MET045METAR ENHK 271350Z 12025KT CAVOK 05/-- Q0983;",
"01044099999","2008-10-27T14:20:00","4","70.486675","22.139744","6.4","HASVIK, NO","FM-15","ENHK ","V020","120,1,N,0129,1","99999,9,C,Y","009900,1,N,1","+0050,1","+9999,9","99999,9",,,,,,,"09821,1,99999,9",,,,,"MET045METAR ENHK 271420Z 12025KT CAVOK 05/-- Q0982;",
"01044099999","2008-10-27T15:20:00","4","70.486675","22.139744","6.4","HASVIK, NO","FM-15","ENHK ","V020","110,1,N,0129,1","99999,9,C,Y","009900,1,N,1","+0050,1","+9999,9","99999,9",,,,,,,"09831,1,99999,9",,,,,"MET045METAR ENHK 271520Z 11025KT CAVOK 05/-- Q0983;",
"01044099999","2008-10-27T15:50:00","4","70.486675","22.139744","6.4","HASVIK, NO","FM-15","ENHK ","V020","100,1,N,0108,1","99999,9,C,Y","009900,1,N,1","+0040,1","+9999,9","99999,9",,,,,,,"09831,1,99999,9",,,,,"MET045METAR ENHK 271550Z 10021KT CAVOK 04/-- Q0983;",
"01044099999","2008-10-28T04:20:00","4","70.486675","22.139744","6.4","HASVIK, NO","FM-15","ENHK ","V020","110,1,N,0067,1","22000,1,9,N","011265,1,N,1","+0050,1","+9999,9","99999,9","02,5,+00780,1,99,9",,,,"02,99,1,99,9,99,9,99999,9,99,9,99,9",,"09861,1,99999,9",,,,,"MET051METAR ENHK 280420Z 11013KT 9999 FEW026 05/// Q0986;",
"01044099999","2008-10-28T04:50:00","4","70.486675","22.139744","6.4","HASVIK, NO","FM-15","ENHK ","V020","110,1,N,0067,1","22000,1,9,N","011265,1,N,1","+0040,1","+9999,9","99999,9","02,5,+00810,1,99,9",,,,"02,99,1,99,9,99,9,99999,9,99,9,99,9",,"09861,1,99999,9",,,,,"MET051METAR ENHK 280450Z 11013KT 9999 FEW027 04/// Q0986;",
"01044099999","2008-10-28T05:20:00","4","70.486675","22.139744","6.4","HASVIK, NO","FM-15","ENHK ","V020","110,1,N,0051,1","22000,1,9,N","011265,1,N,1","+0040,1","+9999,9","99999,9","02,5,+00900,1,99,9",,,,"02,99,1,99,9,99,9,99999,9,99,9,99,9",,"09861,1,99999,9",,,,,"MET051METAR ENHK 280520Z 11010KT 9999 FEW030 04/// Q0986;",
"01044099999","2008-10-28T05:50:00","4","70.486675","22.139744","6.4","HASVIK, NO","FM-15","ENHK ","V020","120,1,N,0026,1","22000,1,9,N","011265,1,N,1","+0040,1","+9999,9","99999,9","02,5,+00960,1,99,9",,,,"02,99,1,99,9,99,9,99999,9,99,9,99,9",,"09871,1,99999,9",,,,,"MET051METAR ENHK 280550Z 12005KT 9999 FEW032 04/// Q0987;",
"01044099999","2008-10-28T13:50:00","4","70.486675","22.139744","6.4","HASVIK, NO","FM-15","ENHK ","V020","030,1,N,0067,1","00750,1,C,N","011265,1,N,1","+0050,1","+0010,1","99999,9","02,5,+00450,1,99,9","04,5,+00750,1,99,9","07,5,+01500,1,99,9",,"07,99,1,99,9,99,9,99999,9,99,9,99,9",,"09909,1,99999,9","51,1","61,1",,,"MET079METAR ENHK 281350Z 03013KT 350V070 9999 -RADZ FEW015 SCT025 BKN050 05/01 Q0991;",
"01044099999","2008-10-28T15:20:00","4","70.486675","22.139744","6.4","HASVIK, NO","FM-15","ENHK ","V020","020,1,N,0041,1","00540,1,C,N","011265,1,N,1","+0050,1","+0010,1","99999,9","02,5,+00450,1,99,9","07,5,+00540,1,99,9",,,"07,99,1,99,9,99,9,99999,9,99,9,99,9",,"09909,1,99999,9","61,1",,,,"MET070METAR ENHK 281520Z 02008KT 350V060 9999 -RA FEW015 BKN018 05/01 Q0991;",
"01044099999","2008-10-29T04:20:00","4","70.486675","22.139744","6.4","HASVIK, NO","FM-15","ENHK ","V020","100,1,N,0036,1","02400,1,C,N","011265,1,N,1","+0040,1","-0010,1","99999,9","02,5,+00750,1,99,9","07,5,+02400,1,99,9",,,"07,99,1,99,9,99,9,99999,9,99,9,99,9",,"09959,1,99999,9",,,,,"MET059METAR ENHK 290420Z 10007KT 9999 FEW025 BKN080 04/M01 Q0996;",
"01044099999","2008-10-29T04:50:00","4","70.486675","22.139744","6.4","HASVIK, NO","FM-15","ENHK ","V020","100,1,N,0067,1","01500,1,C,N","011265,1,N,1","+0030,1","-0010,1","99999,9","02,5,+00750,1,99,9","04,5,+01500,1,99,9","07,5,+02400,1,99,9",,"07,99,1,99,9,99,9,99999,9,99,9,99,9",,"09959,1,99999,9",,,,,"MET066METAR ENHK 290450Z 10013KT 9999 FEW025 SCT050 BKN080 03/M01 Q0996;",
"01044099999","2008-10-29T05:20:00","4","70.486675","22.139744","6.4","HASVIK, NO","FM-15","ENHK ","V020","110,1,N,0077,1","01050,1,C,N","011265,1,N,1","+0030,1","+0000,1","99999,9","02,5,+00750,1,99,9","04,5,+01050,1,99,9","07,5,+01500,1,99,9",,"07,99,1,99,9,99,9,99999,9,99,9,99,9",,"09970,1,99999,9",,,,,"MET066METAR ENHK 290520Z 11015KT 9999 FEW025 SCT035 BKN050 03/M00 Q0997;",
"01044099999","2008-10-29T05:50:00","4","70.486675","22.139744","6.4","HASVIK, NO","FM-15","ENHK ","V020","100,1,N,0077,1","01050,1,C,N","011265,1,N,1","+0030,1","-0010,1","99999,9","02,5,+00750,1,99,9","04,5,+01050,1,99,9","07,5,+01500,1,99,9",,"07,99,1,99,9,99,9,99999,9,99,9,99,9",,"09970,1,99999,9",,,,,"MET066METAR ENHK 290550Z 10015KT 9999 FEW025 SCT035 BKN050 03/M01 Q0997;",
"01044099999","2008-10-29T06:20:00","4","70.486675","22.139744","6.4","HASVIK, NO","FM-15","ENHK ","V020","100,1,N,0082,1","01050,1,C,N","011265,1,N,1","+0030,1","-0010,1","99999,9","02,5,+00750,1,99,9","04,5,+01050,1,99,9","07,5,+01500,1,99,9",,"07,99,1,99,9,99,9,99999,9,99,9,99,9",,"09970,1,99999,9",,,,,"MET066METAR ENHK 290620Z 10016KT 9999 FEW025 SCT035 BKN050 03/M01 Q0997;",
"01044099999","2008-10-29T06:50:00","4","70.486675","22.139744","6.4","HASVIK, NO","FM-15","ENHK ","V020","100,1,N,0087,1","01050,1,C,N","011265,1,N,1","+0020,1","-0010,1","99999,9","02,5,+00750,1,99,9","04,5,+01050,1,99,9","07,5,+01500,1,99,9",,"07,99,1,99,9,99,9,99999,9,99,9,99,9",,"09970,1,99999,9",,,,,"MET066METAR ENHK 290650Z 10017KT 9999 FEW025 SCT035 BKN050 02/M01 Q0997;",
"01044099999","2008-10-29T13:50:00","4","70.486675","22.139744","6.4","HASVIK, NO","FM-15","ENHK ","V020","120,1,N,0103,1","01200,1,C,N","011265,1,N,1","+0030,1","-0010,1","99999,9","02,5,+00600,1,99,9","07,5,+01200,1,99,9",,,"07,99,1,99,9,99,9,99999,9,99,9,99,9",,"10000,1,99999,9",,,,,"MET059METAR ENHK 291350Z 12020KT 9999 FEW020 BKN040 03/M01 Q1000;",
"01044099999","2008-10-29T14:50:00","4","70.486675","22.139744","6.4","HASVIK, NO","FM-15","ENHK ","V020","110,1,N,0103,1","01200,1,C,N","011265,1,N,1","+0030,1","+0000,1","99999,9","02,5,+00600,1,99,9","07,5,+01200,1,99,9",,,"07,99,1,99,9,99,9,99999,9,99,9,99,9",,"10000,1,99999,9",,,,,"MET059METAR ENHK 291450Z 11020KT 9999 FEW020 BKN040 03/M00 Q1000;",
"01044099999","2008-10-29T15:20:00","4","70.486675","22.139744","6.4","HASVIK, NO","FM-15","ENHK ","V020","120,1,N,0108,1","01200,1,C,N","011265,1,N,1","+0030,1","+0000,1","99999,9","02,5,+00540,1,99,9","07,5,+01200,1,99,9",,,"07,99,1,99,9,99,9,99999,9,99,9,99,9",,"10000,1,99999,9","16,1",,,,"MET064METAR ENHK 291520Z 12021KT 9999 VCSH FEW018 BKN040 03/M00 Q1000;",
"01044099999","2008-10-30T04:20:00","4","70.486675","22.139744","6.4","HASVIK, NO","FM-15","ENHK ","V020","030,1,N,0057,1","00450,1,9,N","003000,1,N,1","+0020,1","+0000,1","99999,9","09,1,+00450,1,99,9",,,,"09,99,1,99,9,99,9,00025,1,99,9,99,9",,"10020,1,99999,9","81,1",,,,"MET065METAR ENHK 300420Z 03011KT 240V080 3000 SHSNRA VV015 02/00 Q1002;",
"01044099999","2008-10-30T04:50:00","4","70.486675","22.139744","6.4","HASVIK, NO","FM-15","ENHK ","V020","010,1,N,0077,1","00600,1,C,N","011265,1,N,1","+0010,1","-0010,1","99999,9","04,5,+00450,1,99,9","07,5,+00600,1,99,9",,,"07,99,1,99,9,99,9,99999,9,99,9,99,9",,"10020,1,99999,9","16,1",,,"0144,1","MET075METAR ENHK 300450Z 01015G28KT 320V080 9999 VCSH SCT015 BKN020 01/M01 Q1002;",
"01044099999","2008-10-30T05:20:00","4","70.486675","22.139744","6.4","HASVIK, NO","FM-15","ENHK ","V020","020,1,N,0098,1","00600,1,C,N","011265,1,N,1","+0020,1","-0010,1","99999,9","04,5,+00450,1,99,9","07,5,+00600,1,99,9",,,"07,99,1,99,9,99,9,99999,9,99,9,99,9",,"10020,1,99999,9","16,1",,,"0190,1","MET075METAR ENHK 300520Z 02019G37KT 330V060 9999 VCSH SCT015 BKN020 02/M01 Q1002;",
"01044099999","2008-10-30T06:20:00","4","70.486675","22.139744","6.4","HASVIK, NO","FM-15","ENHK ","V020","020,1,N,0087,1","00600,1,C,N","011265,1,N,1","+0010,1","-0010,1","99999,9","02,5,+00450,1,99,9","04,5,+00600,1,99,9","07,5,+00750,1,99,9",,"07,99,1,99,9,99,9,99999,9,99,9,99,9",,"10031,1,99999,9",,,,"0154,1","MET077METAR ENHK 300620Z 02017G30KT 330V060 9999 FEW015 SCT020 BKN025 01/M01 Q1003;",
"01044099999","2008-10-30T06:50:00","4","70.486675","22.139744","6.4","HASVIK, NO","FM-15","ENHK ","V020","350,1,N,0072,1","00450,1,C,N","003000,1,N,1","+0010,1","-0010,1","99999,9","02,5,+00300,1,99,9","04,5,+00450,1,99,9","07,5,+00600,1,99,9",,"07,99,1,99,9,99,9,99999,9,99,9,99,9",,"10031,1,99999,9","85,5",,,"0159,1","MET083METAR ENHK 300650Z 35014G31KT 320V030 3000 -SHSN FEW010 SCT015 BKN020 01/M01 Q1003;",
"01044099999","2008-10-30T07:20:00","4","70.486675","22.139744","6.4","HASVIK, NO","FM-15","ENHK ","V020","350,1,N,0082,1","00600,1,C,N","005000,1,N,1","+0010,1","-0010,1","99999,9","04,5,+00450,1,99,9","07,5,+00600,1,99,9",,,"07,99,1,99,9,99,9,99999,9,99,9,99,9",,"10031,1,99999,9","85,5",,,"0185,1","MET076METAR ENHK 300720Z 35016G36KT 300V050 5000 -SHSN SCT015 BKN020 01/M01 Q1003;",
"01044099999","2008-10-30T07:50:00","4","70.486675","22.139744","6.4","HASVIK, NO","FM-15","ENHK ","V020","340,1,N,0098,1","00600,1,C,N","005000,1,N,1","+0010,1","-0010,1","99999,9","04,5,+00450,1,99,9","07,5,+00600,1,99,9",,,"07,99,1,99,9,99,9,99999,9,99,9,99,9",,"10041,1,99999,9","85,5",,,"0170,1","MET076METAR ENHK 300750Z 34019G33KT 280V070 5000 -SHSN SCT015 BKN020 01/M01 Q1004;",
"01044099999","2008-10-30T14:20:00","4","70.486675","22.139744","6.4","HASVIK, NO","FM-15","ENHK ","V020","070,1,N,0026,1","01950,5,C,N","011265,1,N,1","+0010,1","-0020,1","99999,9","04,5,+00450,1,99,9","07,5,+01950,5,99,9",,,"07,99,1,99,9,99,9,99999,9,99,9,99,9",,"10091,1,99999,9","16,1",,,,"MET072METAR ENHK 301420Z 07005KT 030V120 9999 VCSH SCT015 BKN065 01/M02 Q1009;",
"01044099999","2008-10-31T04:20:00","4","70.486675","22.139744","6.4","HASVIK, NO","FM-15","ENHK ","V020","090,1,N,0041,1","01050,1,C,N","011265,1,N,1","+0000,1","-0010,1","99999,9","04,5,+00750,1,99,9","07,5,+01050,1,99,9",,,"07,99,1,99,9,99,9,99999,9,99,9,99,9",,"10159,1,99999,9",,,,,"MET059METAR ENHK 310420Z 09008KT 9999 SCT025 BKN035 00/M01 Q1016;",
"01044099999","2008-10-31T04:50:00","4","70.486675","22.139744","6.4","HASVIK, NO","FM-15","ENHK ","V020","100,1,N,0031,1","22000,1,9,N","011265,1,N,1","+0010,1","-0030,1","99999,9",,,,,,,"10159,1,99999,9","85,5",,,,"MET059METAR ENHK 310450Z 10006KT 080V160 9999 -SHSN 01/M03 Q1016;",
"01044099999","2008-10-31T05:20:00","4","70.486675","22.139744","6.4","HASVIK, NO","FM-15","ENHK ","V020","090,1,N,0031,1","00600,1,C,N","003000,1,N,1","+0000,1","-0020,1","99999,9","04,5,+00450,1,99,9","07,5,+00600,1,99,9",,,"07,99,1,99,9,99,9,99999,9,99,9,99,9",,"10159,1,99999,9","86,5",,,,"MET073METAR ENHK 310520Z 09006KT 050V120 3000 SHSN SCT015 BKN020 M00/M02 Q1016;",
"01044099999","2008-10-31T05:50:00","4","70.486675","22.139744","6.4","HASVIK, NO","FM-15","ENHK ","V020","999,9,V,0015,1","00300,1,9,N","001000,1,N,1","-0010,1","-0020,1","99999,9","09,1,+00300,1,99,9",,,,"09,99,1,99,9,99,9,00025,1,99,9,99,9",,"10169,1,99999,9","86,5",,,,"MET057METAR ENHK 310550Z VRB03KT 1000 SHSN VV010 M01/M02 Q1017;",
"01044099999","2008-10-31T06:50:00","4","70.486675","22.139744","6.4","HASVIK, NO","FM-15","ENHK ","V020","090,1,N,0031,1","01200,1,C,N","011265,1,N,1","+0000,1","-0020,1","99999,9","02,5,+00750,1,99,9","07,5,+01200,1,99,9",,,"07,99,1,99,9,99,9,99999,9,99,9,99,9",,"10169,1,99999,9",,,,,"MET060METAR ENHK 310650Z 09006KT 9999 FEW025 BKN040 M00/M02 Q1017;",
"01044099999","2008-10-31T13:50:00","4","70.486675","22.139744","6.4","HASVIK, NO","FM-15","ENHK ","V020","150,1,N,0057,1","22000,1,9,N","011265,1,N,1","+0000,1","-0050,1","99999,9","02,5,+00600,1,99,9",,,,"02,99,1,99,9,99,9,99999,9,99,9,99,9",,"10129,1,99999,9",,,,,"MET052METAR ENHK 311350Z 15011KT 9999 FEW020 00/M05 Q1013;",
"01044099999","2008-11-02T13:20:00","4","70.486675","22.139744","6.4","HASVIK, NO","FM-15","ENHK ","V020","270,1,N,0072,1","00750,1,C,N","011265,1,N,1","+0060,1","+0010,1","99999,9","02,5,+00450,1,99,9","04,5,+00750,1,99,9","07,5,+01200,1,99,9",,"07,99,1,99,9,99,9,99999,9,99,9,99,9",,"09898,1,99999,9","16,1",,,"0123,1","MET078METAR ENHK 021320Z 27014G24KT 9999 VCSH FEW015 SCT025 BKN040 06/01 Q0990 RERA;",
"01044099999","2008-11-02T13:50:00","4","70.486675","22.139744","6.4","HASVIK, NO","FM-15","ENHK ","V020","260,1,N,0108,1","99999,9,C,N","011265,1,N,1","+0050,1","+0000,1","99999,9","02,5,+00600,1,99,9","04,5,+01050,1,99,9",,,"04,99,1,99,9,99,9,99999,9,99,9,99,9",,"09898,1,99999,9",,,,,"MET058METAR ENHK 021350Z 26021KT 9999 FEW020 SCT035 05/00 Q0990;","P01 010503SCOCIG"
"01044099999","2008-11-02T14:20:00","4","70.486675","22.139744","6.4","HASVIK, NO","FM-15","ENHK ","V020","260,1,N,0103,1","99999,9,C,N","011265,1,N,1","+0050,1","+0010,1","99999,9","02,5,+00600,1,99,9","04,5,+00810,1,99,9",,,"04,99,1,99,9,99,9,99999,9,99,9,99,9",,"09909,1,99999,9",,,,,"MET058METAR ENHK 021420Z 26020KT 9999 FEW020 SCT027 05/01 Q0991;","P01 008103SCOCIG"
"01044099999","2008-11-02T14:50:00","4","70.486675","22.139744","6.4","HASVIK, NO","FM-15","ENHK ","V020","260,1,N,0087,1","99999,9,C,N","011265,1,N,1","+0050,1","+0000,1","99999,9","02,5,+00600,1,99,9","04,5,+00810,1,99,9",,,"04,99,1,99,9,99,9,99999,9,99,9,99,9",,"09909,1,99999,9",,,,,"MET059METAR ENHK 021450Z 26017KT 9999 FEW020 SCT027 05/M00 Q0991;","P01 008103SCOCIG"
"01044099999","2008-11-03T04:20:00","4","70.486675","22.139744","6.4","HASVIK, NO","FM-15","ENHK ","V020","280,1,N,0134,1","01050,1,C,N","011265,1,N,1","+0040,1","-0010,1","99999,9","04,5,+00750,1,99,9","07,5,+01050,1,99,9",,,"07,99,1,99,9,99,9,99999,9,99,9,99,9",,"09970,1,99999,9",,,,"0190,1","MET062METAR ENHK 030420Z 28026G37KT 9999 SCT025 BKN035 04/M01 Q0997;",
"01044099999","2008-11-03T04:50:00","4","70.486675","22.139744","6.4","HASVIK, NO","FM-15","ENHK ","V020","270,1,N,0139,1","01050,1,C,N","011265,1,N,1","+0040,1","+0000,1","99999,9","04,5,+00750,1,99,9","07,5,+01050,1,99,9",,,"07,99,1,99,9,99,9,99999,9,99,9,99,9",,"09970,1,99999,9",,,,"0201,1","MET061METAR ENHK 030450Z 27027G39KT 9999 SCT025 BKN035 04/00 Q0997;",
"01044099999","2008-11-03T05:20:00","4","70.486675","22.139744","6.4","HASVIK, NO","FM-15","ENHK ","V020","270,1,N,0149,1","01050,1,C,N","011265,1,N,1","+0040,1","+0010,1","99999,9","04,5,+00750,1,99,9","07,5,+01050,1,99,9",,,"07,99,1,99,9,99,9,99999,9,99,9,99,9",,"09970,1,99999,9",,,,"0206,1","MET061METAR ENHK 030520Z 27029G40KT 9999 SCT025 BKN035 04/01 Q0997;",
"01044099999","2008-11-03T06:20:00","4","70.486675","22.139744","6.4","HASVIK, NO","FM-15","ENHK ","V020","280,1,N,0118,1","00450,1,C,N","011265,1,N,1","+0030,1","+0010,1","99999,9","02,5,+00300,1,99,9","04,5,+00450,1,99,9","07,5,+00600,1,99,9",,"07,99,1,99,9,99,9,99999,9,99,9,99,9",,"09980,1,99999,9","16,1",,,,"MET070METAR ENHK 030620Z 28023KT 9999 VCSH FEW010 SCT015 BKN020 03/01 Q0998;",
"01044099999","2008-11-03T06:50:00","4","70.486675","22.139744","6.4","HASVIK, NO","FM-15","ENHK ","V020","290,1,N,0103,1","00600,1,C,N","011265,1,N,1","+0040,1","+0030,1","99999,9","04,5,+00450,1,99,9","07,5,+00600,1,99,9",,,"07,99,1,99,9,99,9,99999,9,99,9,99,9",,"09980,1,99999,9","80,1",,,,"MET064METAR ENHK 030650Z 29020KT 9999 -SHRA SCT015 BKN020 04/03 Q0998;",
"01044099999","2008-11-03T13:50:00","4","70.486675","22.139744","6.4","HASVIK, NO","FM-15","ENHK ","V020","330,1,N,0057,1","00300,1,9,N","007000,1,N,1","+0020,1","+0010,1","99999,9","09,1,+00300,1,99,9",,,,"09,99,1,99,9,99,9,00025,1,99,9,99,9",,"10061,1,99999,9","61,1","71,1",,,"MET064METAR ENHK 031350Z 33011KT 280V360 7000 -RASN VV010 02/01 Q1006;",
"01044099999","2008-11-03T14:20:00","4","70.486675","22.139744","6.4","HASVIK, NO","FM-15","ENHK ","V020","310,1,N,0051,1","00360,1,C,N","008000,1,N,1","+0030,1","+0020,1","99999,9","02,5,+00270,1,99,9","07,5,+00360,1,99,9",,,"07,99,1,99,9,99,9,99999,9,99,9,99,9",,"10061,1,99999,9","61,1",,,"0103,1","MET073METAR ENHK 031420Z 31010G20KT 280V340 8000 -RA FEW009 BKN012 03/02 Q1006;",
"01044099999","2008-11-03T14:50:00","4","70.486675","22.139744","6.4","HASVIK, NO","FM-15","ENHK ","V020","340,1,N,0026,1","00450,1,9,N","007000,1,N,1","+0030,1","+0010,1","99999,9","09,1,+00450,1,99,9",,,,"09,99,1,99,9,99,9,00025,1,99,9,99,9",,"10061,1,99999,9","61,1",,,,"MET062METAR ENHK 031450Z 34005KT 310V020 7000 -RA VV015 03/01 Q1006;",
"01044099999","2008-11-03T15:20:00","4","70.486675","22.139744","6.4","HASVIK, NO","FM-15","ENHK ","V020","010,1,N,0036,1","00360,1,C,N","009000,1,N,1","+0030,1","+0000,1","99999,9","02,5,+00240,1,99,9","04,5,+00360,1,99,9","07,5,+00750,1,99,9",,"07,99,1,99,9,99,9,99999,9,99,9,99,9",,"10071,1,99999,9","61,1",,,,"MET078METAR ENHK 031520Z 01007KT 330V070 9000 -RA FEW008 SCT012 BKN025 03/M00 Q1007;",
"01044099999","2008-11-04T04:20:00","4","70.486675","22.139744","6.4","HASVIK, NO","FM-15","ENHK ","V020","100,1,N,0113,1","22000,1,9,N","011265,1,N,1","+0030,1","-0010,1","99999,9","02,5,+00660,1,99,9",,,,"02,99,1,99,9,99,9,99999,9,99,9,99,9",,"10000,1,99999,9",,,,,"MET052METAR ENHK 040420Z 10022KT 9999 FEW022 03/M01 Q1000;",
"01044099999","2008-11-04T04:50:00","4","70.486675","22.139744","6.4","HASVIK, NO","FM-15","ENHK ","V020","140,1,N,0077,1","02550,5,C,N","011265,1,N,1","+0040,1","-0030,1","99999,9","02,5,+00600,1,99,9","07,5,+02550,5,99,9",,,"07,99,1,99,9,99,9,99999,9,99,9,99,9",,"10000,1,99999,9",,,,,"MET059METAR ENHK 040450Z 14015KT 9999 FEW020 BKN085 04/M03 Q1000;",
"01044099999","2008-11-04T05:20:00","4","70.486675","22.139744","6.4","HASVIK, NO","FM-15","ENHK ","V020","150,1,N,0077,1","01950,5,C,N","011265,1,N,1","+0030,1","-0030,1","99999,9","02,5,+00600,1,99,9","07,5,+01950,5,99,9",,,"07,99,1,99,9,99,9,99999,9,99,9,99,9",,"09990,1,99999,9",,,,,"MET059METAR ENHK 040520Z 15015KT 9999 FEW020 BKN065 03/M03 Q0999;",
"01044099999","2008-11-04T05:50:00","4","70.486675","22.139744","6.4","HASVIK, NO","FM-15","ENHK ","V020","150,1,N,0067,1","01950,5,C,N","011265,1,N,1","+0030,1","-0040,1","99999,9","02,5,+00600,1,99,9","07,5,+01950,5,99,9",,,"07,99,1,99,9,99,9,99999,9,99,9,99,9",,"09980,1,99999,9",,,,,"MET059METAR ENHK 040550Z 15013KT 9999 FEW020 BKN065 03/M04 Q0998;",
"01044099999","2008-11-04T06:20:00","4","70.486675","22.139744","6.4","HASVIK, NO","FM-15","ENHK ","V020","150,1,N,0062,1","01200,1,C,N","011265,1,N,1","+0030,1","-0040,1","99999,9","02,5,+00600,1,99,9","07,5,+01200,1,99,9",,,"07,99,1,99,9,99,9,99999,9,99,9,99,9",,"09980,1,99999,9","16,1",,,,"MET064METAR ENHK 040620Z 15012KT 9999 VCSH FEW020 BKN040 03/M04 Q0998;",
"01044099999","2008-11-04T07:20:00","4","70.486675","22.139744","6.4","HASVIK, NO","FM-15","ENHK ","V020","150,1,N,0036,1","00240,1,9,N","001500,1,N,1","+0010,1","-0010,1","99999,9","09,1,+00240,1,99,9",,,,"09,99,1,99,9,99,9,00025,1,99,9,99,9",,"09980,1,99999,9","61,1","71,1",,,"MET057METAR ENHK 040720Z 15007KT 1500 -SNRA VV008 01/M01 Q0998;",
"01044099999","2008-11-04T08:50:00","4","70.486675","22.139744","6.4","HASVIK, NO","FM-15","ENHK ","V020","140,1,N,0031,1","00300,1,C,N","008000,1,N,1","+0010,1","+0000,1","99999,9","04,5,+00150,1,99,9","02,5,+00300,1,09,5","07,5,+00300,1,99,9",,"07,99,1,99,9,99,9,99999,9,99,9,99,9",,"09980,1,99999,9","63,1","73,1","87,1",,"MET085METAR ENHK 040850Z 14006KT 100V160 8000 -SHGSRASN SCT005 FEW010CB BKN010 01/00 Q0998;",
"01044099999","2008-11-04T09:20:00","4","70.486675","22.139744","6.4","HASVIK, NO","FM-15","ENHK ","V020","260,1,N,0108,1","00300,1,C,N","009000,1,N,1","+0010,1","+0010,1","99999,9","02,5,+00150,1,99,9","04,5,+00300,1,99,9","07,5,+00900,1,99,9",,"07,99,1,99,9,99,9,99999,9,99,9,99,9",,"09980,1,99999,9","16,1",,,"0185,1","MET090METAR ENHK 040920Z 26021G36KT 220V290 9000 VCSH FEW005 SCT010 BKN030 01/01 Q0998 REGSRASN;",
"01044099999","2008-11-04T09:50:00","4","70.486675","22.139744","6.4","HASVIK, NO","FM-15","ENHK ","V020","270,1,N,0118,1","00900,1,C,N","011265,1,N,1","+0060,1","+0010,1","99999,9","02,5,+00300,1,99,9","04,5,+00900,1,99,9","07,5,+01560,5,99,9",,"07,99,1,99,9,99,9,99999,9,99,9,99,9",,"09970,1,99999,9","83,1",,,"0190,1","MET076METAR ENHK 040950Z 27023G37KT 9999 -SHRASN FEW010 SCT030 BKN052 06/01 Q0997;",
"01044099999","2008-11-04T10:20:00","4","70.486675","22.139744","6.4","HASVIK, NO","FM-15","ENHK ","V020","270,1,N,0165,1","00900,1,C,N","011265,1,N,1","+0060,1","+0010,1","99999,9","02,5,+00300,1,99,9","04,5,+00900,1,99,9","07,5,+01800,1,99,9",,"07,99,1,99,9,99,9,99999,9,99,9,99,9",,"09970,1,99999,9","16,1",,,"0242,1","MET080METAR ENHK 041020Z 27032G47KT 9999 VCSH FEW010 SCT030 BKN060 06/01 Q0997 RERASN;",
"01044099999","2008-11-04T13:20:00","4","70.486675","22.139744","6.4","HASVIK, NO","FM-15","ENHK ","V020","270,1,N,0129,1","01140,1,C,N","011265,1,N,1","+0060,1","+0020,1","99999,9","02,5,+00360,1,99,9","07,5,+01140,1,99,9",,,"07,99,1,99,9,99,9,99999,9,99,9,99,9",,"09970,1,99999,9","80,1",,,"0190,1","MET067METAR ENHK 041320Z 27025G37KT 9999 -SHRA FEW012 BKN038 06/02 Q0997;",
"01044099999","2008-11-04T13:50:00","4","70.486675","22.139744","6.4","HASVIK, NO","FM-15","ENHK ","V020","270,1,N,0129,1","01110,1,C,N","011265,1,N,1","+0050,1","+0010,1","99999,9","02,5,+00360,1,99,9","07,5,+01110,1,99,9",,,"07,99,1,99,9,99,9,99999,9,99,9,99,9",,"09970,1,99999,9","80,1",,,"0190,1","MET067METAR ENHK 041350Z 27025G37KT 9999 -SHRA FEW012 BKN037 05/01 Q0997;",
"01044099999","2008-11-04T14:20:00","4","70.486675","22.139744","6.4","HASVIK, NO","FM-15","ENHK ","V020","260,1,N,0129,1","01110,1,C,N","011265,1,N,1","+0040,1","+0020,1","99999,9","02,5,+00360,1,99,9","07,5,+01110,1,99,9",,,"07,99,1,99,9,99,9,99999,9,99,9,99,9",,"09970,1,99999,9","80,1",,,"0201,1","MET067METAR ENHK 041420Z 26025G39KT 9999 -SHRA FEW012 BKN037 04/02 Q0997;",
"01044099999","2008-11-04T14:50:00","4","70.486675","22.139744","6.4","HASVIK, NO","FM-15","ENHK ","V020","260,1,N,0139,1","01080,1,C,N","011265,1,N,1","+0050,1","+0020,1","99999,9","02,5,+00420,1,99,9","07,5,+01080,1,99,9",,,"07,99,1,99,9,99,9,99999,9,99,9,99,9",,"09959,1,99999,9","80,1",,,"0226,1","MET067METAR ENHK 041450Z 26027G44KT 9999 -SHRA FEW014 BKN036 05/02 Q0996;",
"01044099999","2008-11-04T15:20:00","4","70.486675","22.139744","6.4","HASVIK, NO","FM-15","ENHK ","V020","260,1,N,0180,1","01110,1,C,N","011265,1,N,1","+0050,1","+0030,1","99999,9","02,5,+00390,1,99,9","07,5,+01110,1,99,9",,,"07,99,1,99,9,99,9,99999,9,99,9,99,9",,"09959,1,99999,9","80,1",,,"0247,1","MET067METAR ENHK 041520Z 26035G48KT 9999 -SHRA FEW013 BKN037 05/03 Q0996;",
"01044099999","2008-11-05T04:20:00","4","70.486675","22.139744","6.4","HASVIK, NO","FM-15","ENHK ","V020","999,9,V,0010,1","22000,1,9,N","011265,1,N,1","+0020,1","-0010,1","99999,9","02,5,+00750,1,99,9",,,,"02,99,1,99,9,99,9,99999,9,99,9,99,9",,"10119,1,99999,9",,,,,"MET052METAR ENHK 050420Z VRB02KT 9999 FEW025 02/M01 Q1012;",
"01044099999","2008-11-05T04:50:00","4","70.486675","22.139744","6.4","HASVIK, NO","FM-15","ENHK ","V020","999,9,V,0010,1","02100,1,C,N","011265,1,N,1","+0020,1","-0010,1","99999,9","02,5,+00750,1,99,9","07,5,+02100,1,99,9",,,"07,99,1,99,9,99,9,99999,9,99,9,99,9",,"10119,1,99999,9",,,,,"MET059METAR ENHK 050450Z VRB02KT 9999 FEW025 BKN070 02/M01 Q1012;",
"01044099999","2008-11-05T05:50:00","4","70.486675","22.139744","6.4","HASVIK, NO","FM-15","ENHK ","V020","999,9,C,0000,1","02100,1,C,N","011265,1,N,1","+0010,1","-0010,1","99999,9","02,5,+00750,1,99,9","07,5,+02100,1,99,9",,,"07,99,1,99,9,99,9,99999,9,99,9,99,9",,"10139,1,99999,9",,,,,"MET059METAR ENHK 050550Z 00000KT 9999 FEW025 BKN070 01/M01 Q1014;",
"01044099999","2008-11-05T06:20:00","4","70.486675","22.139744","6.4","HASVIK, NO","FM-15","ENHK ","V020","999,9,C,0000,1","01050,1,C,N","011265,1,N,1","+0010,1","-0010,1","99999,9","02,5,+00750,1,99,9","04,5,+01050,1,99,9","07,5,+01800,1,99,9",,"07,99,1,99,9,99,9,99999,9,99,9,99,9",,"10139,1,99999,9","16,1",,,,"MET071METAR ENHK 050620Z 00000KT 9999 VCSH FEW025 SCT035 BKN060 01/M01 Q1014;",
"01044099999","2008-11-05T07:50:00","4","70.486675","22.139744","6.4","HASVIK, NO","FM-15","ENHK ","V020","999,9,V,0010,1","00630,1,C,N","011265,1,N,1","+0030,1","+0000,1","99999,9","02,5,+00450,1,99,9","04,5,+00630,1,99,9","07,5,+01050,1,99,9",,"07,99,1,99,9,99,9,99999,9,99,9,99,9",,"10159,1,99999,9","16,1",,,,"MET070METAR ENHK 050750Z VRB02KT 9999 VCSH FEW015 SCT021 BKN035 03/00 Q1016;",
"01044099999","2008-11-05T08:20:00","4","70.486675","22.139744","6.4","HASVIK, NO","FM-15","ENHK ","V020","250,1,N,0021,1","00480,1,C,N","011265,1,N,1","+0030,1","+0010,1","99999,9","02,5,+00420,1,99,9","07,5,+00480,1,99,9",,,"07,99,1,99,9,99,9,99999,9,99,9,99,9",,"10169,1,99999,9","61,1",,,,"MET070METAR ENHK 050820Z 25004KT 210V290 9999 -RA FEW014 BKN016 03/01 Q1017;",
"01044099999","2008-11-05T08:50:00","4","70.486675","22.139744","6.4","HASVIK, NO","FM-15","ENHK ","V020","230,1,N,0015,1","00300,1,C,N","011265,1,N,1","+0030,1","+0010,1","99999,9","07,5,+00300,1,99,9",,,,"07,99,1,99,9,99,9,99999,9,99,9,99,9",,"10180,1,99999,9","61,1",,,,"MET063METAR ENHK 050850Z 23003KT 200V260 9999 -RA BKN010 03/01 Q1018;",
"01044099999","2008-11-05T09:20:00","4","70.486675","22.139744","6.4","HASVIK, NO","FM-15","ENHK ","V020","220,1,N,0026,1","00600,1,C,N","011265,1,N,1","+0030,1","+0010,1","99999,9","04,5,+00300,1,99,9","07,5,+00600,1,99,9",,,"07,99,1,99,9,99,9,99999,9,99,9,99,9",,"10180,1,99999,9","61,1",,,,"MET062METAR ENHK 050920Z 22005KT 9999 -RA SCT010 BKN020 03/01 Q1018;",
"01044099999","2008-11-05T09:50:00","4","70.486675","22.139744","6.4","HASVIK, NO","FM-15","ENHK ","V020","200,1,N,0031,1","00540,1,C,N","011265,1,N,1","+0030,1","+0020,1","99999,9","04,5,+00270,1,99,9","07,5,+00540,1,99,9",,,"07,99,1,99,9,99,9,99999,9,99,9,99,9",,"10190,1,99999,9","61,1",,,,"MET062METAR ENHK 050950Z 20006KT 9999 -RA SCT009 BKN018 03/02 Q1019;",
"01044099999","2008-11-05T13:20:00","4","70.486675","22.139744","6.4","HASVIK, NO","FM-15","ENHK ","V020","270,1,N,0057,1","00600,1,C,N","011265,1,N,1","+0040,1","+0020,1","99999,9","02,5,+00360,1,99,9","07,5,+00600,1,99,9",,,"07,99,1,99,9,99,9,99999,9,99,9,99,9",,"10220,1,99999,9","16,1",,,,"MET063METAR ENHK 051320Z 27011KT 9999 VCSH FEW012 BKN020 04/02 Q1022;",
"01044099999","2008-11-05T13:50:00","4","70.486675","22.139744","6.4","HASVIK, NO","FM-15","ENHK ","V020","280,1,N,0072,1","00600,1,C,N","011265,1,N,1","+0040,1","+0010,1","99999,9","04,5,+00360,1,99,9","07,5,+00600,1,99,9",,,"07,99,1,99,9,99,9,99999,9,99,9,99,9",,"10220,1,99999,9","80,1",,,,"MET064METAR ENHK 051350Z 28014KT 9999 -SHRA SCT012 BKN020 04/01 Q1022;",
"01044099999","2008-11-05T14:20:00","4","70.486675","22.139744","6.4","HASVIK, NO","FM-15","ENHK ","V020","280,1,N,0051,1","00630,1,C,N","011265,1,N,1","+0040,1","+0020,1","99999,9","04,5,+00420,1,99,9","07,5,+00630,1,99,9",,,"07,99,1,99,9,99,9,99999,9,99,9,99,9",,"10230,1,99999,9","80,1",,,,"MET064METAR ENHK 051420Z 28010KT 9999 -SHRA SCT014 BKN021 04/02 Q1023;",
"01044099999","2008-11-05T15:20:00","4","70.486675","22.139744","6.4","HASVIK, NO","FM-15","ENHK ","V020","270,1,N,0067,1","00720,1,C,N","011265,1,N,1","+0040,1","+0010,1","99999,9","04,5,+00450,1,99,9","07,5,+00720,1,99,9",,,"07,99,1,99,9,99,9,99999,9,99,9,99,9",,"10230,1,99999,9","16,1",,,,"MET068METAR ENHK 051520Z 27013KT 9999 VCSH SCT015 BKN024 04/01 Q1023 RERA;",
"01044099999","2008-11-06T04:20:00","4","70.486675","22.139744","6.4","HASVIK, NO","FM-15","ENHK ","V020","270,1,N,0051,1","00600,1,C,N","009000,1,N,1","+0040,1","+0010,1","99999,9","02,5,+00420,1,99,9","07,5,+00600,1,99,9",,,"07,99,1,99,9,99,9,99999,9,99,9,99,9",,"10251,1,99999,9","61,1",,,,"MET062METAR ENHK 060420Z 27010KT 9000 -RA FEW014 BKN020 04/01 Q1025;",
"01044099999","2008-11-06T04:50:00","4","70.486675","22.139744","6.4","HASVIK, NO","FM-15","ENHK ","V020","270,1,N,0067,1","00600,1,C,N","011265,1,N,1","+0040,1","+0010,1","99999,9","02,5,+00420,1,99,9","07,5,+00600,1,99,9",,,"07,99,1,99,9,99,9,99999,9,99,9,99,9",,"10251,1,99999,9","61,1",,,,"MET070METAR ENHK 060450Z 27013KT 220V290 9999 -RA FEW014 BKN020 04/01 Q1025;",
"01044099999","2008-11-06T05:50:00","4","70.486675","22.139744","6.4","HASVIK, NO","FM-15","ENHK ","V020","250,1,N,0067,1","00600,1,C,N","011265,1,N,1","+0040,1","+0020,1","99999,9","02,5,+00450,1,99,9","04,5,+00600,1,99,9","07,5,+00750,1,99,9",,"07,99,1,99,9,99,9,99999,9,99,9,99,9",,"10240,1,99999,9","63,1",,,,"MET068METAR ENHK 060550Z 25013KT 9999 RA FEW015 SCT020 BKN025 04/02 Q1024;",
"01044099999","2008-11-06T06:20:00","4","70.486675","22.139744","6.4","HASVIK, NO","FM-15","ENHK ","V020","260,1,N,0051,1","00630,1,C,N","011265,1,N,1","+0040,1","+0020,1","99999,9","02,5,+00450,1,99,9","04,5,+00630,1,99,9","07,5,+00900,1,99,9",,"07,99,1,99,9,99,9,99999,9,99,9,99,9",,"10240,1,99999,9","61,1",,,,"MET069METAR ENHK 060620Z 26010KT 9999 -RA FEW015 SCT021 BKN030 04/02 Q1024;",
"01044099999","2008-11-06T07:50:00","4","70.486675","22.139744","6.4","HASVIK, NO","FM-15","ENHK ","V020","250,1,N,0057,1","00570,1,C,N","011265,1,N,1","+0040,1","+0010,1","99999,9","02,5,+00450,1,99,9","04,5,+00570,1,99,9","07,5,+00900,1,99,9",,"07,99,1,99,9,99,9,99999,9,99,9,99,9",,"10240,1,99999,9","61,1",,,,"MET069METAR ENHK 060750Z 25011KT 9999 -RA FEW015 SCT019 BKN030 04/01 Q1024;",
"01044099999","2008-11-06T10:20:00","4","70.486675","22.139744","6.4","HASVIK, NO","FM-15","ENHK ","V020","240,1,N,0041,1","01200,1,C,N","011265,1,N,1","+0050,1","+0010,1","99999,9","02,5,+00750,1,99,9","04,5,+01200,1,99,9","07,5,+02100,1,99,9",,"07,99,1,99,9,99,9,99999,9,99,9,99,9",,"10230,1,99999,9",,,,,"MET065METAR ENHK 061020Z 24008KT 9999 FEW025 SCT040 BKN070 05/01 Q1023;",
"01044099999","2008-11-06T13:20:00","4","70.486675","22.139744","6.4","HASVIK, NO","FM-15","ENHK ","V020","210,1,N,0041,1","02100,1,C,N","011265,1,N,1","+0060,1","+0010,1","99999,9","04,5,+01050,1,99,9","07,5,+02100,1,99,9",,,"07,99,1,99,9,99,9,99999,9,99,9,99,9",,"10210,1,99999,9",,,,,"MET058METAR ENHK 061320Z 21008KT 9999 SCT035 BKN070 06/01 Q1021;",
"01044099999","2008-11-06T13:50:00","4","70.486675","22.139744","6.4","HASVIK, NO","FM-15","ENHK ","V020","180,1,N,0026,1","01800,1,C,N","011265,1,N,1","+0050,1","+0010,1","99999,9","04,5,+01050,1,99,9","07,5,+01800,1,99,9",,,"07,99,1,99,9,99,9,99999,9,99,9,99,9",,"10200,1,99999,9",,,,,"MET058METAR ENHK 061350Z 18005KT 9999 SCT035 BKN060 05/01 Q1020;",
"01044099999","2008-11-06T14:20:00","4","70.486675","22.139744","6.4","HASVIK, NO","FM-15","ENHK ","V020","190,1,N,0031,1","01050,1,C,N","011265,1,N,1","+0060,1","+0000,1","99999,9","02,5,+00900,1,99,9","07,5,+01050,1,99,9",,,"07,99,1,99,9,99,9,99999,9,99,9,99,9",,"10200,1,99999,9",,,,,"MET058METAR ENHK 061420Z 19006KT 9999 FEW030 BKN035 06/00 Q1020;",
"01044099999","2008-11-07T04:20:00","4","70.486675","22.139744","6.4","HASVIK, NO","FM-15","ENHK ","V020","300,1,N,0087,1","00600,1,C,N","011265,1,N,1","+0070,1","+0040,1","99999,9","02,5,+00450,1,99,9","07,5,+00600,1,99,9",,,"07,99,1,99,9,99,9,99999,9,99,9,99,9",,"10190,1,99999,9",,,,,"MET058METAR ENHK 070420Z 30017KT 9999 FEW015 BKN020 07/04 Q1019;",
"01044099999","2008-11-07T04:50:00","4","70.486675","22.139744","6.4","HASVIK, NO","FM-15","ENHK ","V020","300,1,N,0082,1","00600,1,C,N","011265,1,N,1","+0070,1","+0040,1","99999,9","02,5,+00450,1,99,9","07,5,+00600,1,99,9",,,"07,99,1,99,9,99,9,99999,9,99,9,99,9",,"10190,1,99999,9",,,,,"MET058METAR ENHK 070450Z 30016KT 9999 FEW015 BKN020 07/04 Q1019;",
"01044099999","2008-11-07T05:50:00","4","70.486675","22.139744","6.4","HASVIK, NO","FM-15","ENHK ","V020","300,1,N,0072,1","00690,1,C,N","011265,1,N,1","+0070,1","+0040,1","99999,9","04,5,+00540,1,99,9","07,5,+00690,1,99,9",,,"07,99,1,99,9,99,9,99999,9,99,9,99,9",,"10190,1,99999,9",,,,,"MET058METAR ENHK 070550Z 30014KT 9999 SCT018 BKN023 07/04 Q1019;",
"01044099999","2008-11-07T06:20:00","4","70.486675","22.139744","6.4","HASVIK, NO","FM-15","ENHK ","V020","300,1,N,0077,1","00690,1,C,N","011265,1,N,1","+0060,1","+0040,1","99999,9","04,5,+00540,1,99,9","07,5,+00690,1,99,9",,,"07,99,1,99,9,99,9,99999,9,99,9,99,9",,"10190,1,99999,9",,,,,"MET058METAR ENHK 070620Z 30015KT 9999 SCT018 BKN023 06/04 Q1019;",
"01044099999","2008-11-07T09:50:00","4","70.486675","22.139744","6.4","HASVIK, NO","FM-15","ENHK ","V020","300,1,N,0062,1","00810,1,C,N","011265,1,N,1","+0060,1","+0030,1","99999,9","02,5,+00510,1,99,9","07,5,+00810,1,99,9",,,"07,99,1,99,9,99,9,99999,9,99,9,99,9",,"10200,1,99999,9","16,1",,,,"MET063METAR ENHK 070950Z 30012KT 9999 VCSH FEW017 BKN027 06/03 Q1020;",
"01044099999","2008-11-07T13:20:00","4","70.486675","22.139744","6.4","HASVIK, NO","FM-15","ENHK ","V020","300,1,N,0046,1","00600,1,C,N","011265,1,N,1","+0060,1","+0040,1","99999,9","04,5,+00360,1,99,9","07,5,+00600,1,99,9",,,"07,99,1,99,9,99,9,99999,9,99,9,99,9",,"10200,1,99999,9","80,1",,,,"MET064METAR ENHK 071320Z 30009KT 9999 -SHRA SCT012 BKN020 06/04 Q1020;",
"01044099999","2008-11-07T13:50:00","4","70.486675","22.139744","6.4","HASVIK, NO","FM-15","ENHK ","V020","300,1,N,0026,1","00630,1,C,N","011265,1,N,1","+0060,1","+0040,1","99999,9","04,5,+00390,1,99,9","07,5,+00630,1,99,9",,,"07,99,1,99,9,99,9,99999,9,99,9,99,9",,"10200,1,99999,9","16,1",,,,"MET068METAR ENHK 071350Z 30005KT 9999 VCSH SCT013 BKN021 06/04 Q1020 RERA;",
"01044099999","2008-11-07T14:20:00","4","70.486675","22.139744","6.4","HASVIK, NO","FM-15","ENHK ","V020","290,1,N,0036,1","00690,1,C,N","011265,1,N,1","+0070,1","+0050,1","99999,9","04,5,+00360,1,99,9","07,5,+00690,1,99,9",,,"07,99,1,99,9,99,9,99999,9,99,9,99,9",,"10200,1,99999,9","80,1",,,,"MET064METAR ENHK 071420Z 29007KT 9999 -SHRA SCT012 BKN023 07/05 Q1020;",
"01044099999","2008-11-07T14:50:00","4","70.486675","22.139744","6.4","HASVIK, NO","FM-15","ENHK ","V020","250,1,N,0036,1","00390,1,C,N","011265,1,N,1","+0060,1","+0050,1","99999,9","07,5,+00390,1,99,9",,,,"07,99,1,99,9,99,9,99999,9,99,9,99,9",,"10200,1,99999,9","80,1",,,,"MET057METAR ENHK 071450Z 25007KT 9999 -SHRA BKN013 06/05 Q1020;",
"01044099999","2008-11-09T12:50:00","4","70.486675","22.139744","6.4","HASVIK, NO","FM-15","ENHK ","V020","230,1,N,0015,1","22000,1,9,N","011265,1,N,1","+0070,1","+0040,1","99999,9","04,5,+01350,1,99,9",,,,"04,99,1,99,9,99,9,99999,9,99,9,99,9",,"10051,1,99999,9",,,,,"MET051METAR ENHK 091250Z 23003KT 9999 SCT045 07/04 Q1005;",
"01044099999","2008-11-09T13:20:00","4","70.486675","22.139744","6.4","HASVIK, NO","FM-15","ENHK ","V020","140,1,N,0026,1","22000,1,9,N","011265,1,N,1","+0060,1","+0040,1","99999,9","04,5,+01380,1,99,9",,,,"04,99,1,99,9,99,9,99999,9,99,9,99,9",,"10041,1,99999,9",,,,,"MET051METAR ENHK 091320Z 14005KT 9999 SCT046 06/04 Q1004;",
"01044099999","2008-11-09T13:50:00","4","70.486675","22.139744","6.4","HASVIK, NO","FM-15","ENHK ","V020","120,1,N,0041,1","22000,1,9,N","011265,1,N,1","+0060,1","+0040,1","99999,9","02,5,+01440,1,99,9",,,,"02,99,1,99,9,99,9,99999,9,99,9,99,9",,"10041,1,99999,9",,,,,"MET051METAR ENHK 091350Z 12008KT 9999 FEW048 06/04 Q1004;",
"01044099999","2008-11-09T14:50:00","4","70.486675","22.139744","6.4","HASVIK, NO","FM-15","ENHK ","V020","120,1,N,0031,1","99999,9,C,Y","009900,1,N,1","+0070,1","+0030,1","99999,9",,,,,,,"10031,1,99999,9",,,,,"MET045METAR ENHK 091450Z 12006KT CAVOK 07/03 Q1003;",
"01044099999","2008-11-10T04:20:00","4","70.486675","22.139744","6.4","HASVIK, NO","FM-15","ENHK ","V020","100,1,N,0062,1","22000,1,9,N","011265,1,N,1","+0040,1","+0000,1","99999,9","02,5,+00750,1,99,9",,,,"02,99,1,99,9,99,9,99999,9,99,9,99,9",,"09949,1,99999,9",,,,,"MET051METAR ENHK 100420Z 10012KT 9999 FEW025 04/00 Q0995;",
"01044099999","2008-11-10T04:50:00","4","70.486675","22.139744","6.4","HASVIK, NO","FM-15","ENHK ","V020","160,1,N,0041,1","22000,1,9,N","011265,1,N,1","+0040,1","+0000,1","99999,9","02,5,+00600,1,99,9",,,,"02,99,1,99,9,99,9,99999,9,99,9,99,9",,"09949,1,99999,9",,,,,"MET059METAR ENHK 100450Z 16008KT 110V200 9999 FEW020 04/00 Q0995;",
"01044099999","2008-11-10T05:50:00","4","70.486675","22.139744","6.4","HASVIK, NO","FM-15","ENHK ","V020","100,1,N,0026,1","22000,1,9,N","011265,1,N,1","+0040,1","+0010,1","99999,9","02,5,+00600,1,99,9",,,,"02,99,1,99,9,99,9,99999,9,99,9,99,9",,"09939,1,99999,9",,,,,"MET059METAR ENHK 100550Z 10005KT 020V180 9999 FEW020 04/01 Q0994;",
"01044099999","2008-11-10T13:50:00","4","70.486675","22.139744","6.4","HASVIK, NO","FM-15","ENHK ","V020","090,1,N,0036,1","99999,9,C,Y","009900,1,N,1","+0040,1","+0010,1","99999,9",,,,,,,"09909,1,99999,9",,,,,"MET045METAR ENHK 101350Z 09007KT CAVOK 04/01 Q0991;",
"01044099999","2008-11-10T14:20:00","4","70.486675","22.139744","6.4","HASVIK, NO","FM-15","ENHK ","V020","090,1,N,0046,1","99999,9,C,Y","009900,1,N,1","+0040,1","+0020,1","99999,9",,,,,,,"09909,1,99999,9",,,,,"MET045METAR ENHK 101420Z 09009KT CAVOK 04/02 Q0991;",
"01044099999","2008-11-11T04:20:00","4","70.486675","22.139744","6.4","HASVIK, NO","FM-15","ENHK ","V020","130,1,N,0005,1","02400,1,C,N","011265,1,N,1","+0030,1","+0010,1","99999,9","02,5,+00900,1,99,9","07,5,+02400,1,99,9",,,"07,99,1,99,9,99,9,99999,9,99,9,99,9",,"09892,1,99999,9",,,,,"MET058METAR ENHK 110420Z 13001KT 9999 FEW030 BKN080 03/01 Q0989;",
"01044099999","2008-11-11T04:50:00","4","70.486675","22.139744","6.4","HASVIK, NO","FM-15","ENHK ","V020","120,1,N,0010,1","02250,5,C,N","011265,1,N,1","+0030,1","+0010,1","99999,9","02,5,+00450,1,99,9","07,5,+02250,5,99,9",,,"07,99,1,99,9,99,9,99999,9,99,9,99,9",,"09892,1,99999,9",,,,,"MET058METAR ENHK 110450Z 12002KT 9999 FEW015 BKN075 03/01 Q0989;",
"01044099999","2008-11-11T05:20:00","4","70.486675","22.139744","6.4","HASVIK, NO","FM-15","ENHK ","V020","120,1,N,0005,1","02250,5,C,N","011265,1,N,1","+0030,1","+0010,1","99999,9","02,5,+00450,1,99,9","07,5,+02250,5,99,9",,,"07,99,1,99,9,99,9,99999,9,99,9,99,9",,"09892,1,99999,9",,,,,"MET058METAR ENHK 110520Z 12001KT 9999 FEW015 BKN075 03/01 Q0989;",
"01044099999","2008-11-11T05:50:00","4","70.486675","22.139744","6.4","HASVIK, NO","FM-15","ENHK ","V020","100,1,N,0010,1","02250,5,C,N","011265,1,N,1","+0030,1","+0010,1","99999,9","02,5,+00750,1,99,9","07,5,+02250,5,99,9",,,"07,99,1,99,9,99,9,99999,9,99,9,99,9",,"09892,1,99999,9",,,,,"MET058METAR ENHK 110550Z 10002KT 9999 FEW025 BKN075 03/01 Q0989;",
"01044099999","2008-11-11T06:20:00","4","70.486675","22.139744","6.4","HASVIK, NO","FM-15","ENHK ","V020","100,1,N,0021,1","02250,5,C,N","011265,1,N,1","+0030,1","+0020,1","99999,9","02,5,+00450,1,99,9","07,5,+02250,5,99,9",,,"07,99,1,99,9,99,9,99999,9,99,9,99,9",,"09892,1,99999,9",,,,,"MET058METAR ENHK 110620Z 10004KT 9999 FEW015 BKN075 03/02 Q0989;",
"01044099999","2008-11-11T13:50:00","4","70.486675","22.139744","6.4","HASVIK, NO","FM-15","ENHK ","V020","250,1,N,0051,1","00540,1,C,N","011265,1,N,1","+0040,1","+0020,1","99999,9","04,5,+00450,1,99,9","07,5,+00540,1,99,9",,,"07,99,1,99,9,99,9,99999,9,99,9,99,9",,"09898,1,99999,9","61,1",,,,"MET062METAR ENHK 111350Z 25010KT 9999 -RA SCT015 BKN018 04/02 Q0990;",
"01044099999","2008-11-11T15:20:00","4","70.486675","22.139744","6.4","HASVIK, NO","FM-15","ENHK ","V020","250,1,N,0067,1","00540,1,C,N","011265,1,N,1","+0040,1","+0030,1","99999,9","04,5,+00450,1,99,9","07,5,+00540,1,99,9",,,"07,99,1,99,9,99,9,99999,9,99,9,99,9",,"09898,1,99999,9","61,1",,,,"MET062METAR ENHK 111520Z 25013KT 9999 -RA SCT015 BKN018 04/03 Q0990;",
"01044099999","2008-11-12T04:20:00","4","70.486675","22.139744","6.4","HASVIK, NO","FM-15","ENHK ","V020","300,1,N,0082,1","00450,1,C,N","008000,1,N,1","+0000,1","-0020,1","99999,9","02,5,+00360,1,99,9","07,5,+00450,1,99,9",,,"07,99,1,99,9,99,9,99999,9,99,9,99,9",,"09959,1,99999,9","80,1",,,,"MET067METAR ENHK 120420Z 30016KT 8000 -SHSNRA FEW012 BKN015 00/M02 Q0996;",
"01044099999","2008-11-12T04:50:00","4","70.486675","22.139744","6.4","HASVIK, NO","FM-15","ENHK ","V020","310,1,N,0072,1","00450,1,C,N","007000,1,N,1","+0000,1","-0020,1","99999,9","02,5,+00300,1,99,9","07,5,+00450,1,99,9",,,"07,99,1,99,9,99,9,99999,9,99,9,99,9",,"09959,1,99999,9","80,1",,,,"MET067METAR ENHK 120450Z 31014KT 7000 -SHSNRA FEW010 BKN015 00/M02 Q0996;",
"01044099999","2008-11-12T05:20:00","4","70.486675","22.139744","6.4","HASVIK, NO","FM-15","ENHK ","V020","300,1,N,0072,1","00360,1,9,N","002500,1,N,1","+0000,1","-0010,1","99999,9","09,1,+00360,1,99,9",,,,"09,99,1,99,9,99,9,00025,1,99,9,99,9",,"09970,1,99999,9","73,1",,,,"MET054METAR ENHK 120520Z 30014KT 2500 SN VV012 00/M01 Q0997;",
"01044099999","2008-11-12T05:50:00","4","70.486675","22.139744","6.4","HASVIK, NO","FM-15","ENHK ","V020","300,1,N,0087,1","00390,1,C,N","008000,1,N,1","+0010,1","-0020,1","99999,9","02,5,+00240,1,99,9","04,5,+00390,1,99,9","07,5,+00900,1,99,9",,"07,99,1,99,9,99,9,99999,9,99,9,99,9",,"09970,1,99999,9","71,1",,,,"MET070METAR ENHK 120550Z 30017KT 8000 -SN FEW008 SCT013 BKN030 01/M02 Q0997;",
"01044099999","2008-11-12T06:20:00","4","70.486675","22.139744","6.4","HASVIK, NO","FM-15","ENHK ","V020","310,1,N,0098,1","00450,1,C,N","008000,1,N,1","+0000,1","-0020,1","99999,9","02,5,+00300,1,99,9","04,5,+00450,1,99,9","07,5,+00600,1,99,9",,"07,99,1,99,9,99,9,99999,9,99,9,99,9",,"09970,1,99999,9","71,1",,,,"MET070METAR ENHK 120620Z 31019KT 8000 -SN FEW010 SCT015 BKN020 00/M02 Q0997;",
"01044099999","2008-11-12T12:50:00","4","70.486675","22.139744","6.4","HASVIK, NO","FM-15","ENHK ","V020","320,1,N,0077,1","00900,1,C,N","011265,1,N,1","-0010,1","-0080,1","99999,9","02,5,+00450,1,99,9","07,5,+00900,1,99,9",,,"07,99,1,99,9,99,9,99999,9,99,9,99,9",,"10020,1,99999,9","16,1",,,,"MET070METAR ENHK 121250Z 32015KT 9999 VCSH FEW015 BKN030 M01/M08 Q1002 RESN;",
"01044099999","2008-11-12T13:20:00","4","70.486675","22.139744","6.4","HASVIK, NO","FM-15","ENHK ","V020","320,1,N,0072,1","00960,1,C,N","011265,1,N,1","-0020,1","-0060,1","99999,9","02,5,+00450,1,99,9","07,5,+00960,1,99,9",,,"07,99,1,99,9,99,9,99999,9,99,9,99,9",,"10020,1,99999,9","16,1",,,,"MET070METAR ENHK 121320Z 32014KT 9999 VCSH FEW015 BKN032 M02/M06 Q1002 RESN;",
"01044099999","2008-11-12T13:50:00","4","70.486675","22.139744","6.4","HASVIK, NO","FM-15","ENHK ","V020","310,1,N,0093,1","00960,5,9,N","011265,1,N,1","-0010,1","-0090,1","99999,9","07,5,+00960,5,99,9",,,,,,"10020,1,99999,9",,,,,"MET070METAR ENHK 121350Z 31018KT 99999 VCSH FEW15 BKN032 M01/M09 Q1002 RESN;",
"01044099999","2008-11-12T14:20:00","4","70.486675","22.139744","6.4","HASVIK, NO","FM-15","ENHK ","V020","310,1,N,0093,1","00900,1,C,N","011265,1,N,1","-0010,1","-0090,1","99999,9","02,5,+00450,1,99,9","04,5,+00900,1,99,9","07,5,+01200,1,99,9",,"07,99,1,99,9,99,9,99999,9,99,9,99,9",,"10031,1,99999,9","16,1",,,,"MET077METAR ENHK 121420Z 31018KT 9999 VCSH FEW015 SCT030 BKN040 M01/M09 Q1003 RESN;",
"01044099999","2008-11-12T15:20:00","4","70.486675","22.139744","6.4","HASVIK, NO","FM-15","ENHK ","V020","300,1,N,0082,1","22000,1,9,N","011265,1,N,1","-0010,1","-0100,1","99999,9","02,5,+01200,1,99,9",,,,"02,99,1,99,9,99,9,99999,9,99,9,99,9",,"10031,1,99999,9","16,1",,,,"MET058METAR ENHK 121520Z 30016KT 9999 VCSH FEW040 M01/M10 Q1003;",
"01044099999","2008-11-13T04:20:00","4","70.486675","22.139744","6.4","HASVIK, NO","FM-15","ENHK ","V020","250,1,N,0072,1","00330,1,9,N","002000,1,N,1","-0010,1","-0040,1","99999,9","09,1,+00330,1,99,9",,,,"09,99,1,99,9,99,9,00025,1,99,9,99,9",,"10081,1,99999,9","88,1",,,"0134,1","MET062METAR ENHK 130420Z 25014G26KT 2000 SHSNGS VV011 M01/M04 Q1008;",
"01044099999","2008-11-13T04:50:00","4","70.486675","22.139744","6.4","HASVIK, NO","FM-15","ENHK ","V020","250,1,N,0067,1","00450,1,C,N","008000,1,N,1","-0010,1","-0030,1","99999,9","02,5,+00300,1,99,9","04,5,+00450,1,99,9","02,5,+00750,1,09,5","07,5,+01020,1,99,9","07,99,1,99,9,99,9,99999,9,99,9,99,9",,"10081,1,99999,9","16,1",,,,"MET088METAR ENHK 130450Z 25013KT 8000 VCSH FEW010 SCT015 FEW025CB BKN034 M01/M03 Q1008 RESNGS;",
"01044099999","2008-11-13T05:50:00","4","70.486675","22.139744","6.4","HASVIK, NO","FM-15","ENHK ","V020","260,1,N,0093,1","00120,1,9,N","000500,1,N,1","-0020,1","-0030,1","99999,9","09,1,+00120,1,99,9",,,,"09,99,1,99,9,99,9,00025,1,99,9,99,9",,"10091,1,99999,9","86,5",,,"0154,1","MET061METAR ENHK 130550Z 26018G30KT 0500 +SHSN VV004 M02/M03 Q1009;",
"01044099999","2008-11-13T06:20:00","4","70.486675","22.139744","6.4","HASVIK, NO","FM-15","ENHK ","V020","240,1,N,0077,1","99999,9,C,N","008000,1,N,1","-0020,1","-0030,1","99999,9","02,5,+00300,1,99,9","04,5,+00450,1,99,9",,,"04,99,1,99,9,99,9,99999,9,99,9,99,9",,"10081,1,99999,9","16,1",,,"0139,1","MET074METAR ENHK 130620Z 24015G27KT 8000 VCSH FEW010 SCT015 M02/M03 Q1008 /RESN;","P01 004503SCOCIG"
"01044099999","2008-11-13T13:20:00","4","70.486675","22.139744","6.4","HASVIK, NO","FM-15","ENHK ","V020","230,1,N,0046,1","99999,9,C,N","011265,1,N,1","+0000,1","-0060,1","99999,9","02,5,+00600,1,99,9","04,5,+01140,1,99,9",,,"04,99,1,99,9,99,9,99999,9,99,9,99,9",,"10071,1,99999,9",,,,,"MET059METAR ENHK 131320Z 23009KT 9999 FEW020 SCT038 00/M06 Q1007;","P01 011403SCOCIG"
"01044099999","2008-11-13T13:50:00","4","70.486675","22.139744","6.4","HASVIK, NO","FM-15","ENHK ","V020","230,1,N,0072,1","99999,9,C,N","011265,1,N,1","+0000,1","-0070,1","99999,9","02,5,+00600,1,99,9","04,5,+01170,1,99,9",,,"04,99,1,99,9,99,9,99999,9,99,9,99,9",,"10071,1,99999,9",,,,,"MET059METAR ENHK 131350Z 23014KT 9999 FEW020 SCT039 00/M07 Q1007;","P01 011703SCOCIG"
"01044099999","2008-11-13T15:20:00","4","70.486675","22.139744","6.4","HASVIK, NO","FM-15","ENHK ","V020","240,1,N,0046,1","22000,1,9,N","011265,1,N,1","+0010,1","-0070,1","99999,9","04,5,+01170,5,99,9",,,,,,"10070,1,99999,9",,,,,"MET061METAR ENHK 131520Z 24009KT 210V270 99999 SCT039 01/M07 Q1007;",
"01044099999","2008-11-14T04:20:00","4","70.486675","22.139744","6.4","HASVIK, NO","FM-15","ENHK ","V020","100,1,N,0062,1","22000,1,9,N","011265,1,N,1","+0000,1","-0050,1","99999,9",,,,,"00,99,1,99,9,99,9,99999,9,99,9,99,9",,"09980,1,99999,9",,,,,"MET049METAR ENHK 140420Z 10012KT 9999 NSC 00/M05 Q0998;","Q01    003SCCGA1"
"01044099999","2008-11-14T04:50:00","4","70.486675","22.139744","6.4","HASVIK, NO","FM-15","ENHK ","V020","100,1,N,0057,1","99999,9,C,Y","009900,1,N,1","+0000,1","-0060,1","99999,9",,,,,,,"09980,1,99999,9",,,,,"MET047METAR ENHK 140450Z 10011KT CAVOK M00/M06 Q0998;",
"01044099999","2008-11-14T05:20:00","4","70.486675","22.139744","6.4","HASVIK, NO","FM-15","ENHK ","V020","100,1,N,0062,1","99999,9,C,Y","009900,1,N,1","-0010,1","-0060,1","99999,9",,,,,,,"09970,1,99999,9",,,,,"MET047METAR ENHK 140520Z 10012KT CAVOK M01/M06 Q0997;",
"01044099999","2008-11-14T05:50:00","4","70.486675","22.139744","6.4","HASVIK, NO","FM-15","ENHK ","V020","100,1,N,0077,1","99999,9,C,Y","009900,1,N,1","-0010,1","-0060,1","99999,9",,,,,,,"09959,1,99999,9",,,,,"MET047METAR ENHK 140550Z 10015KT CAVOK M01/M06 Q0996;",
"01044099999","2008-11-14T06:20:00","4","70.486675","22.139744","6.4","HASVIK, NO","FM-15","ENHK ","V020","100,1,N,0082,1","99999,9,C,Y","009900,1,N,1","+0000,1","-0060,1","99999,9",,,,,,,"09959,1,99999,9",,,,,"MET047METAR ENHK 140620Z 10016KT CAVOK M00/M06 Q0996;",
"01044099999","2008-11-14T13:20:00","4","70.486675","22.139744","6.4","HASVIK, NO","FM-15","ENHK ","V020","120,1,N,0051,1","01500,1,C,N","011265,1,N,1","+0000,1","-0080,1","99999,9","02,5,+00900,1,99,9","07,5,+01500,1,99,9",,,"07,99,1,99,9,99,9,99999,9,99,9,99,9",,"09892,1,99999,9","16,1",,,,"MET065METAR ENHK 141320Z 12010KT 9999 VCSH FEW030 BKN050 M00/M08 Q0989;",
"01044099999","2008-11-14T13:50:00","4","70.486675","22.139744","6.4","HASVIK, NO","FM-15","ENHK ","V020","130,1,N,0051,1","01500,1,C,N","011265,1,N,1","+0000,1","-0070,1","99999,9","02,5,+00900,1,99,9","07,5,+01500,1,99,9",,,"07,99,1,99,9,99,9,99999,9,99,9,99,9",,"09892,1,99999,9","16,1",,,,"MET064METAR ENHK 141350Z 13010KT 9999 VCSH FEW030 BKN050 00/M07 Q0989;",
"01044099999","2008-11-14T14:20:00","4","70.486675","22.139744","6.4","HASVIK, NO","FM-15","ENHK ","V020","150,1,N,0051,1","01500,1,C,N","011265,1,N,1","+0010,1","-0070,1","99999,9","04,5,+00900,1,99,9","07,5,+01500,1,99,9",,,"07,99,1,99,9,99,9,99999,9,99,9,99,9",,"09892,1,99999,9",,,,,"MET059METAR ENHK 141420Z 15010KT 9999 SCT030 BKN050 01/M07 Q0989;",
"01044099999","2008-11-14T15:20:00","4","70.486675","22.139744","6.4","HASVIK, NO","FM-15","ENHK ","V020","120,1,N,0057,1","01200,1,C,N","011265,1,N,1","+0010,1","-0030,1","99999,9","02,5,+00900,1,99,9","07,5,+01200,1,99,9",,,"07,99,1,99,9,99,9,99999,9,99,9,99,9",,"09892,1,99999,9",,,,,"MET059METAR ENHK 141520Z 12011KT 9999 FEW030 BKN040 01/M03 Q0989;",
"01044099999","2008-11-16T12:50:00","4","70.486675","22.139744","6.4","HASVIK, NO","FM-15","ENHK ","V020","230,1,N,0031,1","01050,1,C,N","011265,1,N,1","+0000,1","-0030,1","99999,9","02,5,+00750,1,99,9","04,5,+01050,1,99,9","07,5,+01200,1,99,9",,"07,99,1,99,9,99,9,99999,9,99,9,99,9",,"09980,1,99999,9",,,,,"MET066METAR ENHK 161250Z 23006KT 9999 FEW025 SCT035 BKN040 00/M03 Q0998;",
"01044099999","2008-11-16T13:20:00","4","70.486675","22.139744","6.4","HASVIK, NO","FM-15","ENHK ","V020","230,1,N,0036,1","00300,1,C,N","003000,1,N,1","+0000,1","-0020,1","99999,9","02,5,+00150,1,99,9","04,5,+00300,1,99,9","07,5,+00450,1,99,9",,"07,99,1,99,9,99,9,99999,9,99,9,99,9",,"09990,1,99999,9","86,5",,,,"MET072METAR ENHK 161320Z 23007KT 3000 SHSN FEW005 SCT010 BKN015 M00/M02 Q0999;",
"01044099999","2008-11-16T13:50:00","4","70.486675","22.139744","6.4","HASVIK, NO","FM-15","ENHK ","V020","230,1,N,0021,1","00300,1,C,N","003000,1,N,1","+0000,1","-0020,1","99999,9","02,5,+00150,1,99,9","04,5,+00300,1,99,9","07,5,+00450,1,99,9",,"07,99,1,99,9,99,9,99999,9,99,9,99,9",,"09980,1,99999,9","86,5",,,,"MET072METAR ENHK 161350Z 23004KT 3000 SHSN FEW005 SCT010 BKN015 M00/M02 Q0998;",
"01044099999","2008-11-16T14:20:00","4","70.486675","22.139744","6.4","HASVIK, NO","FM-15","ENHK ","V020","250,1,N,0021,1","01050,1,C,N","011265,1,N,1","-0010,1","-0030,1","99999,9","04,5,+00750,1,99,9","07,5,+01050,1,99,9",,,"07,99,1,99,9,99,9,99999,9,99,9,99,9",,"09980,1,99999,9",,,,,"MET060METAR ENHK 161420Z 25004KT 9999 SCT025 BKN035 M01/M03 Q0998;",
"01044099999","2008-11-16T14:50:00","4","70.486675","22.139744","6.4","HASVIK, NO","FM-15","ENHK ","V020","190,1,N,0036,1","00900,1,C,N","011265,1,N,1","+0000,1","-0030,1","99999,9","04,5,+00600,1,99,9","07,5,+00900,1,99,9",,,"07,99,1,99,9,99,9,99999,9,99,9,99,9",,"09980,1,99999,9",,,,,"MET059METAR ENHK 161450Z 19007KT 9999 SCT020 BKN030 00/M03 Q0998;",
"01044099999","2008-11-16T15:20:00","4","70.486675","22.139744","6.4","HASVIK, NO","FM-15","ENHK ","V020","240,1,N,0041,1","00300,1,9,N","002000,1,N,1","+0000,1","-0030,1","99999,9","09,1,+00300,1,99,9",,,,"09,99,1,99,9,99,9,00025,1,99,9,99,9",,"09980,1,99999,9","86,5",,,,"MET057METAR ENHK 161520Z 24008KT 2000 SHSN VV010 M00/M03 Q0998;",
"01044099999","2008-11-17T04:20:00","4","70.486675","22.139744","6.4","HASVIK, NO","FM-15","ENHK ","V020","999,9,V,0005,1","22000,1,9,N","011265,1,N,1","-0040,1","-0060,1","99999,9","02,5,+00510,1,99,9",,,,"02,99,1,99,9,99,9,99999,9,99,9,99,9",,"09980,1,99999,9","16,1",,,,"MET058METAR ENHK 170420Z VRB01KT 9999 VCSH FEW017 M04/M06 Q0998;",
"01044099999","2008-11-17T04:50:00","4","70.486675","22.139744","6.4","HASVIK, NO","FM-15","ENHK ","V020","999,9,V,0010,1","99999,9,C,N","011265,1,N,1","-0040,1","-0050,1","99999,9","02,5,+00510,1,99,9","04,5,+01200,1,99,9",,,"04,99,1,99,9,99,9,99999,9,99,9,99,9",,"09980,1,99999,9",,,,,"MET060METAR ENHK 170450Z VRB02KT 9999 FEW017 SCT040 M04/M05 Q0998;","P01 012003SCOCIG"
"01044099999","2008-11-17T05:50:00","4","70.486675","22.139744","6.4","HASVIK, NO","FM-15","ENHK ","V020","999,9,V,0010,1","22000,1,9,N","011265,1,N,1","-0050,1","-0050,1","99999,9","02,5,+00540,1,99,9",,,,"02,99,1,99,9,99,9,99999,9,99,9,99,9",,"09980,1,99999,9",,,,,"MET053METAR ENHK 170550Z VRB02KT 9999 FEW018 M05/M05 Q0998;",
"01044099999","2008-11-17T06:20:00","4","70.486675","22.139744","6.4","HASVIK, NO","FM-15","ENHK ","V020","999,9,V,0005,1","01440,1,C,N","011265,1,N,1","-0040,1","-0050,1","99999,9","02,5,+00540,1,99,9","07,5,+01440,1,99,9",,,"07,99,1,99,9,99,9,99999,9,99,9,99,9",,"09980,1,99999,9","16,1",,,,"MET065METAR ENHK 170620Z VRB01KT 9999 VCSH FEW018 BKN048 M04/M05 Q0998;",
"01044099999","2008-11-17T06:50:00","4","70.486675","22.139744","6.4","HASVIK, NO","FM-15","ENHK ","V020","250,1,N,0093,1","01110,1,C,N","004000,1,N,1","+0000,1","-0010,1","99999,9","02,5,+00510,1,99,9","07,5,+01110,1,99,9",,,"07,99,1,99,9,99,9,99999,9,99,9,99,9",,"09980,1,99999,9","85,5",,,,"MET075METAR ENHK 170650Z 25018KT 200V270 4000W -SHSN FEW017 BKN037 M00/M01 Q0998;",
"01044099999","2008-11-17T09:50:00","4","70.486675","22.139744","6.4","HASVIK, NO","FM-15","ENHK ","V020","250,1,N,0082,1","00240,1,9,N","001200,1,N,1","-0010,1","-0020,1","99999,9","09,1,+00240,1,99,9",,,,"09,99,1,99,9,99,9,00025,1,99,9,99,9",,"09970,1,99999,9","86,5",,,,"MET057METAR ENHK 170950Z 25016KT 1200 SHSN VV008 M01/M02 Q0997;",
"01044099999","2008-11-17T13:20:00","4","70.486675","22.139744","6.4","HASVIK, NO","FM-15","ENHK ","V020","230,1,N,0062,1","00750,1,C,N","011265,1,N,1","-0010,1","-0040,1","99999,9","04,5,+00450,1,99,9","07,5,+00750,1,99,9",,,"07,99,1,99,9,99,9,99999,9,99,9,99,9",,"09949,1,99999,9","85,5",,,,"MET066METAR ENHK 171320Z 23012KT 9999 -SHSN SCT015 BKN025 M01/M04 Q0995;",
"01044099999","2008-11-17T13:50:00","4","70.486675","22.139744","6.4","HASVIK, NO","FM-15","ENHK ","V020","220,1,N,0051,1","99999,9,C,N","011265,1,N,1","-0010,1","-0050,1","99999,9","02,5,+00750,1,99,9","04,5,+01500,1,99,9",,,"04,99,1,99,9,99,9,99999,9,99,9,99,9",,"09939,1,99999,9","16,1",,,,"MET065METAR ENHK 171350Z 22010KT 9999 VCSH FEW025 SCT050 M01/M05 Q0994;","P01 015003SCOCIG"
"01044099999","2008-11-17T14:20:00","4","70.486675","22.139744","6.4","HASVIK, NO","FM-15","ENHK ","V020","220,1,N,0051,1","01350,1,C,N","011265,1,N,1","+0000,1","-0050,1","99999,9","02,5,+00750,1,99,9","07,5,+01350,1,99,9",,,"07,99,1,99,9,99,9,99999,9,99,9,99,9",,"09929,1,99999,9","16,1",,,,"MET065METAR ENHK 171420Z 22010KT 9999 VCSH FEW025 BKN045 M00/M05 Q0993;",
"01044099999","2008-11-17T14:50:00","4","70.486675","22.139744","6.4","HASVIK, NO","FM-15","ENHK ","V020","210,1,N,0041,1","01350,1,C,N","011265,1,N,1","+0000,1","-0060,1","99999,9","02,5,+00750,1,99,9","07,5,+01350,1,99,9",,,"07,99,1,99,9,99,9,99999,9,99,9,99,9",,"09929,1,99999,9",,,,,"MET060METAR ENHK 171450Z 21008KT 9999 FEW025 BKN045 M00/M06 Q0993;",
"01044099999","2008-11-17T15:20:00","4","70.486675","22.139744","6.4","HASVIK, NO","FM-15","ENHK ","V020","170,1,N,0036,1","01350,1,C,N","011265,1,N,1","-0010,1","-0050,1","99999,9","07,5,+01350,1,99,9",,,,"07,99,1,99,9,99,9,99999,9,99,9,99,9",,"09919,1,99999,9",,,,,"MET061METAR ENHK 171520Z 17007KT 130V210 9999 BKN045 M01/M05 Q0992;",
"01044099999","2008-11-17T15:50:00","4","70.486675","22.139744","6.4","HASVIK, NO","FM-15","ENHK ","V020","170,1,N,0051,1","01350,1,C,N","011265,1,N,1","-0010,1","-0060,1","99999,9","07,5,+01350,1,99,9",,,,"07,99,1,99,9,99,9,99999,9,99,9,99,9",,"09919,1,99999,9",,,,,"MET053METAR ENHK 171550Z 17010KT 9999 BKN045 M01/M06 Q0992;",
"01044099999","2008-11-18T04:20:00","4","70.486675","22.139744","6.4","HASVIK, NO","FM-15","ENHK ","V020","100,1,N,0057,1","99999,9,C,Y","009900,1,N,1","+0000,1","-0030,1","99999,9",,,,,,,"09749,1,99999,9",,,,,"MET046METAR ENHK 180420Z 10011KT CAVOK 00/M03 Q0975;",
"01044099999","2008-11-18T04:50:00","4","70.486675","22.139744","6.4","HASVIK, NO","FM-15","ENHK ","V020","110,1,N,0057,1","99999,9,C,Y","009900,1,N,1","+0000,1","-0030,1","99999,9",,,,,,,"09749,1,99999,9",,,,,"MET046METAR ENHK 180450Z 11011KT CAVOK 00/M03 Q0975;",
"01044099999","2008-11-18T05:20:00","4","70.486675","22.139744","6.4","HASVIK, NO","FM-15","ENHK ","V020","100,1,N,0051,1","22000,1,9,N","011265,1,N,1","+0000,1","-0030,1","99999,9","02,5,+00750,1,99,9",,,,"02,99,1,99,9,99,9,99999,9,99,9,99,9",,"09739,1,99999,9",,,,,"MET052METAR ENHK 180520Z 10010KT 9999 FEW025 00/M03 Q0974;",
"01044099999","2008-11-18T05:50:00","4","70.486675","22.139744","6.4","HASVIK, NO","FM-15","ENHK ","V020","110,1,N,0062,1","22000,1,9,N","011265,1,N,1","+0010,1","-0030,1","99999,9","04,5,+00750,1,99,9",,,,"04,99,1,99,9,99,9,99999,9,99,9,99,9",,"09739,1,99999,9",,,,,"MET052METAR ENHK 180550Z 11012KT 9999 SCT025 01/M03 Q0974;",
"01044099999","2008-11-18T06:50:00","4","70.486675","22.139744","6.4","HASVIK, NO","FM-15","ENHK ","V020","100,1,N,0051,1","02700,1,C,N","011265,1,N,1","+0010,1","-0030,1","99999,9","02,5,+00750,1,99,9","07,5,+02700,1,99,9",,,"07,99,1,99,9,99,9,99999,9,99,9,99,9",,"09739,1,99999,9",,,,,"MET059METAR ENHK 180650Z 10010KT 9999 FEW025 BKN090 01/M03 Q0974;",
"01044099999","2008-11-18T13:20:00","4","70.486675","22.139744","6.4","HASVIK, NO","FM-15","ENHK ","V020","100,1,N,0046,1","00630,1,C,N","011265,1,N,1","+0010,1","-0010,1","99999,9","02,5,+00420,1,99,9","07,5,+00630,1,99,9",,,"07,99,1,99,9,99,9,99999,9,99,9,99,9",,"09719,1,99999,9","16,1",,,,"MET064METAR ENHK 181320Z 10009KT 9999 VCSH FEW014 BKN021 01/M01 Q0972;",
"01044099999","2008-11-18T13:50:00","4","70.486675","22.139744","6.4","HASVIK, NO","FM-15","ENHK ","V020","090,1,N,0041,1","00600,1,C,N","011265,1,N,1","+0010,1","-0010,1","99999,9","02,5,+00420,1,99,9","07,5,+00600,1,99,9",,,"07,99,1,99,9,99,9,99999,9,99,9,99,9",,"09719,1,99999,9","16,1",,,,"MET064METAR ENHK 181350Z 09008KT 9999 VCSH FEW014 BKN020 01/M01 Q0972;",
"01044099999","2008-11-18T15:20:00","4","70.486675","22.139744","6.4","HASVIK, NO","FM-15","ENHK ","V020","110,1,N,0041,1","00810,1,C,N","011265,1,N,1","+0020,1","+0000,1","99999,9","02,5,+00420,1,99,9","04,5,+00810,1,99,9","07,1,+01500,1,99,9",,"07,99,1,99,9,99,9,99999,9,99,9,99,9",,"09709,1,99999,9",,,,,"MET065METAR ENHK 181520Z 11008KT 9999 FEW014 SCT027 BKN05002/M00 Q0971;",
"01044099999","2008-11-19T04:20:00","4","70.486675","22.139744","6.4","HASVIK, NO","FM-15","ENHK ","V020","240,1,N,0041,1","01650,5,C,N","011265,1,N,1","+0010,1","-0050,1","99999,9","02,5,+00900,1,99,9","07,5,+01650,5,99,9",,,"07,99,1,99,9,99,9,99999,9,99,9,99,9",,"09719,1,99999,9",,,,,"MET059METAR ENHK 190420Z 24008KT 9999 FEW030 BKN055 01/M05 Q0972;",
"01044099999","2008-11-19T04:50:00","4","70.486675","22.139744","6.4","HASVIK, NO","FM-15","ENHK ","V020","240,1,N,0036,1","01800,1,C,N","011265,1,N,1","+0010,1","-0050,1","99999,9","02,5,+00900,1,99,9","07,5,+01800,1,99,9",,,"07,99,1,99,9,99,9,99999,9,99,9,99,9",,"09709,1,99999,9",,,,,"MET059METAR ENHK 190450Z 24007KT 9999 FEW030 BKN060 01/M05 Q0971;",
"01044099999","2008-11-19T05:20:00","4","70.486675","22.139744","6.4","HASVIK, NO","FM-15","ENHK ","V020","260,1,N,0031,1","01800,1,C,N","011265,1,N,1","+0010,1","-0050,1","99999,9","02,5,+00900,1,99,9","07,5,+01800,1,99,9",,,"07,99,1,99,9,99,9,99999,9,99,9,99,9",,"09719,1,99999,9",,,,,"MET059METAR ENHK 190520Z 26006KT 9999 FEW030 BKN060 01/M05 Q0972;",
"01044099999","2008-11-19T05:50:00","4","70.486675","22.139744","6.4","HASVIK, NO","FM-15","ENHK ","V020","260,1,N,0041,1","01800,1,C,N","011265,1,N,1","+0020,1","-0050,1","99999,9","02,5,+01050,1,99,9","07,5,+01800,1,99,9",,,"07,99,1,99,9,99,9,99999,9,99,9,99,9",,"09709,1,99999,9",,,,,"MET059METAR ENHK 190550Z 26008KT 9999 FEW035 BKN060 02/M05 Q0971;",
"01044099999","2008-11-19T06:50:00","4","70.486675","22.139744","6.4","HASVIK, NO","FM-15","ENHK ","V020","240,1,N,0031,1","01800,1,C,N","011265,1,N,1","+0010,1","-0060,1","99999,9","02,5,+00900,1,99,9","07,5,+01800,1,99,9",,,"07,99,1,99,9,99,9,99999,9,99,9,99,9",,"09709,1,99999,9",,,,,"MET059METAR ENHK 190650Z 24006KT 9999 FEW030 BKN060 01/M06 Q0971;",
"01044099999","2008-11-19T13:20:00","4","70.486675","22.139744","6.4","HASVIK, NO","FM-15","ENHK ","V020","330,1,N,0005,1","22000,1,9,N","011265,1,N,1","-0030,1","-0070,1","99999,9","02,5,+00900,1,99,9",,,,"02,99,1,99,9,99,9,99999,9,99,9,99,9",,"09699,1,99999,9",,,,,"MET053METAR ENHK 191320Z 33001KT 9999 FEW030 M03/M07 Q0970;",
"01044099999","2008-11-19T13:50:00","4","70.486675","22.139744","6.4","HASVIK, NO","FM-15","ENHK ","V020","999,9,V,0005,1","22000,1,9,N","011265,1,N,1","-0040,1","-0070,1","99999,9","02,5,+01050,1,99,9",,,,"02,99,1,99,9,99,9,99999,9,99,9,99,9",,"09699,1,99999,9",,,,,"MET053METAR ENHK 191350Z VRB01KT 9999 FEW035 M04/M07 Q0970;",
"01044099999","2008-11-19T14:20:00","4","70.486675","22.139744","6.4","HASVIK, NO","FM-15","ENHK ","V020","200,1,N,0005,1","22000,1,9,N","011265,1,N,1","-0050,1","-0080,1","99999,9","02,5,+01050,1,99,9",,,,"02,99,1,99,9,99,9,99999,9,99,9,99,9",,"09699,1,99999,9",,,,,"MET053METAR ENHK 191420Z 20001KT 9999 FEW035 M05/M08 Q0970;",
"01044099999","2008-11-19T15:20:00","4","70.486675","22.139744","6.4","HASVIK, NO","FM-15","ENHK ","V020","999,9,V,0005,1","22000,1,9,N","011265,1,N,1","-0050,1","-0070,1","99999,9","02,5,+01050,1,99,9",,,,"02,99,1,99,9,99,9,99999,9,99,9,99,9",,"09699,1,99999,9",,,,,"MET053METAR ENHK 191520Z VRB01KT 9999 FEW035 M05/M07 Q0970;",
"01044099999","2008-11-20T04:20:00","4","70.486675","22.139744","6.4","HASVIK, NO","FM-15","ENHK ","V020","050,1,N,0082,1","00150,1,9,N","002500,1,N,1","+0020,1","+0000,1","99999,9","09,1,+00150,1,99,9",,,,"09,99,1,99,9,99,9,00025,1,99,9,99,9",,"09688,1,99999,9","61,1","71,1",,"0149,1","MET068METAR ENHK 200420Z 05016G29KT 360V100 2500 -SNRA VV005 02/M00 Q0969;",
"01044099999","2008-11-20T04:50:00","4","70.486675","22.139744","6.4","HASVIK, NO","FM-15","ENHK ","V020","020,1,N,0057,1","00270,1,C,N","005000,1,N,1","+0010,1","-0010,1","99999,9","02,5,+00150,1,99,9","04,5,+00270,1,99,9","07,5,+00420,1,99,9",,"07,99,1,99,9,99,9,99999,9,99,9,99,9",,"09688,1,99999,9","61,1","71,1",,"0108,1","MET083METAR ENHK 200450Z 02011G21KT 340V060 5000 -SNRA FEW005 SCT009 BKN014 01/M01 Q0969;",
"01044099999","2008-11-20T06:20:00","4","70.486675","22.139744","6.4","HASVIK, NO","FM-15","ENHK ","V020","010,1,N,0077,1","00420,1,C,N","008000,1,N,1","+0020,1","+0000,1","99999,9","02,5,+00240,1,99,9","04,5,+00420,1,99,9","07,5,+00540,1,99,9",,"07,99,1,99,9,99,9,99999,9,99,9,99,9",,"09688,1,99999,9","16,1",,,"0144,1","MET089METAR ENHK 200620Z 01015G28KT 340V050 8000 VCSH FEW008 SCT014 BKN018 02/M00 Q0969 RESNRA;",
"01044099999","2008-11-20T13:50:00","4","70.486675","22.139744","6.4","HASVIK, NO","FM-15","ENHK ","V020","050,1,N,0026,1","00420,1,C,N","007000,1,N,1","+0020,1","-0010,1","99999,9","02,5,+00360,1,99,9","04,5,+00420,1,99,9","07,5,+00540,1,99,9",,"07,99,1,99,9,99,9,99999,9,99,9,99,9",,"09709,1,99999,9","80,1",,,,"MET082METAR ENHK 201350Z 05005KT 350V100 7000 -SHSNRA FEW012 SCT014 BKN018 02/M01 Q0971;",
"01044099999","2008-11-20T14:20:00","4","70.486675","22.139744","6.4","HASVIK, NO","FM-15","ENHK ","V020","030,1,N,0036,1","00600,1,C,N","011265,1,N,1","+0020,1","-0020,1","99999,9","02,5,+00420,1,99,9","04,5,+00600,1,99,9","07,5,+01050,1,99,9",,"07,99,1,99,9,99,9,99999,9,99,9,99,9",,"09709,1,99999,9","16,1",,,"0087,1","MET089METAR ENHK 201420Z 03007G17KT 320V080 9999 VCSH FEW014 SCT020 BKN035 02/M02 Q0971 RESNRA;",
"01044099999","2008-11-20T15:20:00","4","70.486675","22.139744","6.4","HASVIK, NO","FM-15","ENHK ","V020","030,1,N,0072,1","00750,1,C,N","011265,1,N,1","+0030,1","-0020,1","99999,9","02,5,+00450,1,99,9","04,5,+00750,1,99,9","07,5,+01350,1,99,9",,"07,99,1,99,9,99,9,99999,9,99,9,99,9",,"09719,1,99999,9","16,1",,,,"MET087METAR ENHK 201520Z 03014KT 350V080 9999 VCSH FEW015 SCT025 BKN045 03/M02 Q0972 -RESNRA;",
"01044099999","2008-11-21T04:50:00","4","70.486675","22.139744","6.4","HASVIK, NO","FM-15","ENHK ","V020","100,1,N,0031,1","00300,1,9,N","003000,1,N,1","-0020,1","-0020,1","99999,9","09,1,+00300,1,99,9",,,,"09,99,1,99,9,99,9,00025,1,99,9,99,9",,"09770,1,99999,9","86,5",,,,"MET057METAR ENHK 210450Z 10006KT 3000 SHSN VV010 M02/M02 Q0977;",
"01044099999","2008-11-21T05:20:00","4","70.486675","22.139744","6.4","HASVIK, NO","FM-15","ENHK ","V020","110,1,N,0036,1","00240,1,C,N","004000,1,N,1","-0010,1","-0010,1","99999,9","02,5,+00150,1,99,9","04,5,+00240,1,99,9","07,5,+00360,1,99,9",,"07,99,1,99,9,99,9,99999,9,99,9,99,9",,"09770,1,99999,9","85,5",,,,"MET073METAR ENHK 210520Z 11007KT 4000 -SHSN FEW005 SCT008 BKN012 M01/M01 Q0977;",
"01044099999","2008-11-21T06:50:00","4","70.486675","22.139744","6.4","HASVIK, NO","FM-15","ENHK ","V020","100,1,N,0062,1","99999,9,C,N","011265,1,N,1","-0020,1","-0020,1","99999,9","02,5,+00900,1,99,9","04,5,+02250,5,99,9",,,"04,99,1,99,9,99,9,99999,9,99,9,99,9",,"09770,1,99999,9",,,,,"MET060METAR ENHK 210650Z 10012KT 9999 FEW030 SCT075 M02/M02 Q0977;","P01 022503SCOCIG"
"01044099999","2008-11-21T08:50:00","4","70.486675","22.139744","6.4","HASVIK, NO","FM-15","ENHK ","V020","999,9,V,0010,1","22000,1,9,N","011265,1,N,1","-0040,1","-0060,1","99999,9","02,5,+01050,1,99,9",,,,"02,99,1,99,9,99,9,99999,9,99,9,99,9",,"09790,1,99999,9",,,,,"MET053METAR ENHK 210850Z VRB02KT 9999 FEW035 M04/M06 Q0979;",
"01044099999","2008-11-21T11:20:00","4","70.486675","22.139744","6.4","HASVIK, NO","FM-15","ENHK ","V020","999,9,V,0010,1","99999,9,C,N","011265,1,N,1","-0030,1","-0060,1","99999,9","02,5,+00450,1,99,9","04,5,+02700,1,99,9",,,"04,99,1,99,9,99,9,99999,9,99,9,99,9",,"09800,1,99999,9","16,1",,,,"MET065METAR ENHK 211120Z VRB02KT 9999 VCSH FEW015 SCT090 M03/M06 Q0980;","P01 027003SCOCIG"
"01044099999","2008-11-21T12:20:00","4","70.486675","22.139744","6.4","HASVIK, NO","FM-15","ENHK ","V020","020,1,N,0031,1","00180,1,9,N","000800,1,N,1","+0000,1","-0020,1","99999,9","09,1,+00180,1,99,9",,,,"09,99,1,99,9,99,9,00025,1,99,9,99,9",,"09810,1,99999,9","86,5",,,,"MET065METAR ENHK 211220Z 02006KT 340V070 0800 SHSN VV006 M00/M02 Q0981;",
"01044099999","2008-11-21T12:50:00","4","70.486675","22.139744","6.4","HASVIK, NO","FM-15","ENHK ","V020","300,1,N,0026,1","99999,9,C,N","011265,1,N,1","-0010,1","-0030,1","99999,9","02,5,+00450,1,99,9","04,5,+01290,1,99,9",,,"04,99,1,99,9,99,9,99999,9,99,9,99,9",,"09810,1,99999,9","16,1",,,,"MET078METAR ENHK 211250Z 30005KT 270V350 9999 VCSH FEW015 SCT043 M01/M03 Q0981 RESN;","P01 012903SCOCIG"
"01044099999","2008-11-21T13:50:00","4","70.486675","22.139744","6.4","HASVIK, NO","FM-15","ENHK ","V020","360,1,N,0036,1","99999,9,C,N","011265,1,N,1","+0000,1","-0020,1","99999,9","02,5,+00450,1,99,9","04,5,+01080,1,99,9",,,"04,99,1,99,9,99,9,99999,9,99,9,99,9",,"09810,1,99999,9","16,1",,,,"MET065METAR ENHK 211350Z 36007KT 9999 VCSH FEW015 SCT036 M00/M02 Q0981;","P01 010803SCOCIG"
"01044099999","2008-11-21T14:50:00","4","70.486675","22.139744","6.4","HASVIK, NO","FM-15","ENHK ","V020","330,1,N,0021,1","00900,1,C,N","011265,1,N,1","-0010,1","-0020,1","99999,9","02,5,+00450,1,99,9","04,5,+00900,1,99,9","07,5,+02250,5,99,9",,"07,99,1,99,9,99,9,99999,9,99,9,99,9",,"09810,1,99999,9","16,1",,,,"MET085METAR ENHK 211450Z 33004KT 000V360 9999 VCSH FEW015 SCT030 BKN075 M01/M02 Q0981 RESN;",
"01044099999","2008-11-23T12:50:00","4","70.486675","22.139744","6.4","HASVIK, NO","FM-15","ENHK ","V020","100,1,N,0057,1","22000,1,9,N","011265,1,N,1","-0010,1","-0050,1","99999,9","02,5,+00750,1,99,9",,,,"02,99,1,99,9,99,9,99999,9,99,9,99,9",,"10108,1,99999,9",,,,,"MET053METAR ENHK 231250Z 10011KT 9999 FEW025 M01/M05 Q1011;",
"01044099999","2008-11-23T13:20:00","4","70.486675","22.139744","6.4","HASVIK, NO","FM-15","ENHK ","V020","090,1,N,0046,1","22000,1,9,N","011265,1,N,1","-0020,1","-0060,1","99999,9","02,5,+00750,1,99,9",,,,"02,99,1,99,9,99,9,99999,9,99,9,99,9",,"10108,1,99999,9",,,,,"MET053METAR ENHK 231320Z 09009KT 9999 FEW025 M02/M06 Q1011;",
"01044099999","2008-11-23T14:50:00","4","70.486675","22.139744","6.4","HASVIK, NO","FM-15","ENHK ","V020","080,1,N,0046,1","22000,1,9,N","011265,1,N,1","-0020,1","-0060,1","99999,9","02,5,+00750,1,99,9",,,,"02,99,1,99,9,99,9,99999,9,99,9,99,9",,"10108,1,99999,9",,,,,"MET061METAR ENHK 231450Z 08009KT 040V120 9999 FEW025 M02/M06 Q1011;",
"01044099999","2008-11-24T04:20:00","4","70.486675","22.139744","6.4","HASVIK, NO","FM-15","ENHK ","V020","080,1,N,0108,1","99999,9,C,N","011265,1,N,1","+0010,1","-0040,1","99999,9","02,5,+00480,1,99,9","04,5,+01170,1,99,9",,,"04,99,1,99,9,99,9,99999,9,99,9,99,9",,"10081,1,99999,9","38,1",,,"0170,1","MET067METAR ENHK 240420Z 08021G33KT 9999 BLSN FEW016 SCT039 01/M04 Q1008;","P01 011703SCOCIG"
"01044099999","2008-11-24T04:50:00","4","70.486675","22.139744","6.4","HASVIK, NO","FM-15","ENHK ","V020","090,1,N,0123,1","99999,9,C,N","011265,1,N,1","+0010,1","-0050,1","99999,9","02,5,+00480,1,99,9","04,5,+01140,1,99,9",,,"04,99,1,99,9,99,9,99999,9,99,9,99,9",,"10081,1,99999,9","38,1",,,"0211,1","MET067METAR ENHK 240450Z 09024G41KT 9999 BLSN FEW016 SCT038 01/M05 Q1008;","P01 011403SCOCIG"
"01044099999","2008-11-24T05:20:00","4","70.486675","22.139744","6.4","HASVIK, NO","FM-15","ENHK ","V020","100,1,N,0067,1","99999,9,C,N","011265,1,N,1","+0010,1","-0060,1","99999,9","02,5,+00510,1,99,9","04,5,+01170,1,99,9",,,"04,99,1,99,9,99,9,99999,9,99,9,99,9",,"10081,1,99999,9",,,,"0134,1","MET062METAR ENHK 240520Z 10013G26KT 9999 FEW017 SCT039 01/M06 Q1008;","P01 011703SCOCIG"
"01044099999","2008-11-24T05:50:00","4","70.486675","22.139744","6.4","HASVIK, NO","FM-15","ENHK ","V020","100,1,N,0072,1","99999,9,C,N","011265,1,N,1","+0010,1","-0050,1","99999,9","02,5,+00510,1,99,9","04,5,+01170,1,99,9",,,"04,99,1,99,9,99,9,99999,9,99,9,99,9",,"10081,1,99999,9",,,,,"MET067METAR ENHK 240550Z 10014KT 030V140 9999 FEW017 SCT039 01/M05 Q1008;","P01 011703SCOCIG"
"01044099999","2008-11-24T06:20:00","4","70.486675","22.139744","6.4","HASVIK, NO","FM-15","ENHK ","V020","090,1,N,0057,1","99999,9,C,N","011265,1,N,1","+0010,1","-0040,1","99999,9","02,5,+00570,1,99,9","04,5,+01200,1,99,9",,,"04,99,1,99,9,99,9,99999,9,99,9,99,9",,"10081,1,99999,9",,,,,"MET059METAR ENHK 240620Z 09011KT 9999 FEW019 SCT040 01/M04 Q1008;","P01 012003SCOCIG"
"01044099999","2008-11-24T06:50:00","4","70.486675","22.139744","6.4","HASVIK, NO","FM-15","ENHK ","V020","090,1,N,0077,1","01140,1,C,N","011265,1,N,1","+0010,1","-0030,1","99999,9","04,5,+00510,1,99,9","07,5,+01140,1,99,9",,,"07,99,1,99,9,99,9,99999,9,99,9,99,9",,"10071,1,99999,9","85,5",,,,"MET065METAR ENHK 240650Z 09015KT 9999 -SHSN SCT017 BKN038 01/M03 Q1007;",
"01044099999","2008-11-24T07:50:00","4","70.486675","22.139744","6.4","HASVIK, NO","FM-15","ENHK ","V020","090,1,N,0098,1","01080,1,C,N","009000,1,N,1","+0010,1","-0030,1","99999,9","04,5,+00480,1,99,9","07,5,+01080,1,99,9",,,"07,99,1,99,9,99,9,99999,9,99,9,99,9",,"10071,1,99999,9","85,5",,,,"MET065METAR ENHK 240750Z 09019KT 9000 -SHSN SCT016 BKN036 01/M03 Q1007;",
"01044099999","2008-11-24T09:50:00","4","70.486675","22.139744","6.4","HASVIK, NO","FM-15","ENHK ","V020","090,1,N,0087,1","01050,1,C,N","011265,1,N,1","+0010,1","-0040,1","99999,9","04,5,+00510,1,99,9","07,5,+01050,1,99,9",,,"07,99,1,99,9,99,9,99999,9,99,9,99,9",,"10071,1,99999,9",,,,,"MET059METAR ENHK 240950Z 09017KT 9999 SCT017 BKN035 01/M04 Q1007;",
"01044099999","2008-11-24T11:50:00","4","70.486675","22.139744","6.4","HASVIK, NO","FM-15","ENHK ","V020","090,1,N,0108,1","01050,1,C,N","011265,1,N,1","+0010,1","-0060,1","99999,9","02,5,+00510,1,99,9","07,5,+01050,1,99,9",,,"07,99,1,99,9,99,9,99999,9,99,9,99,9",,"10071,1,99999,9",,,,,"MET059METAR ENHK 241150Z 09021KT 9999 FEW017 BKN035 01/M06 Q1007;",
"01044099999","2008-11-24T12:50:00","4","70.486675","22.139744","6.4","HASVIK, NO","FM-15","ENHK ","V020","120,1,N,0129,1","01080,1,C,N","011265,1,N,1","+0010,1","-0050,1","99999,9","02,5,+00450,1,99,9","07,5,+01080,1,99,9",,,"07,99,1,99,9,99,9,99999,9,99,9,99,9",,"10071,1,99999,9","36,1","85,5",,,"MET071METAR ENHK 241250Z 12025KT 9999 -DRSN -SHSN FEW015 BKN036 01/M05 Q1007;",
"01044099999","2008-11-24T13:50:00","4","70.486675","22.139744","6.4","HASVIK, NO","FM-15","ENHK ","V020","120,1,N,0113,1","00750,1,C,N","011265,1,N,1","+0010,1","-0040,1","99999,9","02,5,+00450,1,99,9","04,5,+00750,1,99,9","07,5,+01200,1,99,9",,"07,99,1,99,9,99,9,99999,9,99,9,99,9",,"10071,1,99999,9","16,1","36,1",,,"MET083METAR ENHK 241350Z 12022KT 9999 -DRSN VCSH FEW015 SCT025 BKN040 01/M04 Q1007 -RESN;",
"01044099999","2008-11-24T14:20:00","4","70.486675","22.139744","6.4","HASVIK, NO","FM-15","ENHK ","V020","100,1,N,0103,1","00780,1,C,N","011265,1,N,1","+0000,1","-0040,1","99999,9","02,5,+00510,1,99,9","04,5,+00780,1,99,9","07,5,+01350,1,99,9",,"07,99,1,99,9,99,9,99999,9,99,9,99,9",,"10071,1,99999,9","16,1","36,1",,,"MET083METAR ENHK 241420Z 10020KT 9999 -DRSN VCSH FEW017 SCT026 BKN045 00/M04 Q1007 -RESN;",
"01044099999","2008-11-24T14:50:00","4","70.486675","22.139744","6.4","HASVIK, NO","FM-15","ENHK ","V020","090,1,N,0103,1","00780,1,C,N","011265,1,N,1","+0000,1","-0040,1","99999,9","02,5,+00510,1,99,9","04,5,+00780,1,99,9","07,5,+01200,1,99,9",,"07,99,1,99,9,99,9,99999,9,99,9,99,9",,"10071,1,99999,9","36,1",,,,"MET078METAR ENHK 241450Z 09020KT 9999 -DRSN FEW017 SCT026 BKN040 M00/M04 Q1007 RESN;",
"01044099999","2008-11-25T04:20:00","4","70.486675","22.139744","6.4","HASVIK, NO","FM-15","ENHK ","V020","999,9,N,0093,1","99999,9,C,N","011265,1,N,1","-0010,1","-0070,1","99999,9","02,5,+00720,1,99,9","04,5,+01170,1,99,9",,,"04,99,1,99,9,99,9,99999,9,99,9,99,9",,"10061,1,99999,9",,,,,"MET060METAR ENHK 250420Z 10418KT 9999 FEW024 SCT039 M01/M07 Q1006;","P01 011703SCOCIG"
"01044099999","2008-11-25T04:50:00","4","70.486675","22.139744","6.4","HASVIK, NO","FM-15","ENHK ","V020","150,1,N,0098,1","99999,9,C,N","011265,1,N,1","-0010,1","-0070,1","99999,9","02,5,+00750,1,99,9","04,5,+01110,1,99,9",,,"04,99,1,99,9,99,9,99999,9,99,9,99,9",,"10061,1,99999,9",,,,,"MET060METAR ENHK 250450Z 15019KT 9999 FEW025 SCT037 M01/M07 Q1006;","P01 011103SCOCIG"
"01044099999","2008-11-25T05:20:00","4","70.486675","22.139744","6.4","HASVIK, NO","FM-15","ENHK ","V020","140,1,N,0087,1","22000,1,9,N","011265,1,N,1","-0010,1","-0070,1","99999,9","04,5,+01050,1,99,9",,,,"04,99,1,99,9,99,9,99999,9,99,9,99,9",,"10061,1,99999,9",,,,,"MET053METAR ENHK 250520Z 14017KT 9999 SCT035 M01/M07 Q1006;",
"01044099999","2008-11-25T05:50:00","4","70.486675","22.139744","6.4","HASVIK, NO","FM-15","ENHK ","V020","150,1,N,0087,1","22000,1,9,N","011265,1,N,1","-0010,1","-0080,1","99999,9","02,5,+01080,1,99,9",,,,"02,99,1,99,9,99,9,99999,9,99,9,99,9",,"10061,1,99999,9",,,,,"MET053METAR ENHK 250550Z 15017KT 9999 FEW036 M01/M08 Q1006;",
"01044099999","2008-11-25T06:20:00","4","70.486675","22.139744","6.4","HASVIK, NO","FM-15","ENHK ","V020","150,1,N,0087,1","22000,1,9,N","011265,1,N,1","-0010,1","-0080,1","99999,9","02,5,+01050,1,99,9",,,,"02,99,1,99,9,99,9,99999,9,99,9,99,9",,"10061,1,99999,9",,,,,"MET053METAR ENHK 250620Z 15017KT 9999 FEW035 M01/M08 Q1006;",
"01044099999","2008-11-25T13:50:00","4","70.486675","22.139744","6.4","HASVIK, NO","FM-15","ENHK ","V020","140,1,N,0113,1","22000,1,9,N","011265,1,N,1","-0020,1","-0080,1","99999,9","02,5,+01080,1,99,9",,,,"02,99,1,99,9,99,9,99999,9,99,9,99,9",,"10031,1,99999,9",,,,,"MET053METAR ENHK 251350Z 14022KT 9999 FEW036 M02/M08 Q1003;",
"01044099999","2008-11-25T14:20:00","4","70.486675","22.139744","6.4","HASVIK, NO","FM-15","ENHK ","V020","130,1,N,0113,1","22000,1,9,N","011265,1,N,1","-0020,1","-0080,1","99999,9","02,5,+01080,1,99,9",,,,"02,99,1,99,9,99,9,99999,9,99,9,99,9",,"10031,1,99999,9",,,,,"MET053METAR ENHK 251420Z 13022KT 9999 FEW036 M02/M08 Q1003;",
"01044099999","2008-11-25T15:20:00","4","70.486675","22.139744","6.4","HASVIK, NO","FM-15","ENHK ","V020","140,1,N,0093,1","99999,9,C,Y","009900,1,N,1","-0030,1","-0080,1","99999,9",,,,,,,"10020,1,99999,9",,,,,"MET047METAR ENHK 251520Z 14018KT CAVOK M03/M08 Q1002;",
"01044099999","2008-11-26T04:20:00","4","70.486675","22.139744","6.4","HASVIK, NO","FM-15","ENHK ","V020","110,1,N,0139,1","22000,1,9,N","011265,1,N,1","-0030,1","-0080,1","99999,9","02,5,+00750,1,99,9",,,,"02,99,1,99,9,99,9,99999,9,99,9,99,9",,"09841,1,99999,9","36,1",,,,"MET059METAR ENHK 260420Z 11027KT 9999 -DRSN FEW025 M03/M08 Q0984;",
"01044099999","2008-11-26T04:50:00","4","70.486675","22.139744","6.4","HASVIK, NO","FM-15","ENHK ","V020","120,1,N,0129,1","22000,1,9,N","011265,1,N,1","-0030,1","-0080,1","99999,9","02,5,+00660,1,99,9",,,,"02,99,1,99,9,99,9,99999,9,99,9,99,9",,"09841,1,99999,9","36,1",,,,"MET059METAR ENHK 260450Z 12025KT 9999 -DRSN FEW022 M03/M08 Q0984;",
"01044099999","2008-11-26T05:50:00","4","70.486675","22.139744","6.4","HASVIK, NO","FM-15","ENHK ","V020","130,1,N,0103,1","22000,1,9,N","011265,1,N,1","-0030,1","-0080,1","99999,9","02,5,+00660,1,99,9",,,,"02,99,1,99,9,99,9,99999,9,99,9,99,9",,"09831,1,99999,9","36,1",,,,"MET059METAR ENHK 260550Z 13020KT 9999 -DRSN FEW022 M03/M08 Q0983;",
"01044099999","2008-11-26T06:50:00","4","70.486675","22.139744","6.4","HASVIK, NO","FM-15","ENHK ","V020","130,1,N,0103,1","22000,1,9,N","011265,1,N,1","-0030,1","-0080,1","99999,9","02,5,+00660,1,99,9",,,,"02,99,1,99,9,99,9,99999,9,99,9,99,9",,"09821,1,99999,9","36,1",,,,"MET059METAR ENHK 260650Z 13020KT 9999 -DRSN FEW022 M03/M08 Q0982;",
"01044099999","2008-11-26T13:50:00","4","70.486675","22.139744","6.4","HASVIK, NO","FM-15","ENHK ","V020","140,1,N,0108,1","22000,1,9,N","011265,1,N,1","-0010,1","-0060,1","99999,9","02,5,+00660,1,99,9",,,,"02,99,1,99,9,99,9,99999,9,99,9,99,9",,"09810,1,99999,9",,,,,"MET053METAR ENHK 261350Z 14021KT 9999 FEW022 M01/M06 Q0981;",
"01044099999","2008-11-26T14:50:00","4","70.486675","22.139744","6.4","HASVIK, NO","FM-15","ENHK ","V020","140,1,N,0103,1","99999,9,C,N","011265,1,N,1","-0020,1","-0060,1","99999,9","02,5,+00660,1,99,9","04,5,+02250,5,99,9",,,"04,99,1,99,9,99,9,99999,9,99,9,99,9",,"09810,1,99999,9","16,1",,,,"MET065METAR ENHK 261450Z 14020KT 9999 VCSH FEW022 SCT075 M02/M06 Q0981;","P01 022503SCOCIG"
"01044099999","2008-11-27T04:50:00","4","70.486675","22.139744","6.4","HASVIK, NO","FM-15","ENHK ","V020","110,1,N,0087,1","99999,9,C,N","011265,1,N,1","-0010,1","-0050,1","99999,9","02,5,+00660,1,99,9","04,5,+02250,5,99,9",,,"04,99,1,99,9,99,9,99999,9,99,9,99,9",,"09851,1,99999,9",,,,,"MET060METAR ENHK 270450Z 11017KT 9999 FEW022 SCT075 M01/M05 Q0985;","P01 022503SCOCIG"
"01044099999","2008-11-27T05:50:00","4","70.486675","22.139744","6.4","HASVIK, NO","FM-15","ENHK ","V020","110,1,N,0098,1","99999,9,C,N","011265,1,N,1","-0010,1","-0050,1","99999,9","02,5,+00660,1,99,9","04,5,+02850,5,99,9",,,"04,99,1,99,9,99,9,99999,9,99,9,99,9",,"09861,1,99999,9",,,,,"MET060METAR ENHK 270550Z 11019KT 9999 FEW022 SCT095 M01/M05 Q0986;","P01 028503SCOCIG"
"01044099999","2008-11-27T12:50:00","4","70.486675","22.139744","6.4","HASVIK, NO","FM-15","ENHK ","V020","120,1,N,0087,1","22000,1,9,N","011265,1,N,1","-0020,1","-0060,1","99999,9","02,5,+00750,1,99,9",,,,"02,99,1,99,9,99,9,99999,9,99,9,99,9",,"09882,1,99999,9",,,,,"MET061METAR ENHK 271250Z 12017KT 090V150 9999 FEW025 M02/M06 Q0988;",
"01044099999","2008-11-27T13:20:00","4","70.486675","22.139744","6.4","HASVIK, NO","FM-15","ENHK ","V020","120,1,N,0087,1","22000,1,9,N","011265,1,N,1","-0020,1","-0060,1","99999,9","04,5,+00660,1,99,9",,,,"04,99,1,99,9,99,9,99999,9,99,9,99,9",,"09882,1,99999,9",,,,,"MET053METAR ENHK 271320Z 12017KT 9999 SCT022 M02/M06 Q0988;",
"01044099999","2008-11-27T13:50:00","4","70.486675","22.139744","6.4","HASVIK, NO","FM-15","ENHK ","V020","110,1,N,0077,1","22000,1,9,N","011265,1,N,1","-0020,1","-0060,1","99999,9","04,5,+00750,1,99,9",,,,"04,99,1,99,9,99,9,99999,9,99,9,99,9",,"09882,1,99999,9",,,,,"MET053METAR ENHK 271350Z 11015KT 9999 SCT025 M02/M06 Q0988;",
"01044099999","2008-11-27T14:50:00","4","70.486675","22.139744","6.4","HASVIK, NO","FM-15","ENHK ","V020","110,1,N,0087,1","22000,1,9,N","011265,1,N,1","-0020,1","-0060,1","99999,9","02,5,+00660,1,99,9",,,,"02,99,1,99,9,99,9,99999,9,99,9,99,9",,"09882,1,99999,9",,,,,"MET053METAR ENHK 271450Z 11017KT 9999 FEW022 M02/M06 Q0988;",
"01044099999","2008-11-27T15:20:00","4","70.486675","22.139744","6.4","HASVIK, NO","FM-15","ENHK ","V020","110,1,N,0093,1","22000,1,9,N","011265,1,N,1","-0020,1","-0060,1","99999,9","02,5,+00660,1,99,9",,,,"02,99,1,99,9,99,9,99999,9,99,9,99,9",,"09882,1,99999,9",,,,,"MET053METAR ENHK 271520Z 11018KT 9999 FEW022 M02/M06 Q0988;",
"01044099999","2008-11-28T04:20:00","4","70.486675","22.139744","6.4","HASVIK, NO","FM-15","ENHK ","V020","120,1,N,0113,1","00690,1,C,N","011265,1,N,1","-0020,1","-0060,1","99999,9","02,5,+00450,1,99,9","04,5,+00690,1,99,9","07,5,+00840,1,99,9",,"07,99,1,99,9,99,9,99999,9,99,9,99,9",,"09882,1,99999,9","71,1",,,,"MET071METAR ENHK 280420Z 12022KT 9999 -SN FEW015 SCT023 BKN028 M02/M06 Q0988;",
"01044099999","2008-11-28T04:50:00","4","70.486675","22.139744","6.4","HASVIK, NO","FM-15","ENHK ","V020","110,1,N,0113,1","00720,1,C,N","011265,1,N,1","-0020,1","-0060,1","99999,9","02,5,+00450,1,99,9","04,5,+00720,1,99,9","07,5,+01050,1,99,9",,"07,99,1,99,9,99,9,99999,9,99,9,99,9",,"09871,1,99999,9","16,1",,,,"MET078METAR ENHK 280450Z 11022KT 9999 VCSH FEW015 SCT024 BKN035 M02/M06 Q0987 -RESN;",
"01044099999","2008-11-28T05:50:00","4","70.486675","22.139744","6.4","HASVIK, NO","FM-15","ENHK ","V020","120,1,N,0129,1","01200,1,C,N","008000,1,N,1","-0020,1","-0060,1","99999,9","04,5,+00660,1,99,9","07,5,+01200,1,99,9",,,"07,99,1,99,9,99,9,99999,9,99,9,99,9",,"09882,1,99999,9","71,1",,,,"MET064METAR ENHK 280550Z 12025KT 8000 -SN SCT022 BKN040 M02/M06 Q0988;",
"01044099999","2008-11-28T06:50:00","4","70.486675","22.139744","6.4","HASVIK, NO","FM-15","ENHK ","V020","120,1,N,0093,1","99999,9,C,N","011265,1,N,1","-0030,1","-0060,1","99999,9","02,5,+00660,1,99,9","04,5,+01200,1,99,9",,,"04,99,1,99,9,99,9,99999,9,99,9,99,9",,"09882,1,99999,9","16,1",,,,"MET070METAR ENHK 280650Z 12018KT 9999 VCSH FEW022 SCT040 M03/M06 Q0988 RESN;","P01 012003SCOCIG"
"01044099999","2008-11-28T12:50:00","4","70.486675","22.139744","6.4","HASVIK, NO","FM-15","ENHK ","V020","120,1,N,0103,1","99999,9,C,N","011265,1,N,1","-0010,1","-0060,1","99999,9","02,5,+00570,1,99,9","04,5,+00750,1,99,9",,,"04,99,1,99,9,99,9,99999,9,99,9,99,9",,"09898,1,99999,9","16,1",,,,"MET065METAR ENHK 281250Z 12020KT 9999 VCSH FEW019 SCT025 M01/M06 Q0990;","P01 007503SCOCIG"
"01044099999","2008-11-28T13:20:00","4","70.486675","22.139744","6.4","HASVIK, NO","FM-15","ENHK ","V020","120,1,N,0108,1","99999,9,C,N","011265,1,N,1","-0010,1","-0050,1","99999,9","02,5,+00630,1,99,9","04,5,+00810,1,99,9",,,"04,99,1,99,9,99,9,99999,9,99,9,99,9",,"09898,1,99999,9",,,,,"MET060METAR ENHK 281320Z 12021KT 9999 FEW021 SCT027 M01/M05 Q0990;","P01 008103SCOCIG"
"01044099999","2008-11-28T13:50:00","4","70.486675","22.139744","6.4","HASVIK, NO","FM-15","ENHK ","V020","120,1,N,0118,1","99999,9,C,N","011265,1,N,1","-0010,1","-0050,1","99999,9","02,5,+00660,1,99,9","04,5,+00810,1,99,9",,,"04,99,1,99,9,99,9,99999,9,99,9,99,9",,"09909,1,99999,9",,,,,"MET060METAR ENHK 281350Z 12023KT 9999 FEW022 SCT027 M01/M05 Q0991;","P01 008103SCOCIG"
"01044099999","2008-11-28T14:20:00","4","70.486675","22.139744","6.4","HASVIK, NO","FM-15","ENHK ","V020","120,1,N,0113,1","22000,1,9,N","011265,1,N,1","-0010,1","-0060,1","99999,9","04,5,+00780,1,99,9",,,,"04,99,1,99,9,99,9,99999,9,99,9,99,9",,"09909,1,99999,9",,,,,"MET053METAR ENHK 281420Z 12022KT 9999 SCT026 M01/M06 Q0991;",
"01044099999","2008-11-28T14:50:00","4","70.486675","22.139744","6.4","HASVIK, NO","FM-15","ENHK ","V020","120,1,N,0103,1","22000,1,9,N","011265,1,N,1","-0010,1","-0050,1","99999,9","04,5,+00810,1,99,9",,,,"04,99,1,99,9,99,9,99999,9,99,9,99,9",,"09919,1,99999,9",,,,,"MET053METAR ENHK 281450Z 12020KT 9999 SCT027 M01/M05 Q0992;",
"01044099999","2008-11-30T12:50:00","4","70.486675","22.139744","6.4","HASVIK, NO","FM-15","ENHK ","V020","110,1,N,0108,1","99999,9,C,Y","009900,1,N,1","-0010,1","-0050,1","99999,9",,,,,,,"10119,1,99999,9",,,,,"MET047METAR ENHK 301250Z 11021KT CAVOK M01/M05 Q1012;",
"01044099999","2008-11-30T13:20:00","4","70.486675","22.139744","6.4","HASVIK, NO","FM-15","ENHK ","V020","100,1,N,0113,1","99999,9,C,Y","009900,1,N,1","-0020,1","-0050,1","99999,9",,,,,,,"10108,1,99999,9",,,,,"MET047METAR ENHK 301320Z 10022KT CAVOK M02/M05 Q1011;",
"01044099999","2008-11-30T13:50:00","4","70.486675","22.139744","6.4","HASVIK, NO","FM-15","ENHK ","V020","100,1,N,0098,1","99999,9,C,Y","009900,1,N,1","-0020,1","-0050,1","99999,9",,,,,,,"10102,1,99999,9",,,,,"MET047METAR ENHK 301350Z 10019KT CAVOK M02/M05 Q1010;",
"01044099999","2008-11-30T14:20:00","4","70.486675","22.139744","6.4","HASVIK, NO","FM-15","ENHK ","V020","100,1,N,0113,1","99999,9,C,Y","009900,1,N,1","-0020,1","-0050,1","99999,9",,,,,,,"10102,1,99999,9",,,,,"MET047METAR ENHK 301420Z 10022KT CAVOK M02/M05 Q1010;",
"01044099999","2008-11-30T14:50:00","4","70.486675","22.139744","6.4","HASVIK, NO","FM-15","ENHK ","V020","100,1,N,0108,1","99999,9,C,Y","009900,1,N,1","-0020,1","-0050,1","99999,9",,,,,,,"10102,1,99999,9",,,,,"MET047METAR ENHK 301450Z 10021KT CAVOK M02/M05 Q1010;",
"01044099999","2008-12-01T04:20:00","4","70.486675","22.139744","6.4","HASVIK, NO","FM-15","ENHK ","V020","160,1,N,0041,1","00720,1,C,N","011265,1,N,1","-0010,1","-0050,1","99999,9","02,5,+00510,1,99,9","04,5,+00720,1,99,9","07,5,+01800,1,99,9",,"07,99,1,99,9,99,9,99999,9,99,9,99,9",,"09959,1,99999,9",,,,,"MET067METAR ENHK 010420Z 16008KT 9999 FEW017 SCT024 BKN060 M01/M05 Q0996;",
"01044099999","2008-12-01T04:50:00","4","70.486675","22.139744","6.4","HASVIK, NO","FM-15","ENHK ","V020","170,1,N,0031,1","00720,1,C,N","009000,1,N,1","+0000,1","-0050,1","99999,9","02,5,+00510,1,99,9","04,5,+00720,1,99,9","07,5,+01050,1,99,9",,"07,99,1,99,9,99,9,99999,9,99,9,99,9",,"09959,1,99999,9","71,1",,,,"MET079METAR ENHK 010450Z 17006KT 120V180 9000 -SN FEW017 SCT024 BKN035 M00/M05 Q0996;",
"01044099999","2008-12-01T05:50:00","4","70.486675","22.139744","6.4","HASVIK, NO","FM-15","ENHK ","V020","150,1,N,0015,1","00900,1,C,N","011265,1,N,1","-0010,1","-0060,1","99999,9","02,5,+00600,1,99,9","04,5,+00900,1,99,9","07,5,+02100,1,99,9",,"07,99,1,99,9,99,9,99999,9,99,9,99,9",,"09959,1,99999,9","16,1",,,,"MET078METAR ENHK 010550Z 15003KT 9999 VCSH FEW020 SCT030 BKN070 M01/M06 Q0996 -RESN;",
"01044099999","2008-12-01T07:50:00","4","70.486675","22.139744","6.4","HASVIK, NO","FM-15","ENHK ","V020","180,1,N,0021,1","01050,1,C,N","011265,1,N,1","+0000,1","-0050,1","99999,9","04,5,+00780,1,99,9","07,5,+01050,1,99,9",,,"07,99,1,99,9,99,9,99999,9,99,9,99,9",,"09959,1,99999,9","16,1",,,,"MET065METAR ENHK 010750Z 18004KT 9999 VCSH SCT026 BKN035 M00/M05 Q0996;",
"01044099999","2008-12-01T09:20:00","4","70.486675","22.139744","6.4","HASVIK, NO","FM-15","ENHK ","V020","200,1,N,0015,1","99999,9,C,N","011265,1,N,1","-0010,1","-0050,1","99999,9","02,5,+00450,1,99,9","04,5,+00750,1,99,9",,,"04,99,1,99,9,99,9,99999,9,99,9,99,9",,"09959,1,99999,9","16,1",,,,"MET079METAR ENHK 010920Z 20003KT 170V240 9999 VCSH FEW015 SCT025 M01/M05 Q0996 -RESN;","P01 007503SCOCIG"
"01044099999","2008-12-01T09:50:00","4","70.486675","22.139744","6.4","HASVIK, NO","FM-15","ENHK ","V020","210,1,N,0015,1","99999,9,C,N","011265,1,N,1","-0020,1","-0050,1","99999,9","02,5,+00630,1,99,9","04,5,+01380,1,99,9",,,"04,99,1,99,9,99,9,99999,9,99,9,99,9",,"09949,1,99999,9","16,1",,,,"MET065METAR ENHK 010950Z 21003KT 9999 VCSH FEW021 SCT046 M02/M05 Q0995;","P01 013803SCOCIG"
"01044099999","2008-12-01T12:50:00","4","70.486675","22.139744","6.4","HASVIK, NO","FM-15","ENHK ","V020","230,1,N,0036,1","99999,9,C,N","011265,1,N,1","+0000,1","-0040,1","99999,9","02,5,+00660,1,99,9","04,5,+01170,1,99,9",,,"04,99,1,99,9,99,9,99999,9,99,9,99,9",,"09959,1,99999,9","16,1",,,,"MET072METAR ENHK 011250Z 23007KT 180V270 9999 VCSH FEW022 SCT039 00/M04 Q0996;","P01 011703SCOCIG"
"01044099999","2008-12-01T13:20:00","4","70.486675","22.139744","6.4","HASVIK, NO","FM-15","ENHK ","V020","220,1,N,0041,1","99999,9,C,N","011265,1,N,1","+0000,1","-0050,1","99999,9","02,5,+00660,1,99,9","04,5,+01080,1,99,9",,,"04,99,1,99,9,99,9,99999,9,99,9,99,9",,"09959,1,99999,9","16,1",,,,"MET064METAR ENHK 011320Z 22008KT 9999 VCSH FEW022 SCT036 00/M05 Q0996;","P01 010803SCOCIG"
"01044099999","2008-12-01T13:50:00","4","70.486675","22.139744","6.4","HASVIK, NO","FM-15","ENHK ","V020","210,1,N,0036,1","99999,9,C,N","011265,1,N,1","+0010,1","-0040,1","99999,9","02,5,+00660,1,99,9","04,5,+00900,1,99,9",,,"04,99,1,99,9,99,9,99999,9,99,9,99,9",,"09959,1,99999,9",,,,,"MET059METAR ENHK 011350Z 21007KT 9999 FEW022 SCT030 01/M04 Q0996;","P01 009003SCOCIG"
"01044099999","2008-12-01T14:20:00","4","70.486675","22.139744","6.4","HASVIK, NO","FM-15","ENHK ","V020","240,1,N,0036,1","99999,9,C,N","011265,1,N,1","+0010,1","-0040,1","99999,9","02,5,+00630,1,99,9","04,5,+00840,1,99,9",,,"04,99,1,99,9,99,9,99999,9,99,9,99,9",,"09959,1,99999,9","85,5",,,,"MET065METAR ENHK 011420Z 24007KT 9999 -SHSN FEW021 SCT028 01/M04 Q0996;","P01 008403SCOCIG"
"01044099999","2008-12-01T14:50:00","4","70.486675","22.139744","6.4","HASVIK, NO","FM-15","ENHK ","V020","240,1,N,0036,1","22000,1,9,N","011265,1,N,1","+0010,1","-0040,1","99999,9","04,5,+00840,1,99,9",,,,"04,99,1,99,9,99,9,99999,9,99,9,99,9",,"09959,1,99999,9",,,,,"MET057METAR ENHK 011450Z 24007KT 9999 SCT028 01/M04 Q0996 RESN;",
"01044099999","2008-12-01T15:20:00","4","70.486675","22.139744","6.4","HASVIK, NO","FM-15","ENHK ","V020","230,1,N,0041,1","22000,1,9,N","011265,1,N,1","+0010,1","-0040,1","99999,9","04,5,+00840,1,99,9",,,,"04,99,1,99,9,99,9,99999,9,99,9,99,9",,"09959,1,99999,9",,,,,"MET052METAR ENHK 011520Z 23008KT 9999 SCT028 01/M04 Q0996;",
"01044099999","2008-12-02T04:20:00","4","70.486675","22.139744","6.4","HASVIK, NO","FM-15","ENHK ","V020","090,1,N,0036,1","99999,9,C,N","011265,1,N,1","+0020,1","+0000,1","99999,9","02,5,+00480,1,99,9","04,5,+00840,1,99,9",,,"04,99,1,99,9,99,9,99999,9,99,9,99,9",,"10061,1,99999,9","80,1",,,,"MET065METAR ENHK 020420Z 09007KT 9999 -SHRA FEW016 SCT028 02/M00 Q1006;","P01 008403SCOCIG"
"01044099999","2008-12-02T04:50:00","4","70.486675","22.139744","6.4","HASVIK, NO","FM-15","ENHK ","V020","150,1,N,0026,1","22000,1,9,N","011265,1,N,1","+0010,1","+0000,1","99999,9","02,5,+00570,1,99,9",,,,"02,99,1,99,9,99,9,99999,9,99,9,99,9",,"10071,1,99999,9","80,1",,,,"MET057METAR ENHK 020450Z 15005KT 9999 -SHRA FEW019 01/00 Q1007;",
"01044099999","2008-12-02T05:50:00","4","70.486675","22.139744","6.4","HASVIK, NO","FM-15","ENHK ","V020","999,9,V,0005,1","22000,1,9,N","011265,1,N,1","+0010,1","+0000,1","99999,9","02,5,+00600,1,99,9",,,,"02,99,1,99,9,99,9,99999,9,99,9,99,9",,"10071,1,99999,9",,,,,"MET057METAR ENHK 020550Z VRB01KT 9999 FEW020 01/M00 Q1007 RERA;",
"01044099999","2008-12-02T06:50:00","4","70.486675","22.139744","6.4","HASVIK, NO","FM-15","ENHK ","V020","999,9,V,0010,1","22000,1,9,N","011265,1,N,1","+0010,1","+0000,1","99999,9","02,5,+00660,1,99,9",,,,"02,99,1,99,9,99,9,99999,9,99,9,99,9",,"10081,1,99999,9","80,1",,,,"MET058METAR ENHK 020650Z VRB02KT 9999 -SHRA FEW022 01/M00 Q1008;",
"01044099999","2008-12-02T12:50:00","4","70.486675","22.139744","6.4","HASVIK, NO","FM-15","ENHK ","V020","090,1,N,0041,1","99999,9,C,N","011265,1,N,1","+0020,1","+0000,1","99999,9","02,5,+00330,1,99,9","04,5,+00510,1,99,9",,,"04,99,1,99,9,99,9,99999,9,99,9,99,9",,"10108,1,99999,9",,,,,"MET059METAR ENHK 021250Z 09008KT 9999 FEW011 SCT017 02/M00 Q1011;","P01 005103SCOCIG"
"01044099999","2008-12-02T13:20:00","4","70.486675","22.139744","6.4","HASVIK, NO","FM-15","ENHK ","V020","100,1,N,0046,1","99999,9,C,N","011265,1,N,1","+0020,1","+0000,1","99999,9","02,5,+00330,1,99,9","04,5,+00540,1,99,9",,,"04,99,1,99,9,99,9,99999,9,99,9,99,9",,"10108,1,99999,9",,,,,"MET059METAR ENHK 021320Z 10009KT 9999 FEW011 SCT018 02/M00 Q1011;","P01 005403SCOCIG"
"01044099999","2008-12-02T13:50:00","4","70.486675","22.139744","6.4","HASVIK, NO","FM-15","ENHK ","V020","100,1,N,0046,1","99999,9,C,N","011265,1,N,1","+0020,1","+0000,1","99999,9","02,5,+00360,1,99,9","04,5,+00510,1,99,9",,,"04,99,1,99,9,99,9,99999,9,99,9,99,9",,"10108,1,99999,9",,,,,"MET059METAR ENHK 021350Z 10009KT 9999 FEW012 SCT017 02/M00 Q1011;","P01 005103SCOCIG"
"01044099999","2008-12-02T14:20:00","4","70.486675","22.139744","6.4","HASVIK, NO","FM-15","ENHK ","V020","150,1,N,0036,1","99999,9,C,N","011265,1,N,1","+0020,1","+0000,1","99999,9","02,5,+00360,1,99,9","04,5,+00540,1,99,9",,,"04,99,1,99,9,99,9,99999,9,99,9,99,9",,"10108,1,99999,9",,,,,"MET059METAR ENHK 021420Z 15007KT 9999 FEW012 SCT018 02/M00 Q1011;","P01 005403SCOCIG"
"01044099999","2008-12-02T14:50:00","4","70.486675","22.139744","6.4","HASVIK, NO","FM-15","ENHK ","V020","140,1,N,0051,1","22000,1,9,N","011265,1,N,1","+0020,1","-0010,1","99999,9","04,5,+00540,1,99,9",,,,"04,99,1,99,9,99,9,99999,9,99,9,99,9",,"10108,1,99999,9",,,,,"MET052METAR ENHK 021450Z 14010KT 9999 SCT018 02/M01 Q1011;",
"01044099999","2008-12-03T04:20:00","4","70.486675","22.139744","6.4","HASVIK, NO","FM-15","ENHK ","V020","140,1,N,0093,1","22000,1,9,N","011265,1,N,1","+0020,1","-0040,1","99999,9","04,5,+00900,1,99,9",,,,"04,99,1,99,9,99,9,99999,9,99,9,99,9",,"10102,1,99999,9",,,,,"MET052METAR ENHK 030420Z 14018KT 9999 SCT030 02/M04 Q1010;",
"01044099999","2008-12-03T04:50:00","4","70.486675","22.139744","6.4","HASVIK, NO","FM-15","ENHK ","V020","130,1,N,0103,1","22000,1,9,N","011265,1,N,1","+0010,1","-0040,1","99999,9","02,5,+00900,1,99,9",,,,"02,99,1,99,9,99,9,99999,9,99,9,99,9",,"10102,1,99999,9",,,,,"MET052METAR ENHK 030450Z 13020KT 9999 FEW030 01/M04 Q1010;",
"01044099999","2008-12-03T05:50:00","4","70.486675","22.139744","6.4","HASVIK, NO","FM-15","ENHK ","V020","140,1,N,0093,1","22000,1,9,N","011265,1,N,1","+0010,1","-0040,1","99999,9","02,5,+00900,1,99,9",,,,"02,99,1,99,9,99,9,99999,9,99,9,99,9",,"10102,1,99999,9",,,,,"MET052METAR ENHK 030550Z 14018KT 9999 FEW030 01/M04 Q1010;",
"01044099999","2008-12-03T13:20:00","4","70.486675","22.139744","6.4","HASVIK, NO","FM-15","ENHK ","V020","100,1,N,0113,1","22000,1,9,N","011265,1,N,1","+0000,1","-0030,1","99999,9","02,5,+01050,1,99,9",,,,"02,99,1,99,9,99,9,99999,9,99,9,99,9",,"10071,1,99999,9",,,,,"MET053METAR ENHK 031320Z 10022KT 9999 FEW035 M00/M03 Q1007;",
"01044099999","2008-12-03T13:50:00","4","70.486675","22.139744","6.4","HASVIK, NO","FM-15","ENHK ","V020","090,1,N,0103,1","22000,1,9,N","011265,1,N,1","+0000,1","-0030,1","99999,9","02,5,+01050,1,99,9",,,,"02,99,1,99,9,99,9,99999,9,99,9,99,9",,"10071,1,99999,9",,,,,"MET053METAR ENHK 031350Z 09020KT 9999 FEW035 M00/M03 Q1007;",
"01044099999","2008-12-03T14:50:00","4","70.486675","22.139744","6.4","HASVIK, NO","FM-15","ENHK ","V020","100,1,N,0103,1","99999,9,C,Y","009900,1,N,1","+0000,1","-0030,1","99999,9",,,,,,,"10061,1,99999,9",,,,,"MET046METAR ENHK 031450Z 10020KT CAVOK 00/M03 Q1006;",
"01044099999","2008-12-04T04:20:00","4","70.486675","22.139744","6.4","HASVIK, NO","FM-15","ENHK ","V020","110,1,N,0103,1","22000,1,9,N","011265,1,N,1","+0020,1","-0010,1","99999,9","02,5,+00690,1,99,9",,,,"02,99,1,99,9,99,9,99999,9,99,9,99,9",,"09990,1,99999,9",,,,,"MET052METAR ENHK 040420Z 11020KT 9999 FEW023 02/M01 Q0999;",
"01044099999","2008-12-04T04:50:00","4","70.486675","22.139744","6.4","HASVIK, NO","FM-15","ENHK ","V020","110,1,N,0113,1","22000,1,9,N","011265,1,N,1","+0020,1","-0020,1","99999,9","02,5,+00690,1,99,9",,,,"02,99,1,99,9,99,9,99999,9,99,9,99,9",,"09990,1,99999,9",,,,,"MET052METAR ENHK 040450Z 11022KT 9999 FEW023 02/M02 Q0999;",
"01044099999","2008-12-04T05:20:00","4","70.486675","22.139744","6.4","HASVIK, NO","FM-15","ENHK ","V020","110,1,N,0098,1","22000,1,9,N","011265,1,N,1","+0020,1","-0020,1","99999,9","02,5,+00690,1,99,9",,,,"02,99,1,99,9,99,9,99999,9,99,9,99,9",,"09990,1,99999,9",,,,,"MET052METAR ENHK 040520Z 11019KT 9999 FEW023 02/M02 Q0999;",
"01044099999","2008-12-04T05:50:00","4","70.486675","22.139744","6.4","HASVIK, NO","FM-15","ENHK ","V020","130,1,N,0082,1","22000,1,9,N","011265,1,N,1","+0020,1","-0020,1","99999,9","02,5,+00660,1,99,9",,,,"02,99,1,99,9,99,9,99999,9,99,9,99,9",,"09990,1,99999,9",,,,,"MET060METAR ENHK 040550Z 13016KT 090V160 9999 FEW022 02/M02 Q0999;",
"01044099999","2008-12-04T12:50:00","4","70.486675","22.139744","6.4","HASVIK, NO","FM-15","ENHK ","V020","110,1,N,0098,1","22000,1,9,N","011265,1,N,1","+0030,1","-0010,1","99999,9",,,,,"00,99,1,99,9,99,9,99999,9,99,9,99,9",,"09970,1,99999,9",,,,,"MET049METAR ENHK 041250Z 11019KT 9999 NSC 03/M01 Q0997;","Q01    003SCCGA1"
"01044099999","2008-12-04T13:50:00","4","70.486675","22.139744","6.4","HASVIK, NO","FM-15","ENHK ","V020","110,1,N,0098,1","22000,1,9,N","011265,1,N,1","+0030,1","-0010,1","99999,9","02,5,+00690,1,99,9",,,,"02,99,1,99,9,99,9,99999,9,99,9,99,9",,"09959,1,99999,9",,,,,"MET052METAR ENHK 041350Z 11019KT 9999 FEW023 03/M01 Q0996;",
"01044099999","2008-12-04T14:20:00","4","70.486675","22.139744","6.4","HASVIK, NO","FM-15","ENHK ","V020","110,1,N,0087,1","22000,1,9,N","011265,1,N,1","+0030,1","+0000,1","99999,9","02,5,+00690,1,99,9",,,,"02,99,1,99,9,99,9,99999,9,99,9,99,9",,"09959,1,99999,9",,,,,"MET052METAR ENHK 041420Z 11017KT 9999 FEW023 03/M00 Q0996;",
"01044099999","2008-12-04T14:50:00","4","70.486675","22.139744","6.4","HASVIK, NO","FM-15","ENHK ","V020","140,1,N,0062,1","22000,1,9,N","011265,1,N,1","+0030,1","-0020,1","99999,9","02,5,+00690,1,99,9",,,,"02,99,1,99,9,99,9,99999,9,99,9,99,9",,"09959,1,99999,9",,,,,"MET052METAR ENHK 041450Z 14012KT 9999 FEW023 03/M02 Q0996;",
"01044099999","2008-12-04T15:20:00","4","70.486675","22.139744","6.4","HASVIK, NO","FM-15","ENHK ","V020","110,1,N,0087,1","22000,1,9,N","011265,1,N,1","+0030,1","-0010,1","99999,9",,,,,"00,99,1,99,9,99,9,99999,9,99,9,99,9",,"09959,1,99999,9",,,,,"MET049METAR ENHK 041520Z 11017KT 9999 NSC 03/M01 Q0996;","Q01    003SCCGA1"
"01044099999","2008-12-05T04:20:00","4","70.486675","22.139744","6.4","HASVIK, NO","FM-15","ENHK ","V020","180,1,N,0026,1","22000,1,9,N","011265,1,N,1","+0020,1","-0030,1","99999,9","02,5,+00900,1,99,9",,,,"02,99,1,99,9,99,9,99999,9,99,9,99,9",,"09970,1,99999,9",,,,,"MET052METAR ENHK 050420Z 18005KT 9999 FEW030 02/M03 Q0997;",
"01044099999","2008-12-05T04:50:00","4","70.486675","22.139744","6.4","HASVIK, NO","FM-15","ENHK ","V020","150,1,N,0026,1","22000,1,9,N","011265,1,N,1","+0010,1","-0030,1","99999,9","02,5,+00900,1,99,9",,,,"02,99,1,99,9,99,9,99999,9,99,9,99,9",,"09970,1,99999,9",,,,,"MET060METAR ENHK 050450Z 15005KT 090V180 9999 FEW030 01/M03 Q0997;",
"01044099999","2008-12-05T05:20:00","4","70.486675","22.139744","6.4","HASVIK, NO","FM-15","ENHK ","V020","999,9,V,0010,1","22000,1,9,N","011265,1,N,1","+0000,1","-0030,1","99999,9",,,,,"00,99,1,99,9,99,9,99999,9,99,9,99,9",,"09970,1,99999,9",,,,,"MET049METAR ENHK 050520Z VRB02KT 9999 NSC 00/M03 Q0997;","Q01    003SCCGA1"
"01044099999","2008-12-05T05:50:00","4","70.486675","22.139744","6.4","HASVIK, NO","FM-15","ENHK ","V020","999,9,V,0010,1","22000,1,9,N","011265,1,N,1","+0000,1","-0040,1","99999,9","04,5,+00990,1,99,9",,,,"04,99,1,99,9,99,9,99999,9,99,9,99,9",,"09980,1,99999,9",,,,,"MET053METAR ENHK 050550Z VRB02KT 9999 SCT033 M00/M04 Q0998;",
"01044099999","2008-12-05T06:20:00","4","70.486675","22.139744","6.4","HASVIK, NO","FM-15","ENHK ","V020","190,1,N,0021,1","22000,1,9,N","011265,1,N,1","+0010,1","-0030,1","99999,9","02,5,+00990,1,99,9",,,,"02,99,1,99,9,99,9,99999,9,99,9,99,9",,"09980,1,99999,9",,,,,"MET052METAR ENHK 050620Z 19004KT 9999 FEW033 01/M03 Q0998;",
"01044099999","2008-12-05T08:50:00","4","70.486675","22.139744","6.4","HASVIK, NO","FM-15","ENHK ","V020","190,1,N,0021,1","01020,1,C,N","011265,1,N,1","+0010,1","-0020,1","99999,9","02,5,+00750,1,99,9","07,5,+01020,1,99,9",,,"07,99,1,99,9,99,9,99999,9,99,9,99,9",,"09990,1,99999,9",,,,,"MET059METAR ENHK 050850Z 19004KT 9999 FEW025 BKN034 01/M02 Q0999;",
"01044099999","2008-12-05T12:50:00","4","70.486675","22.139744","6.4","HASVIK, NO","FM-15","ENHK ","V020","999,9,V,0005,1","22000,1,9,N","011265,1,N,1","+0000,1","-0030,1","99999,9","04,5,+00930,1,99,9",,,,"04,99,1,99,9,99,9,99999,9,99,9,99,9",,"10000,1,99999,9",,,,,"MET052METAR ENHK 051250Z VRB01KT 9999 SCT031 00/M03 Q1000;",
"01044099999","2008-12-05T13:20:00","4","70.486675","22.139744","6.4","HASVIK, NO","FM-15","ENHK ","V020","999,9,V,0015,1","99999,9,C,N","011265,1,N,1","+0000,1","-0030,1","99999,9","02,5,+00600,1,99,9","04,5,+00930,1,99,9",,,"04,99,1,99,9,99,9,99999,9,99,9,99,9",,"10010,1,99999,9",,,,,"MET059METAR ENHK 051320Z VRB03KT 9999 FEW020 SCT031 00/M03 Q1001;","P01 009303SCOCIG"
"01044099999","2008-12-05T13:50:00","4","70.486675","22.139744","6.4","HASVIK, NO","FM-15","ENHK ","V020","999,9,V,0010,1","99999,9,C,N","011265,1,N,1","+0000,1","-0030,1","99999,9","02,5,+00570,1,99,9","04,5,+00900,1,99,9",,,"04,99,1,99,9,99,9,99999,9,99,9,99,9",,"10010,1,99999,9",,,,,"MET060METAR ENHK 051350Z VRB02KT 9999 FEW019 SCT030 M00/M03 Q1001;","P01 009003SCOCIG"
"01044099999","2008-12-05T14:20:00","4","70.486675","22.139744","6.4","HASVIK, NO","FM-15","ENHK ","V020","999,9,V,0005,1","99999,9,C,N","011265,1,N,1","+0000,1","-0030,1","99999,9","02,5,+00570,1,99,9","04,5,+00960,1,99,9",,,"04,99,1,99,9,99,9,99999,9,99,9,99,9",,"10010,1,99999,9",,,,,"MET059METAR ENHK 051420Z VRB01KT 9999 FEW019 SCT032 00/M03 Q1001;","P01 009603SCOCIG"
"01044099999","2008-12-05T14:50:00","4","70.486675","22.139744","6.4","HASVIK, NO","FM-15","ENHK ","V020","999,9,V,0015,1","99999,9,C,N","011265,1,N,1","+0000,1","-0030,1","99999,9","02,5,+00540,1,99,9","04,5,+00900,1,99,9",,,"04,99,1,99,9,99,9,99999,9,99,9,99,9",,"10010,1,99999,9",,,,,"MET059METAR ENHK 051450Z VRB03KT 9999 FEW018 SCT030 00/M03 Q1001;","P01 009003SCOCIG"
"01044099999","2008-12-07T12:50:00","4","70.486675","22.139744","6.4","HASVIK, NO","FM-15","ENHK ","V020","120,1,N,0026,1","99999,9,C,N","011265,1,N,1","+0010,1","-0020,1","99999,9","02,5,+01230,1,99,9","04,5,+01560,5,99,9",,,"04,99,1,99,9,99,9,99999,9,99,9,99,9",,"10061,1,99999,9",,,,,"MET067METAR ENHK 071250Z 12005KT 060V160 9999 FEW041 SCT052 01/M02 Q1006;","P01 015603SCOCIG"
"01044099999","2008-12-07T13:20:00","4","70.486675","22.139744","6.4","HASVIK, NO","FM-15","ENHK ","V020","120,1,N,0021,1","99999,9,C,N","011265,1,N,1","+0000,1","-0020,1","99999,9","02,5,+01080,1,99,9","04,5,+01590,5,99,9",,,"04,99,1,99,9,99,9,99999,9,99,9,99,9",,"10061,1,99999,9",,,,,"MET067METAR ENHK 071320Z 12004KT 060V170 9999 FEW036 SCT053 00/M02 Q1006;","P01 015903SCOCIG"
"01044099999","2008-12-07T13:50:00","4","70.486675","22.139744","6.4","HASVIK, NO","FM-15","ENHK ","V020","130,1,N,0021,1","22000,1,9,N","011265,1,N,1","+0020,1","-0020,1","99999,9","04,5,+01080,1,99,9",,,,"04,99,1,99,9,99,9,99999,9,99,9,99,9",,"10061,1,99999,9",,,,,"MET060METAR ENHK 071350Z 13004KT 060V170 9999 SCT036 02/M02 Q1006;",
"01044099999","2008-12-07T14:50:00","4","70.486675","22.139744","6.4","HASVIK, NO","FM-15","ENHK ","V020","090,1,N,0036,1","22000,1,9,N","011265,1,N,1","+0010,1","-0020,1","99999,9","04,5,+01080,1,99,9",,,,"04,99,1,99,9,99,9,99999,9,99,9,99,9",,"10061,1,99999,9",,,,,"MET052METAR ENHK 071450Z 09007KT 9999 SCT036 01/M02 Q1006;",
"01044099999","2008-12-08T04:20:00","4","70.486675","22.139744","6.4","HASVIK, NO","FM-15","ENHK ","V020","100,1,N,0098,1","99999,9,C,Y","009900,1,N,1","+0000,1","-0030,1","99999,9",,,,,,,"10010,1,99999,9",,,,,"MET046METAR ENHK 080420Z 10019KT CAVOK 00/M03 Q1001;",
"01044099999","2008-12-08T04:50:00","4","70.486675","22.139744","6.4","HASVIK, NO","FM-15","ENHK ","V020","100,1,N,0098,1","99999,9,C,Y","009900,1,N,1","+0000,1","-0030,1","99999,9",,,,,,,"10010,1,99999,9",,,,,"MET047METAR ENHK 080450Z 10019KT CAVOK M00/M03 Q1001;",
"01044099999","2008-12-08T05:50:00","4","70.486675","22.139744","6.4","HASVIK, NO","FM-15","ENHK ","V020","100,1,N,0093,1","99999,9,C,Y","009900,1,N,1","+0020,1","-0030,1","99999,9",,,,,,,"10000,1,99999,9",,,,,"MET046METAR ENHK 080550Z 10018KT CAVOK 02/M03 Q1000;",
"01044099999","2008-12-08T06:20:00","4","70.486675","22.139744","6.4","HASVIK, NO","FM-15","ENHK ","V020","120,1,N,0108,1","99999,9,C,Y","009900,1,N,1","+0020,1","-0030,1","99999,9",,,,,,,"10000,1,99999,9",,,,,"MET046METAR ENHK 080620Z 12021KT CAVOK 02/M03 Q1000;",
"01044099999","2008-12-08T12:20:00","4","70.486675","22.139744","6.4","HASVIK, NO","FM-15","ENHK ","V020","100,1,N,0098,1","99999,9,C,Y","009900,1,N,1","+0010,1","-0030,1","99999,9",,,,,,,"09959,1,99999,9",,,,,"MET046METAR ENHK 081220Z 10019KT CAVOK 01/M03 Q0996;",
"01044099999","2008-12-08T12:50:00","4","70.486675","22.139744","6.4","HASVIK, NO","FM-15","ENHK ","V020","100,1,N,0093,1","99999,9,C,Y","009900,1,N,1","+0000,1","-0040,1","99999,9",,,,,,,"09970,1,99999,9",,,,,"MET046METAR ENHK 081250Z 10018KT CAVOK 00/M04 Q0997;",
"01044099999","2008-12-08T13:20:00","4","70.486675","22.139744","6.4","HASVIK, NO","FM-15","ENHK ","V020","100,1,N,0082,1","99999,9,C,Y","009900,1,N,1","+0000,1","-0040,1","99999,9",,,,,,,"09970,1,99999,9",,,,,"MET046METAR ENHK 081320Z 10016KT CAVOK 00/M04 Q0997;",
"01044099999","2008-12-08T13:50:00","4","70.486675","22.139744","6.4","HASVIK, NO","FM-15","ENHK ","V020","100,1,N,0077,1","99999,9,C,Y","009900,1,N,1","+0000,1","-0040,1","99999,9",,,,,,,"09970,1,99999,9",,,,,"MET047METAR ENHK 081350Z 10015KT CAVOK M00/M04 Q0997;",
"01044099999","2008-12-08T14:20:00","4","70.486675","22.139744","6.4","HASVIK, NO","FM-15","ENHK ","V020","090,1,N,0087,1","99999,9,C,Y","009900,1,N,1","+0000,1","-0050,1","99999,9",,,,,,,"09970,1,99999,9",,,,,"MET047METAR ENHK 081420Z 09017KT CAVOK M00/M05 Q0997;",
"01044099999","2008-12-08T15:20:00","4","70.486675","22.139744","6.4","HASVIK, NO","FM-15","ENHK ","V020","100,1,N,0077,1","99999,9,C,Y","009900,1,N,1","+0000,1","-0050,1","99999,9",,,,,,,"09970,1,99999,9",,,,,"MET047METAR ENHK 081520Z 10015KT CAVOK M00/M05 Q0997;",
"01044099999","2008-12-09T04:20:00","4","70.486675","22.139744","6.4","HASVIK, NO","FM-15","ENHK ","V020","110,1,N,0046,1","22000,1,9,N","011265,1,N,1","+0000,1","-0020,1","99999,9","04,5,+00570,1,99,9",,,,"04,99,1,99,9,99,9,99999,9,99,9,99,9",,"10000,1,99999,9","85,5",,,,"MET058METAR ENHK 090420Z 11009KT 9999 -SHSN SCT019 00/M02 Q1000;",
"01044099999","2008-12-09T04:50:00","4","70.486675","22.139744","6.4","HASVIK, NO","FM-15","ENHK ","V020","100,1,N,0051,1","22000,1,9,N","006000,1,N,1","+0000,1","-0020,1","99999,9","04,5,+00600,1,99,9",,,,"04,99,1,99,9,99,9,99999,9,99,9,99,9",,"10000,1,99999,9","71,1",,,,"MET056METAR ENHK 090450Z 10010KT 6000 -SN SCT020 00/M02 Q1000;",
"01044099999","2008-12-09T05:20:00","4","70.486675","22.139744","6.4","HASVIK, NO","FM-15","ENHK ","V020","100,1,N,0051,1","22000,1,9,N","007000,1,N,1","+0000,1","-0020,1","99999,9","04,5,+00570,1,99,9",,,,"04,99,1,99,9,99,9,99999,9,99,9,99,9",,"10000,1,99999,9","71,1",,,,"MET057METAR ENHK 090520Z 10010KT 7000 -SN SCT019 M00/M02 Q1000;",
"01044099999","2008-12-09T05:50:00","4","70.486675","22.139744","6.4","HASVIK, NO","FM-15","ENHK ","V020","100,1,N,0041,1","22000,1,9,N","009000,1,N,1","+0000,1","-0020,1","99999,9","04,5,+00600,1,99,9",,,,"04,99,1,99,9,99,9,99999,9,99,9,99,9",,"10000,1,99999,9","71,1",,,,"MET057METAR ENHK 090550Z 10008KT 9000 -SN SCT020 M00/M02 Q1000;",
"01044099999","2008-12-09T06:20:00","4","70.486675","22.139744","6.4","HASVIK, NO","FM-15","ENHK ","V020","130,1,N,0021,1","22000,1,9,N","011265,1,N,1","+0000,1","-0020,1","99999,9","04,5,+00480,1,99,9",,,,"04,99,1,99,9,99,9,99999,9,99,9,99,9",,"10000,1,99999,9","71,1",,,,"MET057METAR ENHK 090620Z 13004KT 9999 -SN SCT016 M00/M02 Q1000;",
"01044099999","2008-12-09T06:50:00","4","70.486675","22.139744","6.4","HASVIK, NO","FM-15","ENHK ","V020","140,1,N,0021,1","22000,1,9,N","011265,1,N,1","+0000,1","-0020,1","99999,9","04,5,+00510,1,99,9",,,,"04,99,1,99,9,99,9,99999,9,99,9,99,9",,"10010,1,99999,9","71,1",,,,"MET057METAR ENHK 090650Z 14004KT 9999 -SN SCT017 M00/M02 Q1001;",
"01044099999","2008-12-09T13:20:00","4","70.486675","22.139744","6.4","HASVIK, NO","FM-15","ENHK ","V020","160,1,N,0031,1","00600,1,C,N","005000,1,N,1","+0000,1","-0020,1","99999,9","04,5,+00450,1,99,9","07,5,+00600,1,99,9",,,"07,99,1,99,9,99,9,99999,9,99,9,99,9",,"10031,1,99999,9","71,1",,,,"MET064METAR ENHK 091320Z 16006KT 5000 -SN SCT015 BKN020 M00/M02 Q1003;",
"01044099999","2008-12-09T13:50:00","4","70.486675","22.139744","6.4","HASVIK, NO","FM-15","ENHK ","V020","150,1,N,0036,1","00450,1,C,N","002000,1,N,1","+0000,1","-0010,1","99999,9","04,5,+00300,1,99,9","07,5,+00450,1,99,9",,,"07,99,1,99,9,99,9,99999,9,99,9,99,9",,"10031,1,99999,9","73,1",,,,"MET063METAR ENHK 091350Z 15007KT 2000 SN SCT010 BKN015 M00/M01 Q1003;",
"01044099999","2008-12-09T14:20:00","4","70.486675","22.139744","6.4","HASVIK, NO","FM-15","ENHK ","V020","110,1,N,0036,1","00450,1,C,N","002000,1,N,1","+0000,1","-0010,1","99999,9","04,5,+00300,1,99,9","07,5,+00450,1,99,9",,,"07,99,1,99,9,99,9,99999,9,99,9,99,9",,"10031,1,99999,9","73,1",,,,"MET063METAR ENHK 091420Z 11007KT 2000 SN SCT010 BKN015 M00/M01 Q1003;",
"01044099999","2008-12-09T15:50:00","4","70.486675","22.139744","6.4","HASVIK, NO","FM-15","ENHK ","V020","150,1,N,0031,1","00300,1,9,N","001000,1,N,1","+0000,1","-0010,1","99999,9","09,1,+00300,1,99,9",,,,"09,99,1,99,9,99,9,00025,1,99,9,99,9",,"10041,1,99999,9","73,1",,,,"MET054METAR ENHK 091550Z 15006KT 1000 SN VV010 00/M01 Q1004;",
"01044099999","2008-12-10T04:20:00","4","70.486675","22.139744","6.4","HASVIK, NO","FM-15","ENHK ","V020","260,1,N,0072,1","00750,1,C,N","011265,1,N,1","+0030,1","+0000,1","99999,9","07,5,+00750,1,99,9",,,,"07,99,1,99,9,99,9,99999,9,99,9,99,9",,"10108,1,99999,9",,,,,"MET052METAR ENHK 100420Z 26014KT 9999 BKN025 03/M00 Q1011;",
"01044099999","2008-12-10T04:50:00","4","70.486675","22.139744","6.4","HASVIK, NO","FM-15","ENHK ","V020","260,1,N,0062,1","00750,1,C,N","011265,1,N,1","+0040,1","-0010,1","99999,9","07,5,+00750,1,99,9",,,,"07,99,1,99,9,99,9,99999,9,99,9,99,9",,"10119,1,99999,9",,,,,"MET052METAR ENHK 100450Z 26012KT 9999 BKN025 04/M01 Q1012;",
"01044099999","2008-12-10T05:20:00","4","70.486675","22.139744","6.4","HASVIK, NO","FM-15","ENHK ","V020","260,1,N,0072,1","00750,1,C,N","011265,1,N,1","+0030,1","-0010,1","99999,9","02,5,+00450,1,99,9","07,5,+00750,1,99,9",,,"07,99,1,99,9,99,9,99999,9,99,9,99,9",,"10119,1,99999,9","61,1",,,,"MET063METAR ENHK 100520Z 26014KT 9999 -RA FEW015 BKN025 03/M01 Q1012;",
"01044099999","2008-12-10T06:50:00","4","70.486675","22.139744","6.4","HASVIK, NO","FM-15","ENHK ","V020","260,1,N,0067,1","00750,1,C,N","011265,1,N,1","+0040,1","-0010,1","99999,9","07,5,+00750,1,99,9",,,,"07,99,1,99,9,99,9,99999,9,99,9,99,9",,"10129,1,99999,9",,,,,"MET052METAR ENHK 100650Z 26013KT 9999 BKN025 04/M01 Q1013;",
"01044099999","2008-12-10T07:50:00","4","70.486675","22.139744","6.4","HASVIK, NO","FM-15","ENHK ","V020","260,1,N,0057,1","01050,1,C,N","011265,1,N,1","+0040,1","-0010,1","99999,9","02,5,+00750,1,99,9","07,5,+01050,1,99,9",,,"07,99,1,99,9,99,9,99999,9,99,9,99,9",,"10139,1,99999,9",,,,,"MET059METAR ENHK 100750Z 26011KT 9999 FEW025 BKN035 04/M01 Q1014;",
"01044099999","2008-12-10T08:50:00","4","70.486675","22.139744","6.4","HASVIK, NO","FM-15","ENHK ","V020","280,1,N,0051,1","01050,1,C,N","011265,1,N,1","+0040,1","-0010,1","99999,9","02,5,+00750,1,99,9","07,5,+01050,1,99,9",,,"07,99,1,99,9,99,9,99999,9,99,9,99,9",,"10139,1,99999,9",,,,,"MET059METAR ENHK 100850Z 28010KT 9999 FEW025 BKN035 04/M01 Q1014;",
"01044099999","2008-12-10T11:20:00","4","70.486675","22.139744","6.4","HASVIK, NO","FM-15","ENHK ","V020","270,1,N,0036,1","00960,1,C,N","011265,1,N,1","+0040,1","-0020,1","99999,9","02,5,+00750,1,99,9","07,5,+00960,1,99,9",,,"07,99,1,99,9,99,9,99999,9,99,9,99,9",,"10159,1,99999,9",,,,,"MET059METAR ENHK 101120Z 27007KT 9999 FEW025 BKN032 04/M02 Q1016;",
"01044099999","2008-12-10T11:50:00","4","70.486675","22.139744","6.4","HASVIK, NO","FM-15","ENHK ","V020","260,1,N,0031,1","00990,1,C,N","011265,1,N,1","+0040,1","-0020,1","99999,9","02,5,+00750,1,99,9","07,5,+00990,1,99,9",,,"07,99,1,99,9,99,9,99999,9,99,9,99,9",,"10159,1,99999,9",,,,,"MET059METAR ENHK 101150Z 26006KT 9999 FEW025 BKN033 04/M02 Q1016;",
"01044099999","2008-12-10T12:20:00","4","70.486675","22.139744","6.4","HASVIK, NO","FM-15","ENHK ","V020","250,1,N,0021,1","99999,9,C,N","011265,1,N,1","+0030,1","-0020,1","99999,9","02,5,+00750,1,99,9","04,5,+00990,1,99,9",,,"04,99,1,99,9,99,9,99999,9,99,9,99,9",,"10159,1,99999,9",,,,,"MET059METAR ENHK 101220Z 25004KT 9999 FEW025 SCT033 03/M02 Q1016;","P01 009903SCOCIG"
"01044099999","2008-12-10T12:50:00","4","70.486675","22.139744","6.4","HASVIK, NO","FM-15","ENHK ","V020","220,1,N,0021,1","22000,1,9,N","011265,1,N,1","+0020,1","-0020,1","99999,9","04,5,+00960,1,99,9",,,,"04,99,1,99,9,99,9,99999,9,99,9,99,9",,"10159,1,99999,9",,,,,"MET060METAR ENHK 101250Z 22004KT 170V280 9999 SCT032 02/M02 Q1016;",
"01044099999","2008-12-10T13:20:00","4","70.486675","22.139744","6.4","HASVIK, NO","FM-15","ENHK ","V020","220,1,N,0036,1","22000,1,9,N","011265,1,N,1","+0030,1","-0020,1","99999,9","04,5,+00960,1,99,9",,,,"04,99,1,99,9,99,9,99999,9,99,9,99,9",,"10159,1,99999,9",,,,,"MET052METAR ENHK 101320Z 22007KT 9999 SCT032 03/M02 Q1016;",
"01044099999","2008-12-10T13:50:00","4","70.486675","22.139744","6.4","HASVIK, NO","FM-15","ENHK ","V020","210,1,N,0021,1","22000,1,9,N","011265,1,N,1","+0020,1","-0010,1","99999,9","02,5,+00930,1,99,9",,,,"02,99,1,99,9,99,9,99999,9,99,9,99,9",,"10169,1,99999,9",,,,,"MET052METAR ENHK 101350Z 21004KT 9999 FEW031 02/M01 Q1017;",
"01044099999","2008-12-10T14:20:00","4","70.486675","22.139744","6.4","HASVIK, NO","FM-15","ENHK ","V020","200,1,N,0021,1","99999,9,C,Y","009900,1,N,1","+0020,1","-0010,1","99999,9",,,,,,,"10169,1,99999,9",,,,,"MET046METAR ENHK 101420Z 20004KT CAVOK 02/M01 Q1017;",
"01044099999","2008-12-10T14:50:00","4","70.486675","22.139744","6.4","HASVIK, NO","FM-15","ENHK ","V020","999,9,V,0005,1","99999,9,C,Y","009900,1,N,1","+0020,1","-0010,1","99999,9",,,,,,,"10169,1,99999,9",,,,,"MET046METAR ENHK 101450Z VRB01KT CAVOK 02/M01 Q1017;",
"01044099999","2008-12-10T15:20:00","4","70.486675","22.139744","6.4","HASVIK, NO","FM-15","ENHK ","V020","999,9,V,0010,1","99999,9,C,Y","009900,1,N,1","+0000,1","-0040,1","99999,9",,,,,,,"10169,1,99999,9",,,,,"MET047METAR ENHK 101520Z VRB02KT CAVOK M00/M04 Q1017;",
"01044099999","2008-12-11T04:20:00","4","70.486675","22.139744","6.4","HASVIK, NO","FM-15","ENHK ","V020","230,1,N,0057,1","99999,9,C,Y","009900,1,N,1","+0040,1","-0020,1","99999,9",,,,,,,"10190,1,99999,9",,,,,"MET046METAR ENHK 110420Z 23011KT CAVOK 04/M02 Q1019;",
"01044099999","2008-12-11T04:50:00","4","70.486675","22.139744","6.4","HASVIK, NO","FM-15","ENHK ","V020","220,1,N,0051,1","99999,9,C,Y","009900,1,N,1","+0040,1","-0020,1","99999,9",,,,,,,"10190,1,99999,9",,,,,"MET046METAR ENHK 110450Z 22010KT CAVOK 04/M02 Q1019;",
"01044099999","2008-12-11T05:20:00","4","70.486675","22.139744","6.4","HASVIK, NO","FM-15","ENHK ","V020","230,1,N,0041,1","02400,1,C,N","011265,1,N,1","+0040,1","-0020,1","99999,9","02,5,+01050,1,99,9","07,5,+02400,1,99,9",,,"07,99,1,99,9,99,9,99999,9,99,9,99,9",,"10190,1,99999,9",,,,,"MET059METAR ENHK 110520Z 23008KT 9999 FEW035 BKN080 04/M02 Q1019;",
"01044099999","2008-12-11T10:50:00","4","70.486675","22.139744","6.4","HASVIK, NO","FM-15","ENHK ","V020","240,1,N,0051,1","01020,1,C,N","011265,1,N,1","+0050,1","-0010,1","99999,9","07,5,+01020,1,99,9",,,,"07,99,1,99,9,99,9,99999,9,99,9,99,9",,"10210,1,99999,9",,,,,"MET052METAR ENHK 111050Z 24010KT 9999 BKN034 05/M01 Q1021;",
"01044099999","2008-12-11T11:20:00","4","70.486675","22.139744","6.4","HASVIK, NO","FM-15","ENHK ","V020","250,1,N,0046,1","01080,1,C,N","011265,1,N,1","+0050,1","-0010,1","99999,9","07,5,+01080,1,99,9",,,,"07,99,1,99,9,99,9,99999,9,99,9,99,9",,"10210,1,99999,9",,,,,"MET052METAR ENHK 111120Z 25009KT 9999 BKN036 05/M01 Q1021;",
"01044099999","2008-12-11T11:50:00","4","70.486675","22.139744","6.4","HASVIK, NO","FM-15","ENHK ","V020","250,1,N,0057,1","01080,1,C,N","011265,1,N,1","+0050,1","-0010,1","99999,9","07,5,+01080,1,99,9",,,,"07,99,1,99,9,99,9,99999,9,99,9,99,9",,"10210,1,99999,9",,,,,"MET052METAR ENHK 111150Z 25011KT 9999 BKN036 05/M01 Q1021;",
"01044099999","2008-12-11T12:20:00","4","70.486675","22.139744","6.4","HASVIK, NO","FM-15","ENHK ","V020","250,1,N,0046,1","01020,1,C,N","011265,1,N,1","+0050,1","-0010,1","99999,9","07,5,+01020,1,99,9",,,,"07,99,1,99,9,99,9,99999,9,99,9,99,9",,"10220,1,99999,9",,,,,"MET052METAR ENHK 111220Z 25009KT 9999 BKN034 05/M01 Q1022;",
"01044099999","2008-12-11T12:50:00","4","70.486675","22.139744","6.4","HASVIK, NO","FM-15","ENHK ","V020","250,1,N,0036,1","00990,1,C,N","011265,1,N,1","+0040,1","-0020,1","99999,9","07,5,+00990,1,99,9",,,,"07,99,1,99,9,99,9,99999,9,99,9,99,9",,"10220,1,99999,9",,,,,"MET052METAR ENHK 111250Z 25007KT 9999 BKN033 04/M02 Q1022;",
"01044099999","2008-12-11T13:20:00","4","70.486675","22.139744","6.4","HASVIK, NO","FM-15","ENHK ","V020","250,1,N,0051,1","00990,1,C,N","011265,1,N,1","+0050,1","-0020,1","99999,9","07,5,+00990,1,99,9",,,,"07,99,1,99,9,99,9,99999,9,99,9,99,9",,"10220,1,99999,9",,,,,"MET052METAR ENHK 111320Z 25010KT 9999 BKN033 05/M02 Q1022;",
"01044099999","2008-12-11T13:50:00","4","70.486675","22.139744","6.4","HASVIK, NO","FM-15","ENHK ","V020","250,1,N,0051,1","00990,1,C,N","011265,1,N,1","+0050,1","-0020,1","99999,9","07,5,+00990,1,99,9",,,,"07,99,1,99,9,99,9,99999,9,99,9,99,9",,"10220,1,99999,9",,,,,"MET052METAR ENHK 111350Z 25010KT 9999 BKN033 05/M02 Q1022;",
"01044099999","2008-12-11T14:20:00","4","70.486675","22.139744","6.4","HASVIK, NO","FM-15","ENHK ","V020","250,1,N,0051,1","01020,1,C,N","011265,1,N,1","+0040,1","-0020,1","99999,9","07,5,+01020,1,99,9",,,,"07,99,1,99,9,99,9,99999,9,99,9,99,9",,"10220,1,99999,9",,,,,"MET052METAR ENHK 111420Z 25010KT 9999 BKN034 04/M02 Q1022;",
"01044099999","2008-12-12T04:20:00","4","70.486675","22.139744","6.4","HASVIK, NO","FM-15","ENHK ","V020","110,1,N,0087,1","99999,9,C,Y","009900,1,N,1","+0010,1","-0020,1","99999,9",,,,,,,"10230,1,99999,9",,,,,"MET046METAR ENHK 120420Z 11017KT CAVOK 01/M02 Q1023;",
"01044099999","2008-12-12T04:50:00","4","70.486675","22.139744","6.4","HASVIK, NO","FM-15","ENHK ","V020","110,1,N,0093,1","99999,9,C,Y","009900,1,N,1","+0000,1","-0030,1","99999,9",,,,,,,"10230,1,99999,9",,,,,"MET046METAR ENHK 120450Z 11018KT CAVOK 00/M03 Q1023;",
"01044099999","2008-12-12T05:20:00","4","70.486675","22.139744","6.4","HASVIK, NO","FM-15","ENHK ","V020","110,1,N,0108,1","99999,9,C,Y","009900,1,N,1","-0010,1","-0040,1","99999,9",,,,,,,"10230,1,99999,9",,,,,"MET047METAR ENHK 120520Z 11021KT CAVOK M01/M04 Q1023;",
"01044099999","2008-12-12T10:50:00","4","70.486675","22.139744","6.4","HASVIK, NO","FM-15","ENHK ","V020","100,1,N,0093,1","99999,9,C,Y","009900,1,N,1","+0000,1","-0050,1","99999,9",,,,,,,"10230,1,99999,9",,,,,"MET047METAR ENHK 121050Z 10018KT CAVOK M00/M05 Q1023;",
"01044099999","2008-12-12T12:20:00","4","70.486675","22.139744","6.4","HASVIK, NO","FM-15","ENHK ","V020","110,1,N,0098,1","99999,9,C,Y","009900,1,N,1","+0010,1","-0040,1","99999,9",,,,,,,"10220,1,99999,9",,,,,"MET046METAR ENHK 121220Z 11019KT CAVOK 01/M04 Q1022;",
"01044099999","2008-12-12T13:50:00","4","70.486675","22.139744","6.4","HASVIK, NO","FM-15","ENHK ","V020","130,1,N,0098,1","99999,9,C,Y","009900,1,N,1","+0020,1","-0040,1","99999,9",,,,,,,"10220,1,99999,9",,,,,"MET046METAR ENHK 121350Z 13019KT CAVOK 02/M04 Q1022;",
"01044099999","2008-12-12T14:50:00","4","70.486675","22.139744","6.4","HASVIK, NO","FM-15","ENHK ","V020","130,1,N,0103,1","99999,9,C,Y","009900,1,N,1","+0030,1","-0030,1","99999,9",,,,,,,"10220,1,99999,9",,,,,"MET054METAR ENHK 121450Z 13020KT 100V160 CAVOK 03/M03 Q1022;",
"01044099999","2008-12-12T15:20:00","4","70.486675","22.139744","6.4","HASVIK, NO","FM-15","ENHK ","V020","150,1,N,0103,1","99999,9,C,Y","009900,1,N,1","+0030,1","-0030,1","99999,9",,,,,,,"10220,1,99999,9",,,,,"MET046METAR ENHK 121520Z 15020KT CAVOK 03/M03 Q1022;",
"01044099999","2008-12-14T12:50:00","4","70.486675","22.139744","6.4","HASVIK, NO","FM-15","ENHK ","V020","120,1,N,0093,1","99999,9,C,Y","009900,1,N,1","+0030,1","-0020,1","99999,9",,,,,,,"10230,1,99999,9",,,,,"MET046METAR ENHK 141250Z 12018KT CAVOK 03/M02 Q1023;",
"01044099999","2008-12-14T13:50:00","4","70.486675","22.139744","6.4","HASVIK, NO","FM-15","ENHK ","V020","120,1,N,0072,1","99999,9,C,Y","009900,1,N,1","+0030,1","-0020,1","99999,9",,,,,,,"10230,1,99999,9",,,,,"MET046METAR ENHK 141350Z 12014KT CAVOK 03/M02 Q1023;",
"01044099999","2008-12-15T04:20:00","4","70.486675","22.139744","6.4","HASVIK, NO","FM-15","ENHK ","V020","999,9,V,0015,1","99999,9,C,Y","009900,1,N,1","-0010,1","-0040,1","99999,9",,,,,,,"10200,1,99999,9",,,,,"MET047METAR ENHK 150420Z VRB03KT CAVOK M01/M04 Q1020;",
"01044099999","2008-12-15T04:50:00","4","70.486675","22.139744","6.4","HASVIK, NO","FM-15","ENHK ","V020","110,1,N,0031,1","99999,9,C,Y","009900,1,N,1","+0000,1","-0040,1","99999,9",,,,,,,"10200,1,99999,9",,,,,"MET047METAR ENHK 150450Z 11006KT CAVOK M00/M04 Q1020;",
"01044099999","2008-12-15T05:50:00","4","70.486675","22.139744","6.4","HASVIK, NO","FM-15","ENHK ","V020","130,1,N,0062,1","99999,9,C,Y","009900,1,N,1","+0010,1","-0030,1","99999,9",,,,,,,"10200,1,99999,9",,,,,"MET046METAR ENHK 150550Z 13012KT CAVOK 01/M03 Q1020;",
"01044099999","2008-12-15T06:50:00","4","70.486675","22.139744","6.4","HASVIK, NO","FM-15","ENHK ","V020","100,1,N,0021,1","99999,9,C,Y","009900,1,N,1","-0010,1","-0050,1","99999,9",,,,,,,"10200,1,99999,9",,,,,"MET047METAR ENHK 150650Z 10004KT CAVOK M01/M05 Q1020;",
"01044099999","2008-12-15T09:50:00","4","70.486675","22.139744","6.4","HASVIK, NO","FM-15","ENHK ","V020","120,1,N,0062,1","99999,9,C,Y","009900,1,N,1","+0010,1","-0030,1","99999,9",,,,,,,"10190,1,99999,9",,,,,"MET046METAR ENHK 150950Z 12012KT CAVOK 01/M03 Q1019;",
"01044099999","2008-12-15T10:50:00","4","70.486675","22.139744","6.4","HASVIK, NO","FM-15","ENHK ","V020","130,1,N,0036,1","99999,9,C,Y","009900,1,N,1","+0010,1","-0040,1","99999,9",,,,,,,"10190,1,99999,9",,,,,"MET046METAR ENHK 151050Z 13007KT CAVOK 01/M04 Q1019;",
"01044099999","2008-12-15T11:50:00","4","70.486675","22.139744","6.4","HASVIK, NO","FM-15","ENHK ","V020","150,1,N,0051,1","99999,9,C,Y","009900,1,N,1","+0020,1","-0050,1","99999,9",,,,,,,"10180,1,99999,9",,,,,"MET046METAR ENHK 151150Z 15010KT CAVOK 02/M05 Q1018;",
"01044099999","2008-12-15T12:50:00","4","70.486675","22.139744","6.4","HASVIK, NO","FM-15","ENHK ","V020","130,1,N,0041,1","99999,9,C,Y","009900,1,N,1","+0030,1","-0060,1","99999,9",,,,,,,"10169,1,99999,9",,,,,"MET046METAR ENHK 151250Z 13008KT CAVOK 03/M06 Q1017;",
"01044099999","2008-12-15T13:50:00","4","70.486675","22.139744","6.4","HASVIK, NO","FM-15","ENHK ","V020","120,1,N,0051,1","99999,9,C,Y","009900,1,N,1","+0020,1","-0060,1","99999,9",,,,,,,"10159,1,99999,9",,,,,"MET046METAR ENHK 151350Z 12010KT CAVOK 02/M06 Q1016;",
"01044099999","2008-12-15T14:50:00","4","70.486675","22.139744","6.4","HASVIK, NO","FM-15","ENHK ","V020","110,1,N,0067,1","99999,9,C,Y","009900,1,N,1","+0020,1","-0040,1","99999,9",,,,,,,"10149,1,99999,9",,,,,"MET046METAR ENHK 151450Z 11013KT CAVOK 02/M04 Q1015;",
"01044099999","2008-12-16T04:20:00","4","70.486675","22.139744","6.4","HASVIK, NO","FM-15","ENHK ","V020","110,1,N,0093,1","99999,9,C,Y","009900,1,N,1","+0050,1","-0020,1","99999,9",,,,,,,"10031,1,99999,9",,,,,"MET046METAR ENHK 160420Z 11018KT CAVOK 05/M02 Q1003;",
"01044099999","2008-12-16T04:50:00","4","70.486675","22.139744","6.4","HASVIK, NO","FM-15","ENHK ","V020","110,1,N,0108,1","99999,9,C,Y","009900,1,N,1","+0040,1","-0020,1","99999,9",,,,,,,"10020,1,99999,9",,,,,"MET046METAR ENHK 160450Z 11021KT CAVOK 04/M02 Q1002;",
"01044099999","2008-12-16T05:50:00","4","70.486675","22.139744","6.4","HASVIK, NO","FM-15","ENHK ","V020","130,1,N,0108,1","99999,9,C,Y","009900,1,N,1","+0050,1","-0050,1","99999,9",,,,,,,"10010,1,99999,9",,,,"0159,1","MET057METAR ENHK 160550Z 13021G31KT 100V160 CAVOK 05/M05 Q1001;",
"01044099999","2008-12-16T06:20:00","4","70.486675","22.139744","6.4","HASVIK, NO","FM-15","ENHK ","V020","110,1,N,0118,1","99999,9,C,Y","009900,1,N,1","+0040,1","-0020,1","99999,9",,,,,,,"10000,1,99999,9",,,,,"MET046METAR ENHK 160620Z 11023KT CAVOK 04/M02 Q1000;",
"01044099999","2008-12-16T13:20:00","4","70.486675","22.139744","6.4","HASVIK, NO","FM-15","ENHK ","V020","140,1,N,0108,1","99999,9,C,Y","009900,1,N,1","+0040,1","-0020,1","99999,9",,,,,,,"09980,1,99999,9",,,,,"MET046METAR ENHK 161320Z 14021KT CAVOK 04/M02 Q0998;",
"01044099999","2008-12-16T13:50:00","4","70.486675","22.139744","6.4","HASVIK, NO","FM-15","ENHK ","V020","999,9,N,0113,1","99999,9,C,N","011265,1,N,1","+0040,1","-0020,1","99999,9","02,5,+00810,1,99,9","04,5,+01560,5,99,9",,,"04,99,1,99,9,99,9,99999,9,99,9,99,9",,"09980,1,99999,9",,,,,"MET059METAR ENHK 161350Z 10422KT 9999 FEW027 SCT052 04/M02 Q0998;","P01 015603SCOCIG"
"01044099999","2008-12-16T14:20:00","4","70.486675","22.139744","6.4","HASVIK, NO","FM-15","ENHK ","V020","140,1,N,0103,1","99999,9,C,N","011265,1,N,1","+0040,1","-0020,1","99999,9","02,5,+00810,1,99,9","04,5,+01590,5,99,9",,,"04,99,1,99,9,99,9,99999,9,99,9,99,9",,"09980,1,99999,9",,,,,"MET059METAR ENHK 161420Z 14020KT 9999 FEW027 SCT053 04/M02 Q0998;","P01 015903SCOCIG"
"01044099999","2008-12-16T15:20:00","4","70.486675","22.139744","6.4","HASVIK, NO","FM-15","ENHK ","V020","140,1,N,0093,1","99999,9,C,N","011265,1,N,1","+0040,1","-0020,1","99999,9","02,5,+00840,1,99,9","04,5,+01590,5,99,9",,,"04,99,1,99,9,99,9,99999,9,99,9,99,9",,"09970,1,99999,9",,,,,"MET059METAR ENHK 161520Z 14018KT 9999 FEW028 SCT053 04/M02 Q0997;","P01 015903SCOCIG"
"01044099999","2008-12-17T04:20:00","4","70.486675","22.139744","6.4","HASVIK, NO","FM-15","ENHK ","V020","110,1,N,0087,1","99999,9,C,N","011265,1,N,1","+0050,1","+0010,1","99999,9","02,5,+00900,1,99,9","04,5,+01950,5,99,9",,,"04,99,1,99,9,99,9,99999,9,99,9,99,9",,"09949,1,99999,9",,,,,"MET058METAR ENHK 170420Z 11017KT 9999 FEW030 SCT065 05/01 Q0995;","P01 019503SCOCIG"
"01044099999","2008-12-17T04:50:00","4","70.486675","22.139744","6.4","HASVIK, NO","FM-15","ENHK ","V020","110,1,N,0087,1","03000,1,C,N","011265,1,N,1","+0050,1","+0010,1","99999,9","02,5,+00900,1,99,9","07,5,+03000,1,99,9",,,"07,99,1,99,9,99,9,99999,9,99,9,99,9",,"09949,1,99999,9",,,,,"MET058METAR ENHK 170450Z 11017KT 9999 FEW030 BKN100 05/01 Q0995;",
"01044099999","2008-12-17T05:50:00","4","70.486675","22.139744","6.4","HASVIK, NO","FM-15","ENHK ","V020","100,1,N,0077,1","03000,1,C,N","011265,1,N,1","+0050,1","+0020,1","99999,9","02,5,+00900,1,99,9","07,5,+03000,1,99,9",,,"07,99,1,99,9,99,9,99999,9,99,9,99,9",,"09949,1,99999,9",,,,,"MET058METAR ENHK 170550Z 10015KT 9999 FEW030 BKN100 05/02 Q0995;",
"01044099999","2008-12-17T06:50:00","4","70.486675","22.139744","6.4","HASVIK, NO","FM-15","ENHK ","V020","100,1,N,0087,1","03000,1,C,N","011265,1,N,1","+0050,1","+0010,1","99999,9","02,5,+00900,1,99,9","07,5,+03000,1,99,9",,,"07,99,1,99,9,99,9,99999,9,99,9,99,9",,"09949,1,99999,9",,,,,"MET058METAR ENHK 170650Z 10017KT 9999 FEW030 BKN100 05/01 Q0995;",
"01044099999","2008-12-17T07:50:00","4","70.486675","22.139744","6.4","HASVIK, NO","FM-15","ENHK ","V020","090,1,N,0077,1","22000,1,9,N","011265,1,N,1","+0040,1","+0010,1","99999,9",,,,,"00,99,1,99,9,99,9,99999,9,99,9,99,9",,"09949,1,99999,9",,,,,"MET048METAR ENHK 170750Z 09015KT 9999 NSC 04/01 Q0995;","Q01    003SCCGA1"
"01044099999","2008-12-17T08:50:00","4","70.486675","22.139744","6.4","HASVIK, NO","FM-15","ENHK ","V020","110,1,N,0093,1","22000,1,9,N","011265,1,N,1","+0050,1","+0010,1","99999,9",,,,,"00,99,1,99,9,99,9,99999,9,99,9,99,9",,"09939,1,99999,9",,,,,"MET048METAR ENHK 170850Z 11018KT 9999 NSC 05/01 Q0994;","Q01    003SCCGA1"
"01044099999","2008-12-17T09:50:00","4","70.486675","22.139744","6.4","HASVIK, NO","FM-15","ENHK ","V020","110,1,N,0098,1","22000,1,9,N","011265,1,N,1","+0050,1","+0010,1","99999,9",,,,,"00,99,1,99,9,99,9,99999,9,99,9,99,9",,"09929,1,99999,9",,,,,"MET048METAR ENHK 170950Z 11019KT 9999 NSC 05/01 Q0993;","Q01    003SCCGA1"
"01044099999","2008-12-17T10:50:00","4","70.486675","22.139744","6.4","HASVIK, NO","FM-15","ENHK ","V020","140,1,N,0087,1","22000,1,9,N","011265,1,N,1","+0060,1","+0000,1","99999,9",,,,,"00,99,1,99,9,99,9,99999,9,99,9,99,9",,"09919,1,99999,9",,,,,"MET048METAR ENHK 171050Z 14017KT 9999 NSC 06/00 Q0992;","Q01    003SCCGA1"
"01044099999","2008-12-17T12:20:00","4","70.486675","22.139744","6.4","HASVIK, NO","FM-15","ENHK ","V020","150,1,N,0093,1","22000,1,9,N","011265,1,N,1","+0050,1","+0000,1","99999,9",,,,,"00,99,1,99,9,99,9,99999,9,99,9,99,9",,"09898,1,99999,9",,,,,"MET049METAR ENHK 171220Z 15018KT 9999 NSC 05/M00 Q0990;","Q01    003SCCGA1"
"01044099999","2008-12-17T12:50:00","4","70.486675","22.139744","6.4","HASVIK, NO","FM-15","ENHK ","V020","150,1,N,0087,1","22000,1,9,N","011265,1,N,1","+0050,1","+0000,1","99999,9",,,,,"00,99,1,99,9,99,9,99999,9,99,9,99,9",,"09898,1,99999,9",,,,,"MET049METAR ENHK 171250Z 15017KT 9999 NSC 05/M00 Q0990;","Q01    003SCCGA1"
"01044099999","2008-12-17T13:20:00","4","70.486675","22.139744","6.4","HASVIK, NO","FM-15","ENHK ","V020","150,1,N,0093,1","99999,9,C,Y","009900,1,N,1","+0060,1","-0010,1","99999,9",,,,,,,"09892,1,99999,9",,,,,"MET046METAR ENHK 171320Z 15018KT CAVOK 06/M01 Q0989;",
"01044099999","2008-12-17T13:50:00","4","70.486675","22.139744","6.4","HASVIK, NO","FM-15","ENHK ","V020","150,1,N,0123,1","99999,9,C,Y","009900,1,N,1","+0060,1","+0000,1","99999,9",,,,,,,"09882,1,99999,9",,,,,"MET046METAR ENHK 171350Z 15024KT CAVOK 06/M00 Q0988;",
"01044099999","2008-12-17T14:20:00","4","70.486675","22.139744","6.4","HASVIK, NO","FM-15","ENHK ","V020","150,1,N,0098,1","99999,9,C,Y","009900,1,N,1","+0060,1","-0010,1","99999,9",,,,,,,"09882,1,99999,9",,,,,"MET046METAR ENHK 171420Z 15019KT CAVOK 06/M01 Q0988;",
"01044099999","2008-12-17T14:50:00","4","70.486675","22.139744","6.4","HASVIK, NO","FM-15","ENHK ","V020","140,1,N,0123,1","99999,9,C,Y","009900,1,N,1","+0060,1","-0010,1","99999,9",,,,,,,"09882,1,99999,9",,,,,"MET046METAR ENHK 171450Z 14024KT CAVOK 06/M01 Q0988;",
"01044099999","2008-12-17T15:20:00","4","70.486675","22.139744","6.4","HASVIK, NO","FM-15","ENHK ","V020","150,1,N,0098,1","99999,9,C,Y","009900,1,N,1","+0050,1","-0010,1","99999,9",,,,,,,"99999,9,99999,9",,,,,"MET046METAR ENHK 171520Z 15019KT CAVOK 05/M01 Q0998;","Q01+099803APOA  Q02 099803APOA  "
"01044099999","2008-12-17T15:50:00","4","70.486675","22.139744","6.4","HASVIK, NO","FM-15","ENHK ","V020","160,1,N,0093,1","99999,9,C,Y","009900,1,N,1","+0050,1","-0010,1","99999,9",,,,,,,"09871,1,99999,9",,,,"0144,1","MET049METAR ENHK 171550Z 16018G28KT CAVOK 05/M01 Q0987;",
"01044099999","2008-12-17T16:20:00","4","70.486675","22.139744","6.4","HASVIK, NO","FM-15","ENHK ","V020","160,1,N,0093,1","99999,9,C,Y","009900,1,N,1","+0050,1","-0010,1","99999,9",,,,,,,"09871,1,99999,9",,,,,"MET046METAR ENHK 171620Z 16018KT CAVOK 05/M01 Q0987;",
"01044099999","2008-12-18T04:20:00","4","70.486675","22.139744","6.4","HASVIK, NO","FM-15","ENHK ","V020","150,1,N,0093,1","99999,9,C,Y","009900,1,N,1","+0050,1","-0030,1","99999,9",,,,,,,"09882,1,99999,9",,,,,"MET046METAR ENHK 180420Z 15018KT CAVOK 05/M03 Q0988;",
"01044099999","2008-12-18T04:50:00","4","70.486675","22.139744","6.4","HASVIK, NO","FM-15","ENHK ","V020","150,1,N,0077,1","22000,1,9,N","011265,1,N,1","+0050,1","-0020,1","99999,9","02,5,+00900,1,99,9",,,,"02,99,1,99,9,99,9,99999,9,99,9,99,9",,"09882,1,99999,9",,,,,"MET052METAR ENHK 180450Z 15015KT 9999 FEW030 05/M02 Q0988;",
"01044099999","2008-12-18T05:50:00","4","70.486675","22.139744","6.4","HASVIK, NO","FM-15","ENHK ","V020","170,1,N,0051,1","22000,1,9,N","011265,1,N,1","+0050,1","-0020,1","99999,9",,,,,"00,99,1,99,9,99,9,99999,9,99,9,99,9",,"09882,1,99999,9",,,,,"MET049METAR ENHK 180550Z 17010KT 9999 NSC 05/M02 Q0988;","Q01    003SCCGA1"
"01044099999","2008-12-18T07:50:00","4","70.486675","22.139744","6.4","HASVIK, NO","FM-15","ENHK ","V020","160,1,N,0062,1","99999,9,C,N","011265,1,N,1","+0040,1","-0020,1","99999,9","02,5,+00900,1,99,9","04,5,+01950,5,99,9",,,"04,99,1,99,9,99,9,99999,9,99,9,99,9",,"09882,1,99999,9",,,,,"MET059METAR ENHK 180750Z 16012KT 9999 FEW030 SCT065 04/M02 Q0988;","P01 019503SCOCIG"
"01044099999","2008-12-18T08:50:00","4","70.486675","22.139744","6.4","HASVIK, NO","FM-15","ENHK ","V020","170,1,N,0057,1","99999,9,C,N","011265,1,N,1","+0050,1","-0020,1","99999,9","02,5,+00900,1,99,9","04,5,+01950,5,99,9",,,"04,99,1,99,9,99,9,99999,9,99,9,99,9",,"09882,1,99999,9",,,,,"MET059METAR ENHK 180850Z 17011KT 9999 FEW030 SCT065 05/M02 Q0988;","P01 019503SCOCIG"
"01044099999","2008-12-18T09:50:00","4","70.486675","22.139744","6.4","HASVIK, NO","FM-15","ENHK ","V020","140,1,N,0082,1","22000,1,9,N","011265,1,N,1","+0050,1","-0030,1","99999,9",,,,,"00,99,1,99,9,99,9,99999,9,99,9,99,9",,"09871,1,99999,9",,,,,"MET049METAR ENHK 180950Z 14016KT 9999 NSC 05/M03 Q0987;","Q01    003SCCGA1"
"01044099999","2008-12-18T11:50:00","4","70.486675","22.139744","6.4","HASVIK, NO","FM-15","ENHK ","V020","120,1,N,0067,1","22000,1,9,N","011265,1,N,1","+0050,1","-0020,1","99999,9",,,,,"00,99,1,99,9,99,9,99999,9,99,9,99,9",,"09861,1,99999,9",,,,,"MET049METAR ENHK 181150Z 12013KT 9999 NSC 05/M02 Q0986;","Q01    003SCCGA1"
"01044099999","2008-12-18T12:50:00","4","70.486675","22.139744","6.4","HASVIK, NO","FM-15","ENHK ","V020","140,1,N,0098,1","22000,1,9,N","011265,1,N,1","+0040,1","-0030,1","99999,9",,,,,"00,99,1,99,9,99,9,99999,9,99,9,99,9",,"09851,1,99999,9",,,,,"MET049METAR ENHK 181250Z 14019KT 9999 NSC 04/M03 Q0985;","Q01    003SCCGA1"
"01044099999","2008-12-18T13:20:00","4","70.486675","22.139744","6.4","HASVIK, NO","FM-15","ENHK ","V020","140,1,N,0093,1","22000,1,9,N","011265,1,N,1","+0050,1","-0040,1","99999,9",,,,,"00,99,1,99,9,99,9,99999,9,99,9,99,9",,"09851,1,99999,9",,,,,"MET049METAR ENHK 181320Z 14018KT 9999 NSC 05/M04 Q0985;","Q01    003SCCGA1"
"01044099999","2008-12-18T13:50:00","4","70.486675","22.139744","6.4","HASVIK, NO","FM-15","ENHK ","V020","140,1,N,0113,1","99999,9,C,Y","009900,1,N,1","+0040,1","-0040,1","99999,9",,,,,,,"09841,1,99999,9",,,,,"MET046METAR ENHK 181350Z 14022KT CAVOK 04/M04 Q0984;",
"01044099999","2008-12-18T14:20:00","4","70.486675","22.139744","6.4","HASVIK, NO","FM-15","ENHK ","V020","140,1,N,0123,1","99999,9,C,Y","009900,1,N,1","+0040,1","-0030,1","99999,9",,,,,,,"09841,1,99999,9",,,,,"MET046METAR ENHK 181420Z 14024KT CAVOK 04/M03 Q0984;",
"01044099999","2008-12-18T14:50:00","4","70.486675","22.139744","6.4","HASVIK, NO","FM-15","ENHK ","V020","140,1,N,0129,1","99999,9,C,Y","009900,1,N,1","+0040,1","-0030,1","99999,9",,,,,,,"09841,1,99999,9",,,,,"MET046METAR ENHK 181450Z 14025KT CAVOK 04/M03 Q0984;",
"01044099999","2008-12-18T15:20:00","4","70.486675","22.139744","6.4","HASVIK, NO","FM-15","ENHK ","V020","140,1,N,0144,1","99999,9,C,Y","009900,1,N,1","+0030,1","-0030,1","99999,9",,,,,,,"09831,1,99999,9",,,,,"MET046METAR ENHK 181520Z 14028KT CAVOK 03/M03 Q0983;",
"01044099999","2008-12-19T04:20:00","4","70.486675","22.139744","6.4","HASVIK, NO","FM-15","ENHK ","V020","120,1,N,0026,1","22000,1,9,N","011265,1,N,1","+0030,1","+0000,1","99999,9","02,5,+01050,1,99,9",,,,"02,99,1,99,9,99,9,99999,9,99,9,99,9",,"09810,1,99999,9",,,,,"MET059METAR ENHK 190420Z 12005KT 070V180 9999 FEW035 03/00 Q0981;",
"01044099999","2008-12-19T04:50:00","4","70.486675","22.139744","6.4","HASVIK, NO","FM-15","ENHK ","V020","090,1,N,0041,1","22000,1,9,N","011265,1,N,1","+0030,1","+0000,1","99999,9","02,5,+01200,1,99,9",,,,"02,99,1,99,9,99,9,99999,9,99,9,99,9",,"09810,1,99999,9",,,,,"MET052METAR ENHK 190450Z 09008KT 9999 FEW040 03/M00 Q0981;",
"01044099999","2008-12-19T05:50:00","4","70.486675","22.139744","6.4","HASVIK, NO","FM-15","ENHK ","V020","100,1,N,0046,1","22000,1,9,N","011265,1,N,1","+0040,1","-0010,1","99999,9","02,5,+01200,1,99,9",,,,"02,99,1,99,9,99,9,99999,9,99,9,99,9",,"09810,1,99999,9",,,,,"MET052METAR ENHK 190550Z 10009KT 9999 FEW040 04/M01 Q0981;",
"01044099999","2008-12-19T06:20:00","4","70.486675","22.139744","6.4","HASVIK, NO","FM-15","ENHK ","V020","090,1,N,0051,1","22000,1,9,N","011265,1,N,1","+0040,1","-0010,1","99999,9","02,5,+01350,1,99,9",,,,"02,99,1,99,9,99,9,99999,9,99,9,99,9",,"09810,1,99999,9",,,,,"MET052METAR ENHK 190620Z 09010KT 9999 FEW045 04/M01 Q0981;",
"01044099999","2008-12-19T12:50:00","4","70.486675","22.139744","6.4","HASVIK, NO","FM-15","ENHK ","V020","210,1,N,0041,1","99999,9,C,N","011265,1,N,1","+0060,1","-0020,1","99999,9","02,5,+00600,1,99,9","04,5,+01800,1,99,9",,,"04,99,1,99,9,99,9,99999,9,99,9,99,9",,"09831,1,99999,9",,,,,"MET067METAR ENHK 191250Z 21008KT 150V260 9999 FEW020 SCT060 06/M02 Q0983;","P01 018003SCOCIG"
"01044099999","2008-12-19T13:20:00","4","70.486675","22.139744","6.4","HASVIK, NO","FM-15","ENHK ","V020","220,1,N,0062,1","99999,9,C,N","011265,1,N,1","+0050,1","+0000,1","99999,9","02,5,+00690,1,99,9","04,5,+01890,5,99,9",,,"04,99,1,99,9,99,9,99999,9,99,9,99,9",,"09841,1,99999,9",,,,,"MET059METAR ENHK 191320Z 22012KT 9999 FEW023 SCT063 05/M00 Q0984;","P01 018903SCOCIG"
"01044099999","2008-12-19T13:50:00","4","70.486675","22.139744","6.4","HASVIK, NO","FM-15","ENHK ","V020","230,1,N,0046,1","99999,9,C,N","011265,1,N,1","+0050,1","+0000,1","99999,9","02,5,+00720,1,99,9","04,5,+01950,5,99,9",,,"04,99,1,99,9,99,9,99999,9,99,9,99,9",,"09841,1,99999,9","80,1",,,,"MET064METAR ENHK 191350Z 23009KT 9999 -SHRA FEW024 SCT065 05/00 Q0984;","P01 019503SCOCIG"
"01044099999","2008-12-19T14:20:00","4","70.486675","22.139744","6.4","HASVIK, NO","FM-15","ENHK ","V020","230,1,N,0087,1","99999,9,C,N","011265,1,N,1","+0040,1","+0010,1","99999,9","02,5,+00690,1,99,9","04,5,+01800,1,99,9",,,"04,99,1,99,9,99,9,99999,9,99,9,99,9",,"09851,1,99999,9","80,1",,,,"MET064METAR ENHK 191420Z 23017KT 9999 -SHRA FEW023 SCT060 04/01 Q0985;","P01 018003SCOCIG"
"01044099999","2008-12-19T14:50:00","4","70.486675","22.139744","6.4","HASVIK, NO","FM-15","ENHK ","V020","230,1,N,0077,1","99999,9,C,N","009000,1,N,1","+0040,1","+0020,1","99999,9","02,5,+00720,1,99,9","04,5,+02400,1,99,9",,,"04,99,1,99,9,99,9,99999,9,99,9,99,9",,"09861,1,99999,9","80,1",,,,"MET064METAR ENHK 191450Z 23015KT 9000 -SHRA FEW024 SCT080 04/02 Q0986;","P01 024003SCOCIG"
"01044099999","2008-12-21T12:50:00","4","70.486675","22.139744","6.4","HASVIK, NO","FM-15","ENHK ","V020","240,1,N,0031,1","22000,1,9,N","011265,1,N,1","+0030,1","-0030,1","99999,9","04,5,+01050,1,99,9",,,,"04,99,1,99,9,99,9,99999,9,99,9,99,9",,"09939,1,99999,9",,,,,"MET052METAR ENHK 211250Z 24006KT 9999 SCT035 03/M03 Q0994;",
"01044099999","2008-12-21T13:20:00","4","70.486675","22.139744","6.4","HASVIK, NO","FM-15","ENHK ","V020","260,1,N,0067,1","22000,1,9,N","011265,1,N,1","+0020,1","-0020,1","99999,9","04,5,+00990,1,99,9",,,,"04,99,1,99,9,99,9,99999,9,99,9,99,9",,"09939,1,99999,9",,,,,"MET052METAR ENHK 211320Z 26013KT 9999 SCT033 02/M02 Q0994;",
"01044099999","2008-12-21T13:50:00","4","70.486675","22.139744","6.4","HASVIK, NO","FM-15","ENHK ","V020","270,1,N,0082,1","22000,1,9,N","011265,1,N,1","+0020,1","-0020,1","99999,9","04,5,+00990,1,99,9",,,,"04,99,1,99,9,99,9,99999,9,99,9,99,9",,"09939,1,99999,9","80,1",,,,"MET058METAR ENHK 211350Z 27016KT 9999 -SHRA SCT033 02/M02 Q0994;",
"01044099999","2008-12-21T14:20:00","4","70.486675","22.139744","6.4","HASVIK, NO","FM-15","ENHK ","V020","280,1,N,0046,1","22000,1,9,N","011265,1,N,1","+0010,1","-0010,1","99999,9","04,5,+01020,1,99,9",,,,"04,99,1,99,9,99,9,99999,9,99,9,99,9",,"09939,1,99999,9","80,1",,,,"MET060METAR ENHK 211420Z 28009KT 9999 -SHSNRA SCT034 01/M01 Q0994;",
"01044099999","2008-12-22T04:20:00","4","70.486675","22.139744","6.4","HASVIK, NO","FM-15","ENHK ","V020","350,1,N,0026,1","00960,1,C,N","011265,1,N,1","+0010,1","-0020,1","99999,9","04,5,+00480,1,99,9","07,5,+00960,1,99,9",,,"07,99,1,99,9,99,9,99999,9,99,9,99,9",,"09939,1,99999,9","85,5",,,,"MET073METAR ENHK 220420Z 35005KT 310V030 9999 -SHSN SCT016 BKN032 01/M02 Q0994;",
"01044099999","2008-12-22T04:50:00","4","70.486675","22.139744","6.4","HASVIK, NO","FM-15","ENHK ","V020","999,9,V,0010,1","00750,1,C,N","008000,1,N,1","+0000,1","-0030,1","99999,9","02,5,+00450,1,99,9","04,5,+00750,1,99,9","07,5,+00960,1,99,9",,"07,99,1,99,9,99,9,99999,9,99,9,99,9",,"09939,1,99999,9","16,1",,,,"MET078METAR ENHK 220450Z VRB02KT 8000W VCSH FEW015 SCT025 BKN032 00/M03 Q0994 -RESN;",
"01044099999","2008-12-22T05:20:00","4","70.486675","22.139744","6.4","HASVIK, NO","FM-15","ENHK ","V020","280,1,N,0041,1","00150,1,9,N","000800,1,N,1","+0000,1","-0010,1","99999,9","09,1,+00150,1,99,9",,,,"09,99,1,99,9,99,9,00025,1,99,9,99,9",,"09939,1,99999,9","86,5",,,,"MET066METAR ENHK 220520Z 28008KT 250V310 0800 +SHSN VV005 M00/M01 Q0994;",
"01044099999","2008-12-22T05:50:00","4","70.486675","22.139744","6.4","HASVIK, NO","FM-15","ENHK ","V020","230,1,N,0026,1","00300,1,9,N","001500,1,N,1","-0010,1","-0020,1","99999,9","09,1,+00300,1,99,9",,,,"09,99,1,99,9,99,9,00025,1,99,9,99,9",,"09949,1,99999,9","73,1",,,,"MET063METAR ENHK 220550Z 23005KT 200V260 1500 SN VV010 M01/M02 Q0995;",
"01044099999","2008-12-22T06:20:00","4","70.486675","22.139744","6.4","HASVIK, NO","FM-15","ENHK ","V020","300,1,N,0015,1","00390,1,9,N","005000,1,N,1","-0010,1","-0010,1","99999,9","09,1,+00390,1,99,9",,,,"09,99,1,99,9,99,9,00025,1,99,9,99,9",,"09949,1,99999,9","71,1",,,,"MET056METAR ENHK 220620Z 30003KT 5000 -SN VV013 M01/M01 Q0995;",
"01044099999","2008-12-22T12:50:00","4","70.486675","22.139744","6.4","HASVIK, NO","FM-15","ENHK ","V020","230,1,N,0041,1","99999,9,C,N","011265,1,N,1","+0000,1","-0020,1","99999,9","02,5,+00330,1,99,9","04,5,+00540,1,99,9",,,"04,99,1,99,9,99,9,99999,9,99,9,99,9",,"10000,1,99999,9","16,1",,,,"MET065METAR ENHK 221250Z 23008KT 9999 VCSH FEW011 SCT018 M00/M02 Q1000;","P01 005403SCOCIG"
"01044099999","2008-12-22T13:20:00","4","70.486675","22.139744","6.4","HASVIK, NO","FM-15","ENHK ","V020","230,1,N,0046,1","99999,9,C,N","011265,1,N,1","+0000,1","-0020,1","99999,9","02,5,+00360,1,99,9","04,5,+00570,1,99,9",,,"04,99,1,99,9,99,9,99999,9,99,9,99,9",,"10000,1,99999,9","16,1",,,,"MET064METAR ENHK 221320Z 23009KT 9999 VCSH FEW012 SCT019 00/M02 Q1000;","P01 005703SCOCIG"
"01044099999","2008-12-22T13:50:00","4","70.486675","22.139744","6.4","HASVIK, NO","FM-15","ENHK ","V020","220,1,N,0041,1","99999,9,C,N","011265,1,N,1","+0000,1","-0020,1","99999,9","02,5,+00360,1,99,9","04,5,+00600,1,99,9",,,"04,99,1,99,9,99,9,99999,9,99,9,99,9",,"10010,1,99999,9","16,1",,,,"MET064METAR ENHK 221350Z 22008KT 9999 VCSH FEW012 SCT020 00/M02 Q1001;","P01 006003SCOCIG"
"01044099999","2008-12-22T14:20:00","4","70.486675","22.139744","6.4","HASVIK, NO","FM-15","ENHK ","V020","230,1,N,0062,1","99999,9,C,N","007000,1,N,1","+0000,1","-0020,1","99999,9","02,5,+00360,1,99,9","04,5,+00660,1,99,9",,,"04,99,1,99,9,99,9,99999,9,99,9,99,9",,"10010,1,99999,9","85,5",,,,"MET065METAR ENHK 221420Z 23012KT 7000 -SHSN FEW012 SCT022 00/M02 Q1001;","P01 006603SCOCIG"
"01044099999","2008-12-22T14:50:00","4","70.486675","22.139744","6.4","HASVIK, NO","FM-15","ENHK ","V020","220,1,N,0051,1","99999,9,C,N","006000,1,N,1","-0010,1","-0010,1","99999,9","02,5,+00360,1,99,9","04,5,+00720,1,99,9",,,"04,99,1,99,9,99,9,99999,9,99,9,99,9",,"10020,1,99999,9","85,5",,,,"MET065METAR ENHK 221450Z 22010KT 6000-SHSN FEW012 SCT024 M01/M01 Q1002;","P01 007203SCOCIG"
"01044099999","2008-12-23T04:20:00","4","70.486675","22.139744","6.4","HASVIK, NO","FM-15","ENHK ","V020","350,1,N,0057,1","00990,1,C,N","011265,1,N,1","+0010,1","-0030,1","99999,9","02,5,+00720,1,99,9","04,5,+00990,1,99,9","07,5,+01200,1,99,9",,"07,99,1,99,9,99,9,99999,9,99,9,99,9",,"10129,1,99999,9","85,5",,,,"MET080METAR ENHK 230420Z 35011KT 270V070 9999 -SHSN FEW024 SCT033 BKN040 01/M03 Q1013;",
"01044099999","2008-12-23T04:50:00","4","70.486675","22.139744","6.4","HASVIK, NO","FM-15","ENHK ","V020","330,1,N,0087,1","01020,1,C,N","011265,1,N,1","+0020,1","-0030,1","99999,9","02,5,+00720,1,99,9","04,5,+01020,1,99,9","07,5,+01230,1,99,9",,"07,99,1,99,9,99,9,99999,9,99,9,99,9",,"10139,1,99999,9","85,5",,,,"MET072METAR ENHK 230450Z 33017KT 9999 -SHSN FEW024 SCT034 BKN041 02/M03 Q1014;",
"01044099999","2008-12-23T05:20:00","4","70.486675","22.139744","6.4","HASVIK, NO","FM-15","ENHK ","V020","330,1,N,0082,1","00990,1,C,N","011265,1,N,1","+0020,1","-0040,1","99999,9","02,5,+00720,1,99,9","07,5,+00990,1,99,9",,,"07,99,1,99,9,99,9,99999,9,99,9,99,9",,"10149,1,99999,9","16,1",,,,"MET069METAR ENHK 230520Z 33016KT 9999 VCSH FEW024 BKN033 02/M04 Q1015 RESN;",
"01044099999","2008-12-23T05:50:00","4","70.486675","22.139744","6.4","HASVIK, NO","FM-15","ENHK ","V020","340,1,N,0087,1","01020,1,C,N","011265,1,N,1","+0010,1","-0040,1","99999,9","02,5,+00690,1,99,9","07,5,+01020,1,99,9",,,"07,99,1,99,9,99,9,99999,9,99,9,99,9",,"10149,1,99999,9","16,1",,,"0154,1","MET067METAR ENHK 230550Z 34017G30KT 9999 VCSH FEW023 BKN034 01/M04 Q1015;",
"01044099999","2008-12-23T06:20:00","4","70.486675","22.139744","6.4","HASVIK, NO","FM-15","ENHK ","V020","330,1,N,0062,1","01020,1,C,N","011265,1,N,1","+0010,1","-0030,1","99999,9","02,5,+00720,1,99,9","07,5,+01020,1,99,9",,,"07,99,1,99,9,99,9,99999,9,99,9,99,9",,"10159,1,99999,9",,,,,"MET059METAR ENHK 230620Z 33012KT 9999 FEW024 BKN034 01/M03 Q1016;",
"01044099999","2008-12-23T12:20:00","4","70.486675","22.139744","6.4","HASVIK, NO","FM-15","ENHK ","V020","360,1,N,0057,1","00360,1,9,N","003000,1,N,1","+0000,1","-0010,1","99999,9","09,1,+00360,1,99,9",,,,"09,99,1,99,9,99,9,00025,1,99,9,99,9",,"10190,1,99999,9","85,5",,,"0108,1","MET068METAR ENHK 231220Z 36011G21KT 320V030 3000 -SHSN VV012 00/M01 Q1019;",
"01044099999","2008-12-23T12:50:00","4","70.486675","22.139744","6.4","HASVIK, NO","FM-15","ENHK ","V020","340,1,N,0051,1","00450,1,C,N","004000,1,N,1","+0000,1","-0010,1","99999,9","02,5,+00300,1,99,9","07,5,+00450,1,99,9",,,"07,99,1,99,9,99,9,99999,9,99,9,99,9",,"10190,1,99999,9","85,5",,,,"MET074METAR ENHK 231250Z 34010KT 310V010 4000E -SHSN FEW010 BKN015 00/M01 Q1019;",
"01044099999","2008-12-23T13:20:00","4","70.486675","22.139744","6.4","HASVIK, NO","FM-15","ENHK ","V020","360,1,N,0051,1","22000,1,9,N","004000,1,N,1","+0010,1","-0010,1","99999,9","04,5,+00300,1,99,9","07,1,+00390,1,99,9",,,"07,99,1,99,9,99,9,99999,9,99,9,99,9",,"10200,1,99999,9","73,1",,,"0103,1","MET075METAR ENHK 231320Z 36010G20KT 320V070 4000E SN SCT010 BKN0130 01/M01 Q1020;",
"01044099999","2008-12-23T13:50:00","4","70.486675","22.139744","6.4","HASVIK, NO","FM-15","ENHK ","V020","010,1,N,0067,1","00360,1,9,N","003500,1,N,1","+0000,1","-0010,1","99999,9","09,1,+00360,1,99,9",,,,"09,99,1,99,9,99,9,00025,1,99,9,99,9",,"10200,1,99999,9","73,1",,,"0123,1","MET065METAR ENHK 231350Z 01013G24KT 340V060 3500 SN VV012 00/M01 Q1020;",
"01044099999","2008-12-23T14:50:00","4","70.486675","22.139744","6.4","HASVIK, NO","FM-15","ENHK ","V020","030,1,N,0051,1","00480,1,C,N","008000,1,N,1","+0000,1","-0010,1","99999,9","02,5,+00300,1,99,9","07,5,+00480,1,99,9",,,"07,99,1,99,9,99,9,99999,9,99,9,99,9",,"10200,1,99999,9","71,1",,,,"MET071METAR ENHK 231450Z 03010KT 350V120 8000 -SN FEW010 BKN016 00/M01 Q1020;",
"01044099999","2008-12-23T22:50:00","4","70.486675","22.139744","6.4","HASVIK, NO","FM-15","ENHK ","V020","100,1,N,0051,1","22000,1,9,N","011265,1,N,1","+0000,1","-0030,1","99999,9","02,5,+00450,1,99,9",,,,"02,99,1,99,9,99,9,99999,9,99,9,99,9",,"10190,1,99999,9",,,,,"MET052METAR ENHK 232250Z 10010KT 9999 FEW015 00/M03 Q1019;",
"01044099999","2008-12-29T04:20:00","4","70.486675","22.139744","6.4","HASVIK, NO","FM-15","ENHK ","V020","270,1,N,0175,1","99999,9,C,N","011265,1,N,1","+0060,1","+0030,1","99999,9","02,5,+00660,1,99,9","04,5,+01650,5,99,9",,,"04,99,1,99,9,99,9,99999,9,99,9,99,9",,"10129,1,99999,9",,,,"0237,1","MET061METAR ENHK 290420Z 27034G46KT 9999 FEW022 SCT055 06/03 Q1013;","P01 016503SCOCIG"
"01044099999","2008-12-29T04:50:00","4","70.486675","22.139744","6.4","HASVIK, NO","FM-15","ENHK ","V020","280,1,N,0185,1","22000,1,9,N","011265,1,N,1","+0060,1","+0020,1","99999,9","04,5,+00690,1,99,9",,,,"04,99,1,99,9,99,9,99999,9,99,9,99,9",,"10129,1,99999,9","80,1",,,"0262,1","MET060METAR ENHK 290450Z 28036G51KT 9999 -SHRA SCT023 06/02 Q1013;",
"01044099999","2008-12-29T05:20:00","4","70.486675","22.139744","6.4","HASVIK, NO","FM-15","ENHK ","V020","270,1,N,0211,1","22000,1,9,N","011265,1,N,1","+0060,1","+0020,1","99999,9","04,5,+00690,1,99,9",,,,"04,99,1,99,9,99,9,99999,9,99,9,99,9",,"10119,1,99999,9","80,1",,,"0283,1","MET060METAR ENHK 290520Z 27041G55KT 9999 -SHRA SCT023 06/02 Q1012;",
"01044099999","2008-12-29T05:50:00","4","70.486675","22.139744","6.4","HASVIK, NO","FM-15","ENHK ","V020","270,1,N,0144,1","22000,1,9,N","011265,1,N,1","+0060,1","+0030,1","99999,9","04,5,+00690,1,99,9",,,,"04,99,1,99,9,99,9,99999,9,99,9,99,9",,"10108,1,99999,9","80,1",,,"0216,1","MET060METAR ENHK 290550Z 27028G42KT 9999 -SHRA SCT023 06/03 Q1011;",
"01044099999","2008-12-29T06:20:00","4","70.486675","22.139744","6.4","HASVIK, NO","FM-15","ENHK ","V020","270,1,N,0139,1","22000,1,9,N","011265,1,N,1","+0060,1","+0030,1","99999,9","04,5,+00750,1,99,9",,,,"04,99,1,99,9,99,9,99999,9,99,9,99,9",,"10108,1,99999,9",,,,"0211,1","MET059METAR ENHK 290620Z 27027G41KT 9999 SCT025 06/03 Q1011 RERA;",
"01044099999","2008-12-29T06:50:00","4","70.486675","22.139744","6.4","HASVIK, NO","FM-15","ENHK ","V020","270,1,N,0175,1","01590,5,C,N","011265,1,N,1","+0060,1","+0030,1","99999,9","04,5,+00750,1,99,9","07,5,+01590,5,99,9",,,"07,99,1,99,9,99,9,99999,9,99,9,99,9",,"10102,1,99999,9",,,,"0252,1","MET061METAR ENHK 290650Z 27034G49KT 9999 SCT025 BKN053 06/03 Q1010;",
"01044099999","2008-12-29T07:50:00","4","70.486675","22.139744","6.4","HASVIK, NO","FM-15","ENHK ","V020","280,1,N,0165,1","00750,1,C,N","011265,1,N,1","+0070,1","+0030,1","99999,9","07,5,+00750,1,99,9",,,,"07,99,1,99,9,99,9,99999,9,99,9,99,9",,"10102,1,99999,9",,,,"0221,1","MET054METAR ENHK 290750Z 28032G43KT 9999 BKN025 07/03 Q1010;",
"01044099999","2008-12-29T09:20:00","4","70.486675","22.139744","6.4","HASVIK, NO","FM-15","ENHK ","V020","270,1,N,0180,1","00720,1,C,N","011265,1,N,1","+0070,1","+0030,1","99999,9","07,5,+00720,1,99,9",,,,"07,99,1,99,9,99,9,99999,9,99,9,99,9",,"10102,1,99999,9",,,,"0242,1","MET054METAR ENHK 290920Z 27035G47KT 9999 BKN024 07/03 Q1010;",
"01044099999","2008-12-29T09:50:00","4","70.486675","22.139744","6.4","HASVIK, NO","FM-15","ENHK ","V020","270,1,N,0165,1","00750,1,C,N","011265,1,N,1","+0070,1","+0030,1","99999,9","07,5,+00750,1,99,9",,,,"07,99,1,99,9,99,9,99999,9,99,9,99,9",,"10102,1,99999,9","80,1",,,"0231,1","MET060METAR ENHK 290950Z 27032G45KT 9999 -SHRA BKN025 07/03 Q1010;",
"01044099999","2008-12-29T10:50:00","4","70.486675","22.139744","6.4","HASVIK, NO","FM-15","ENHK ","V020","270,1,N,0154,1","00750,1,C,N","011265,1,N,1","+0070,1","+0030,1","99999,9","02,5,+00450,1,99,9","07,5,+00750,1,99,9",,,"07,99,1,99,9,99,9,99999,9,99,9,99,9",,"10102,1,99999,9","80,1",,,"0226,1","MET067METAR ENHK 291050Z 27030G44KT 9999 -SHRA FEW015 BKN025 07/03 Q1010;",
"01044099999","2008-12-29T11:20:00","4","70.486675","22.139744","6.4","HASVIK, NO","FM-15","ENHK ","V020","270,1,N,0180,1","00600,1,C,N","011265,1,N,1","+0070,1","+0040,1","99999,9","02,5,+00450,1,99,9","07,5,+00600,1,99,9",,,"07,99,1,99,9,99,9,99999,9,99,9,99,9",,"10102,1,99999,9","80,1",,,"0252,1","MET067METAR ENHK 291120Z 27035G49KT 9999 -SHRA FEW015 BKN020 07/04 Q1010;",
"01044099999","2008-12-29T11:50:00","4","70.486675","22.139744","6.4","HASVIK, NO","FM-15","ENHK ","V020","270,1,N,0190,1","00600,1,C,N","011265,1,N,1","+0070,1","+0040,1","99999,9","04,5,+00450,1,99,9","07,5,+00600,1,99,9",,,"07,99,1,99,9,99,9,99999,9,99,9,99,9",,"10102,1,99999,9","80,1",,,"0268,1","MET067METAR ENHK 291150Z 27037G52KT 9999 -SHRA SCT015 BKN020 07/04 Q1010;",
"01044099999","2008-12-29T12:20:00","4","70.486675","22.139744","6.4","HASVIK, NO","FM-15","ENHK ","V020","280,1,N,0185,1","00750,1,C,N","011265,1,N,1","+0070,1","+0030,1","99999,9","02,5,+00450,1,99,9","07,5,+00750,1,99,9",,,"07,99,1,99,9,99,9,99999,9,99,9,99,9",,"10102,1,99999,9",,,,"0262,1","MET061METAR ENHK 291220Z 28036G51KT 9999 FEW015 BKN025 07/03 Q1010;",
"01044099999","2008-12-29T12:50:00","4","70.486675","22.139744","6.4","HASVIK, NO","FM-15","ENHK ","V020","280,1,N,0190,1","00750,1,C,N","011265,1,N,1","+0070,1","+0030,1","99999,9","02,5,+00450,1,99,9","07,5,+00750,1,99,9",,,"07,99,1,99,9,99,9,99999,9,99,9,99,9",,"10102,1,99999,9",,,,,"MET058METAR ENHK 291250Z 28037KT 9999 FEW015 BKN025 07/03 Q1010;",
"01044099999","2008-12-29T13:20:00","4","70.486675","22.139744","6.4","HASVIK, NO","FM-15","ENHK ","V020","280,1,N,0185,1","00900,1,C,N","011265,1,N,1","+0070,1","+0030,1","99999,9","02,5,+00450,1,99,9","07,5,+00900,1,99,9",,,"07,99,1,99,9,99,9,99999,9,99,9,99,9",,"10091,1,99999,9",,,,"0268,1","MET061METAR ENHK 291320Z 28036G52KT 9999 FEW015 BKN030 07/03 Q1009;",
"01044099999","2008-12-29T13:50:00","4","70.486675","22.139744","6.4","HASVIK, NO","FM-15","ENHK ","V020","270,1,N,0159,1","00750,1,C,N","011265,1,N,1","+0070,1","+0030,1","99999,9","02,5,+00450,1,99,9","07,5,+00750,1,99,9",,,"07,99,1,99,9,99,9,99999,9,99,9,99,9",,"10091,1,99999,9",,,,"0231,1","MET061METAR ENHK 291350Z 27031G45KT 9999 FEW015 BKN025 07/03 Q1009;",
"01044099999","2008-12-29T14:20:00","4","70.486675","22.139744","6.4","HASVIK, NO","FM-15","ENHK ","V020","280,1,N,0165,1","00750,1,C,N","011265,1,N,1","+0070,1","+0020,1","99999,9","02,5,+00450,1,99,9","07,5,+00750,1,99,9",,,"07,99,1,99,9,99,9,99999,9,99,9,99,9",,"10091,1,99999,9",,,,"0237,1","MET061METAR ENHK 291420Z 28032G46KT 9999 FEW015 BKN025 07/02 Q1009;",
"01044099999","2008-12-29T15:20:00","4","70.486675","22.139744","6.4","HASVIK, NO","FM-15","ENHK ","V020","280,1,N,0185,1","00900,1,C,N","011265,1,N,1","+0070,1","+0030,1","99999,9","02,5,+00450,1,99,9","07,5,+00900,1,99,9",,,"07,99,1,99,9,99,9,99999,9,99,9,99,9",,"10081,1,99999,9",,,,"0278,1","MET061METAR ENHK 291520Z 28036G54KT 9999 FEW015 BKN030 07/03 Q1008;",
"01044099999","2008-12-30T04:20:00","4","70.486675","22.139744","6.4","HASVIK, NO","FM-15","ENHK ","V020","310,1,N,0165,1","00690,1,C,N","011265,1,N,1","+0030,1","+0010,1","99999,9","02,5,+00330,1,99,9","07,5,+00690,1,99,9",,,"07,99,1,99,9,99,9,99999,9,99,9,99,9",,"10051,1,99999,9","80,1",,,,"MET064METAR ENHK 300420Z 31032KT 9999 -SHRA FEW011 BKN023 03/01 Q1005;",
"01044099999","2008-12-30T04:50:00","4","70.486675","22.139744","6.4","HASVIK, NO","FM-15","ENHK ","V020","300,1,N,0175,1","00750,1,C,N","011265,1,N,1","+0030,1","+0000,1","99999,9","02,5,+00330,1,99,9","07,5,+00750,1,99,9",,,"07,99,1,99,9,99,9,99999,9,99,9,99,9",,"10051,1,99999,9","80,1",,,,"MET064METAR ENHK 300450Z 30034KT 9999 -SHRA FEW011 BKN025 03/00 Q1005;",
"01044099999","2008-12-30T05:20:00","4","70.486675","22.139744","6.4","HASVIK, NO","FM-15","ENHK ","V020","310,1,N,0159,1","00690,1,C,N","011265,1,N,1","+0030,1","+0000,1","99999,9","02,5,+00330,1,99,9","07,5,+00690,1,99,9",,,"07,99,1,99,9,99,9,99999,9,99,9,99,9",,"10051,1,99999,9","80,1",,,,"MET064METAR ENHK 300520Z 31031KT 9999 -SHRA FEW011 BKN023 03/00 Q1005;",
"01044099999","2008-12-30T06:50:00","4","70.486675","22.139744","6.4","HASVIK, NO","FM-15","ENHK ","V020","300,1,N,0139,1","00630,1,C,N","011265,1,N,1","+0020,1","+0000,1","99999,9","02,5,+00390,1,99,9","07,5,+00630,1,99,9",,,"07,99,1,99,9,99,9,99999,9,99,9,99,9",,"10051,1,99999,9","83,1",,,,"MET067METAR ENHK 300650Z 30027KT 9999 -SHRASN FEW013 BKN021 02/M00 Q1005;",
"01044099999","2008-12-30T07:50:00","4","70.486675","22.139744","6.4","HASVIK, NO","FM-15","ENHK ","V020","290,1,N,0144,1","99999,9,C,N","011265,1,N,1","+0030,1","+0000,1","99999,9","02,5,+00360,1,99,9","04,5,+00660,1,99,9",,,"04,99,1,99,9,99,9,99999,9,99,9,99,9",,"10061,1,99999,9",,,,,"MET064METAR ENHK 300750Z 29028KT 9999 FEW012 SCT022 03/M00 Q1006 RERA;","P01 006603SCOCIG"
"01044099999","2008-12-30T09:20:00","4","70.486675","22.139744","6.4","HASVIK, NO","FM-15","ENHK ","V020","310,1,N,0118,1","00630,1,C,N","011265,1,N,1","+0010,1","-0020,1","99999,9","02,5,+00360,1,99,9","07,5,+00630,1,99,9",,,"07,99,1,99,9,99,9,99999,9,99,9,99,9",,"10061,1,99999,9","85,5",,,,"MET065METAR ENHK 300920Z 31023KT 9999 -SHSN FEW012 BKN021 01/M02 Q1006;",
"01044099999","2008-12-30T12:50:00","4","70.486675","22.139744","6.4","HASVIK, NO","FM-15","ENHK ","V020","340,1,N,0067,1","00720,5,9,N","011265,1,N,1","+0000,1","-0020,1","99999,9","02,5,+00420,5,99,9","04,5,+00720,5,99,9","07,5,+01050,5,99,9",,,,"10070,1,99999,9",,,,,"MET073METAR ENHK 301250Z 34013KT 99999 VCSH FEW014 SCT024 BKN035 M00/M02 Q1007;",
"01044099999","2008-12-30T13:20:00","4","70.486675","22.139744","6.4","HASVIK, NO","FM-15","ENHK ","V020","320,1,N,0103,1","00660,1,C,N","007000,1,N,1","-0010,1","-0030,1","99999,9","02,5,+00420,1,99,9","07,5,+00660,1,99,9",,,"07,99,1,99,9,99,9,99999,9,99,9,99,9",,"10081,1,99999,9","71,1",,,,"MET064METAR ENHK 301320Z 32020KT 7000 -SN FEW014 BKN022 M01/M03 Q1008;",
"01044099999","2008-12-30T13:50:00","4","70.486675","22.139744","6.4","HASVIK, NO","FM-15","ENHK ","V020","240,1,N,0057,1","00660,1,C,N","007000,1,N,1","-0010,1","-0040,1","99999,9","04,5,+00420,1,99,9","07,5,+00660,1,99,9",,,"07,99,1,99,9,99,9,99999,9,99,9,99,9",,"10071,1,99999,9","71,1",,,,"MET072METAR ENHK 301350Z 24011KT 300V020 7000 -SN SCT014 BKN022 M01/M04 Q1007;",
"01044099999","2008-12-30T14:50:00","4","70.486675","22.139744","6.4","HASVIK, NO","FM-15","ENHK ","V020","330,1,N,0057,1","00480,1,C,N","008000,1,N,1","-0010,1","-0050,1","99999,9","02,5,+00420,1,99,9","04,5,+00480,1,99,9","07,5,+00810,1,99,9",,"07,99,1,99,9,99,9,99999,9,99,9,99,9",,"10071,1,99999,9","31,1",,,,"MET080METAR ENHK 301450Z 33011KT 310V010 8000 -SSN FEW014 SCT016 BKN027 M01/M05 Q1007;",
